<?xml version="1.0" encoding="UTF-8"?>
<kml xmlns="http://www.opengis.net/kml/2.2" xmlns:gx="http://www.google.com/kml/ext/2.2" xmlns:kml="http://www.opengis.net/kml/2.2">
<Document><name>US Election 2026</name>
<LookAt><longitude>-98.0</longitude><latitude>38.0</latitude><range>6000000</range><tilt>45</tilt><heading>0</heading><altitudeMode>relativeToGround</altitudeMode></LookAt>
<Style id="arc_0"><LineStyle><color>ffffe500</color><width>5</width></LineStyle></Style>
<Style id="arc_1"><LineStyle><color>ff5f37ff</color><width>5</width></LineStyle></Style>
<Style id="ring_2"><LineStyle><color>ff938e8e</color><width>1</width></LineStyle></Style>
<Style id="col_3"><LineStyle><color>ffffe500</color><width>1</width></LineStyle><PolyStyle><color>ffffe500</color></PolyStyle></Style>
<Style id="col_4"><LineStyle><color>ff5f37ff</color><width>1</width></LineStyle><PolyStyle><color>ff5f37ff</color></PolyStyle></Style>
<Style id="spire_5"><LineStyle><color>ffffe500</color><width>2</width></LineStyle></Style>
<Placemark><styleUrl>#arc_0</styleUrl><LineString><tessellate>1</tessellate><altitudeMode>relativeToGround</altitudeMode><coordinates>-92.3001,38.0,0 -92.3144,38.3176,0 -92.3571,38.6336,0 -92.4281,38.9464,0 -92.527,39.2545,0 -92.6532,39.5563,0 -92.8062,39.8503,0 -92.9853,40.135,0 -93.1894,40.4091,0 -93.4176,40.6711,0 -93.6687,40.9197,0 -93.9415,41.1538,0 -94.2347,41.372,0 -94.5467,41.5733,0 -94.8759,41.7568,0 -95.2208,41.9215,0 -95.5797,42.0665,0 -95.9506,42.1912,0 -96.3318,42.2949,0 -96.7213,42.3771,0 -97.1173,42.4374,0 -97.5176,42.4754,0 -97.9204,42.4911,0 -98.3236,42.4843,0 -98.7251,42.4551,0 -99.1231,42.4035,0 -99.5154,42.3299,0 -99.9001,42.2346,0 -100.2753,42.1182,0 -100.6391,41.9811,0 -100.9897,41.8241,0 -101.3254,41.6479,0 -101.6444,41.4535,0 -101.9451,41.2418,0 -102.2261,41.0139,0 -102.486,40.7709,0 -102.7234,40.514,0 -102.9371,40.2445,0 -103.1262,39.9638,0 -103.2896,39.6733,0 -103.4265,39.3744,0 -103.5362,39.0686,0 -103.6182,38.7575,0 -103.6721,38.4426,0 -103.6976,38.1254,0 -103.6946,37.8076,0 -103.6631,37.4908,0 -103.6033,37.1766,0 -103.5154,36.8664,0 -103.3998,36.562,0 -103.2573,36.2647,0 -103.0884,35.9761,0 -102.8941,35.6977,0 -102.6753,35.4308,0 -102.433,35.1767,0 -102.1686,34.9368,0</coordinates></LineString></Placemark>
<Placemark><styleUrl>#arc_1</styleUrl><LineString><tessellate>1</tessellate><altitudeMode>relativeToGround</altitudeMode><coordinates>-102.1686,34.9368,0 -101.8852,34.7135,0 -101.5825,34.5065,0 -101.2621,34.3168,0 -100.9256,34.1452,0 -100.5746,33.9928,0 -100.2109,33.8601,0 -99.8363,33.7479,0 -99.4526,33.6568,0 -99.0617,33.5871,0 -98.6656,33.5392,0 -98.2662,33.5133,0 -97.8654,33.5097,0 -97.4653,33.5282,0 -97.0679,33.5689,0 -96.6751,33.6315,0 -96.2888,33.7156,0 -95.911,33.821,0 -95.5435,33.947,0 -95.1882,34.093,0 -94.8467,34.2584,0 -94.5209,34.4422,0 -94.2122,34.6437,0 -93.9223,34.8617,0 -93.6525,35.0953,0 -93.4042,35.3432,0 -93.1787,35.6042,0 -92.977,35.8771,0 -92.8001,36.1605,0 -92.6489,36.453,0 -92.5242,36.7531,0 -92.4265,37.0594,0 -92.3564,37.3703,0 -92.3142,37.6844,0 -92.3001,38.0,0</coordinates></LineString></Placemark>
<Placemark><styleUrl>#ring_2</styleUrl><LineString><tessellate>1</tessellate><altitudeMode>relativeToGround</altitudeMode><coordinates>-94.0101,38.0,0 -94.0442,38.4104,0 -94.146,38.8138,0 -94.3138,39.2032,0 -94.5446,39.572,0 -94.8346,39.914,0 -95.1787,40.2232,0 -95.5711,40.4944,0 -96.005,40.7229,0 -96.4731,40.9048,0 -96.9673,41.037,0 -97.4792,41.1172,0 -98.0,41.1441,0 -98.5208,41.1172,0 -99.0327,41.037,0 -99.5269,40.9048,0 -99.995,40.7229,0 -100.4289,40.4944,0 -100.8213,40.2232,0 -101.1654,39.914,0 -101.4554,39.572,0 -101.6862,39.2032,0 -101.854,38.8138,0 -101.9558,38.4104,0 -101.9899,38.0,0 -101.9558,37.5896,0 -101.854,37.1862,0 -101.6862,36.7968,0 -101.4554,36.428,0 -101.1654,36.086,0 -100.8213,35.7768,0 -100.4289,35.5056,0 -99.995,35.2771,0 -99.5269,35.0952,0 -99.0327,34.963,0 -98.5208,34.8828,0 -98.0,34.8559,0 -97.4792,34.8828,0 -96.9673,34.963,0 -96.4731,35.0952,0 -96.005,35.2771,0 -95.5711,35.5056,0 -95.1787,35.7768,0 -94.8346,36.086,0 -94.5446,36.428,0 -94.3138,36.7968,0 -94.146,37.1862,0 -94.0442,37.5896,0 -94.0101,38.0,0</coordinates></LineString></Placemark>
<Placemark><styleUrl>#ring_2</styleUrl><LineString><tessellate>1</tessellate><altitudeMode>relativeToGround</altitudeMode><coordinates>-90.5902,38.0,0 -90.6536,38.7621,0 -90.8427,39.5113,0 -91.1542,40.2345,0 -91.5829,40.9195,0 -92.1214,41.5546,0 -92.7605,42.1288,0 -93.4892,42.6324,0 -94.2951,43.0567,0 -95.1644,43.3946,0 -96.0822,43.6401,0 -97.0328,43.7891,0 -98.0,43.839,0 -98.9672,43.7891,0 -99.9178,43.6401,0 -100.8356,43.3946,0 -101.7049,43.0567,0 -102.5108,42.6324,0 -103.2395,42.1288,0 -103.8786,41.5546,0 -104.4171,40.9195,0 -104.8458,40.2345,0 -105.1573,39.5113,0 -105.3464,38.7621,0 -105.4098,38.0,0 -105.3464,37.2379,0 -105.1573,36.4887,0 -104.8458,35.7655,0 -104.4171,35.0805,0 -103.8786,34.4454,0 -103.2395,33.8712,0 -102.5108,33.3676,0 -101.7049,32.9433,0 -100.8356,32.6054,0 -99.9178,32.3599,0 -98.9672,32.2109,0 -98.0,32.161,0 -97.0328,32.2109,0 -96.0822,32.3599,0 -95.1644,32.6054,0 -94.2951,32.9433,0 -93.4892,33.3676,0 -92.7605,33.8712,0 -92.1214,34.4454,0 -91.5829,35.0805,0 -91.1542,35.7655,0 -90.8427,36.4887,0 -90.6536,37.2379,0 -90.5902,38.0,0</coordinates></LineString></Placemark>
<Placemark><styleUrl>#col_3</styleUrl><Polygon><extrude>1</extrude><tessellate>1</tessellate><altitudeMode>relativeToGround</altitudeMode><outerBoundaryIs><LinearRing><coordinates>-75.2,39.8,18000 -74.8,39.8,18000 -74.8,40.2,18000 -75.2,40.2,18000 -75.2,39.8,18000</coordinates></LinearRing></outerBoundaryIs></Polygon></Placemark>
<Placemark><styleUrl>#col_4</styleUrl><Polygon><extrude>1</extrude><tessellate>1</tessellate><altitudeMode>relativeToGround</altitudeMode><outerBoundaryIs><LinearRing><coordinates>-95.2,29.8,14000 -94.8,29.8,14000 -94.8,30.2,14000 -95.2,30.2,14000 -95.2,29.8,14000</coordinates></LinearRing></outerBoundaryIs></Polygon></Placemark>
<Placemark><styleUrl>#spire_5</styleUrl><LineString><altitudeMode>relativeToGround</altitudeMode><coordinates>-98.0,38.0,0 -98.0,38.0,12000</coordinates></LineString></Placemark>
<Placemark><styleUrl>#spire_5</styleUrl><LineString><altitudeMode>relativeToGround</altitudeMode><coordinates>-98.0,38.0,0 -98.0,38.0,22000</coordinates></LineString></Placemark>
</Document></kml>
