<?xml version="1.0" encoding="UTF-8"?>
<kml xmlns="http://www.opengis.net/kml/2.2" xmlns:gx="http://www.google.com/kml/ext/2.2" xmlns:kml="http://www.opengis.net/kml/2.2">
<Document><name>Middle East Military</name>
<LookAt><longitude>45.0</longitude><latitude>28.0</latitude><range>3500000</range><tilt>45</tilt><heading>0</heading><altitudeMode>relativeToGround</altitudeMode></LookAt>
<Style id="icon_0"><IconStyle><scale>1.4</scale><Icon><href>http://lg1:81/kml/icons/circle-red.png</href></Icon></IconStyle></Style>
<Style id="icon_1"><IconStyle><scale>1.4</scale><Icon><href>http://lg1:81/kml/icons/circle-red.png</href></Icon></IconStyle></Style>
<Style id="poly_2"><PolyStyle><color>33303bff</color></PolyStyle></Style>
<Style id="ring_3"><LineStyle><color>ff303bff</color><width>2</width></LineStyle></Style>
<Style id="line_4"><LineStyle><color>ff00c4ff</color><width>3</width></LineStyle></Style>
<Style id="spire_5"><LineStyle><color>ff303bff</color><width>2</width></LineStyle></Style>
<Style id="spike_6"><LineStyle><color>ff303bff</color><width>2</width></LineStyle></Style>
<Style id="ring_7"><LineStyle><color>55303bff</color><width>3</width></LineStyle></Style>
<Style id="ring_8"><LineStyle><color>3c303bff</color><width>3</width></LineStyle></Style>
<Style id="ring_9"><LineStyle><color>28303bff</color><width>3</width></LineStyle></Style>
<Placemark><styleUrl>#icon_0</styleUrl><Point><altitudeMode>relativeToGround</altitudeMode><coordinates>50.0,26.0,9500</coordinates></Point></Placemark>
<Placemark><styleUrl>#icon_1</styleUrl><Point><altitudeMode>relativeToGround</altitudeMode><coordinates>40.0,30.0,10000</coordinates></Point></Placemark>
<Placemark><styleUrl>#poly_2</styleUrl><Polygon><tessellate>1</tessellate><altitudeMode>relativeToGround</altitudeMode><outerBoundaryIs><LinearRing><coordinates>38.0,34.0,0 48.0,34.0,0 46.0,24.0,0 38.0,24.0,0 38.0,34.0,0</coordinates></LinearRing></outerBoundaryIs></Polygon></Placemark>
<Placemark><styleUrl>#ring_3</styleUrl><LineString><tessellate>1</tessellate><altitudeMode>relativeToGround</altitudeMode><coordinates>48.0522,28.0,0 48.0261,28.3518,0 47.9482,28.6975,0 47.8199,29.0313,0 47.6433,29.3475,0 47.4215,29.6406,0 47.1582,29.9056,0 46.8581,30.138,0 46.5261,30.3339,0 46.168,30.4898,0 45.79,30.6031,0 45.3984,30.6719,0 45.0,30.6949,0 44.6016,30.6719,0 44.21,30.6031,0 43.832,30.4898,0 43.4739,30.3339,0 43.1419,30.138,0 42.8418,29.9056,0 42.5785,29.6406,0 42.3567,29.3475,0 42.1801,29.0313,0 42.0518,28.6975,0 41.9739,28.3518,0 41.9478,28.0,0 41.9739,27.6482,0 42.0518,27.3025,0 42.1801,26.9687,0 42.3567,26.6525,0 42.5785,26.3594,0 42.8418,26.0944,0 43.1419,25.862,0 43.4739,25.6661,0 43.832,25.5102,0 44.21,25.3969,0 44.6016,25.3281,0 45.0,25.3051,0 45.3984,25.3281,0 45.79,25.3969,0 46.168,25.5102,0 46.5261,25.6661,0 46.8581,25.862,0 47.1582,26.0944,0 47.4215,26.3594,0 47.6433,26.6525,0 47.8199,26.9687,0 47.9482,27.3025,0 48.0261,27.6482,0 48.0522,28.0,0</coordinates></LineString></Placemark>
<Placemark><styleUrl>#ring_3</styleUrl><LineString><tessellate>1</tessellate><altitudeMode>relativeToGround</altitudeMode><coordinates>51.1044,28.0,0 51.0522,28.7035,0 50.8964,29.395,0 50.6397,30.0626,0 50.2866,30.6949,0 49.8429,31.2811,0 49.3165,31.8112,0 48.7161,32.2761,0 48.0522,32.6678,0 47.3361,32.9796,0 46.5799,33.2062,0 45.7968,33.3438,0 45.0,33.3899,0 44.2032,33.3438,0 43.4201,33.2062,0 42.6639,32.9796,0 41.9478,32.6678,0 41.2839,32.2761,0 40.6835,31.8112,0 40.1571,31.2811,0 39.7134,30.6949,0 39.3603,30.0626,0 39.1036,29.395,0 38.9478,28.7035,0 38.8956,28.0,0 38.9478,27.2965,0 39.1036,26.605,0 39.3603,25.9374,0 39.7134,25.3051,0 40.1571,24.7189,0 40.6835,24.1888,0 41.2839,23.7239,0 41.9478,23.3322,0 42.6639,23.0204,0 43.4201,22.7938,0 44.2032,22.6562,0 45.0,22.6101,0 45.7968,22.6562,0 46.5799,22.7938,0 47.3361,23.0204,0 48.0522,23.3322,0 48.7161,23.7239,0 49.3165,24.1888,0 49.8429,24.7189,0 50.2866,25.3051,0 50.6397,25.9374,0 50.8964,26.605,0 51.0522,27.2965,0 51.1044,28.0,0</coordinates></LineString></Placemark>
<Placemark><styleUrl>#line_4</styleUrl><LineString><tessellate>1</tessellate><altitudeMode>relativeToGround</altitudeMode><coordinates>40.0,30.0,9000 44.0,27.0,9000 48.0,25.0,9000</coordinates></LineString></Placemark>
<Placemark><styleUrl>#spire_5</styleUrl><LineString><altitudeMode>relativeToGround</altitudeMode><coordinates>45.0,28.0,0 45.0,28.0,7000</coordinates></LineString></Placemark>
<Placemark><styleUrl>#spire_5</styleUrl><LineString><altitudeMode>relativeToGround</altitudeMode><coordinates>45.0,28.0,0 45.0,28.0,10500</coordinates></LineString></Placemark>
<Placemark><styleUrl>#spire_5</styleUrl><LineString><altitudeMode>relativeToGround</altitudeMode><coordinates>45.0,28.0,0 45.0,28.0,12000</coordinates></LineString></Placemark>
<Placemark><styleUrl>#spike_6</styleUrl><LineString><tessellate>1</tessellate><altitudeMode>relativeToGround</altitudeMode><coordinates>45.0458,28.0,0 45.1221,28.0,0</coordinates></LineString></Placemark>
<Placemark><styleUrl>#spike_6</styleUrl><LineString><tessellate>1</tessellate><altitudeMode>relativeToGround</altitudeMode><coordinates>45.0235,28.0086,0 45.1128,28.0413,0</coordinates></LineString></Placemark>
<Placemark><styleUrl>#spike_6</styleUrl><LineString><tessellate>1</tessellate><altitudeMode>relativeToGround</altitudeMode><coordinates>45.0324,28.0286,0 45.0863,28.0762,0</coordinates></LineString></Placemark>
<Placemark><styleUrl>#spike_6</styleUrl><LineString><tessellate>1</tessellate><altitudeMode>relativeToGround</altitudeMode><coordinates>45.0097,28.0207,0 45.0467,28.0996,0</coordinates></LineString></Placemark>
<Placemark><styleUrl>#spike_6</styleUrl><LineString><tessellate>1</tessellate><altitudeMode>relativeToGround</altitudeMode><coordinates>45.0,28.0404,0 45.0,28.1078,0</coordinates></LineString></Placemark>
<Placemark><styleUrl>#spike_6</styleUrl><LineString><tessellate>1</tessellate><altitudeMode>relativeToGround</altitudeMode><coordinates>44.9903,28.0207,0 44.9533,28.0996,0</coordinates></LineString></Placemark>
<Placemark><styleUrl>#spike_6</styleUrl><LineString><tessellate>1</tessellate><altitudeMode>relativeToGround</altitudeMode><coordinates>44.9676,28.0286,0 44.9137,28.0762,0</coordinates></LineString></Placemark>
<Placemark><styleUrl>#spike_6</styleUrl><LineString><tessellate>1</tessellate><altitudeMode>relativeToGround</altitudeMode><coordinates>44.9765,28.0086,0 44.8872,28.0413,0</coordinates></LineString></Placemark>
<Placemark><styleUrl>#spike_6</styleUrl><LineString><tessellate>1</tessellate><altitudeMode>relativeToGround</altitudeMode><coordinates>44.9542,28.0,0 44.8779,28.0,0</coordinates></LineString></Placemark>
<Placemark><styleUrl>#spike_6</styleUrl><LineString><tessellate>1</tessellate><altitudeMode>relativeToGround</altitudeMode><coordinates>44.9765,27.9914,0 44.8872,27.9587,0</coordinates></LineString></Placemark>
<Placemark><styleUrl>#spike_6</styleUrl><LineString><tessellate>1</tessellate><altitudeMode>relativeToGround</altitudeMode><coordinates>44.9676,27.9714,0 44.9137,27.9238,0</coordinates></LineString></Placemark>
<Placemark><styleUrl>#spike_6</styleUrl><LineString><tessellate>1</tessellate><altitudeMode>relativeToGround</altitudeMode><coordinates>44.9903,27.9793,0 44.9533,27.9004,0</coordinates></LineString></Placemark>
<Placemark><styleUrl>#spike_6</styleUrl><LineString><tessellate>1</tessellate><altitudeMode>relativeToGround</altitudeMode><coordinates>45.0,27.9596,0 45.0,27.8922,0</coordinates></LineString></Placemark>
<Placemark><styleUrl>#spike_6</styleUrl><LineString><tessellate>1</tessellate><altitudeMode>relativeToGround</altitudeMode><coordinates>45.0097,27.9793,0 45.0467,27.9004,0</coordinates></LineString></Placemark>
<Placemark><styleUrl>#spike_6</styleUrl><LineString><tessellate>1</tessellate><altitudeMode>relativeToGround</altitudeMode><coordinates>45.0324,27.9714,0 45.0863,27.9238,0</coordinates></LineString></Placemark>
<Placemark><styleUrl>#spike_6</styleUrl><LineString><tessellate>1</tessellate><altitudeMode>relativeToGround</altitudeMode><coordinates>45.0235,27.9914,0 45.1128,27.9587,0</coordinates></LineString></Placemark>
<Placemark><styleUrl>#ring_7</styleUrl><LineString><tessellate>1</tessellate><altitudeMode>relativeToGround</altitudeMode><coordinates>45.6715,28.0,0 45.6657,28.0774,0 45.6486,28.1535,0 45.6204,28.2269,0 45.5815,28.2964,0 45.5327,28.3609,0 45.4748,28.4192,0 45.4088,28.4704,0 45.3357,28.5135,0 45.257,28.5478,0 45.1738,28.5727,0 45.0876,28.5878,0 45.0,28.5929,0 44.9124,28.5878,0 44.8262,28.5727,0 44.743,28.5478,0 44.6643,28.5135,0 44.5912,28.4704,0 44.5252,28.4192,0 44.4673,28.3609,0 44.4185,28.2964,0 44.3796,28.2269,0 44.3514,28.1535,0 44.3343,28.0774,0 44.3285,28.0,0 44.3343,27.9226,0 44.3514,27.8465,0 44.3796,27.7731,0 44.4185,27.7036,0 44.4673,27.6391,0 44.5252,27.5808,0 44.5912,27.5296,0 44.6643,27.4865,0 44.743,27.4522,0 44.8262,27.4273,0 44.9124,27.4122,0 45.0,27.4071,0 45.0876,27.4122,0 45.1738,27.4273,0 45.257,27.4522,0 45.3357,27.4865,0 45.4088,27.5296,0 45.4748,27.5808,0 45.5327,27.6391,0 45.5815,27.7036,0 45.6204,27.7731,0 45.6486,27.8465,0 45.6657,27.9226,0 45.6715,28.0,0</coordinates></LineString></Placemark>
<Placemark><styleUrl>#ring_8</styleUrl><LineString><tessellate>1</tessellate><altitudeMode>relativeToGround</altitudeMode><coordinates>46.0377,28.0,0 46.0289,28.1196,0 46.0024,28.2372,0 45.9588,28.3506,0 45.8987,28.4581,0 45.8233,28.5578,0 45.7338,28.6479,0 45.6317,28.7269,0 45.5189,28.7935,0 45.3971,28.8465,0 45.2686,28.8851,0 45.1355,28.9084,0 45.0,28.9163,0 44.8645,28.9084,0 44.7314,28.8851,0 44.6029,28.8465,0 44.4811,28.7935,0 44.3683,28.7269,0 44.2662,28.6479,0 44.1767,28.5578,0 44.1013,28.4581,0 44.0412,28.3506,0 43.9976,28.2372,0 43.9711,28.1196,0 43.9623,28.0,0 43.9711,27.8804,0 43.9976,27.7628,0 44.0412,27.6494,0 44.1013,27.5419,0 44.1767,27.4422,0 44.2662,27.3521,0 44.3683,27.2731,0 44.4811,27.2065,0 44.6029,27.1535,0 44.7314,27.1149,0 44.8645,27.0916,0 45.0,27.0837,0 45.1355,27.0916,0 45.2686,27.1149,0 45.3971,27.1535,0 45.5189,27.2065,0 45.6317,27.2731,0 45.7338,27.3521,0 45.8233,27.4422,0 45.8987,27.5419,0 45.9588,27.6494,0 46.0024,27.7628,0 46.0289,27.8804,0 46.0377,28.0,0</coordinates></LineString></Placemark>
<Placemark><styleUrl>#ring_9</styleUrl><LineString><tessellate>1</tessellate><altitudeMode>relativeToGround</altitudeMode><coordinates>46.404,28.0,0 46.392,28.1618,0 46.3562,28.3209,0 46.2971,28.4744,0 46.2159,28.6198,0 46.1139,28.7547,0 45.9928,28.8766,0 45.8547,28.9835,0 45.702,29.0736,0 45.5373,29.1453,0 45.3634,29.1974,0 45.1833,29.2291,0 45.0,29.2397,0 44.8167,29.2291,0 44.6366,29.1974,0 44.4627,29.1453,0 44.298,29.0736,0 44.1453,28.9835,0 44.0072,28.8766,0 43.8861,28.7547,0 43.7841,28.6198,0 43.7029,28.4744,0 43.6438,28.3209,0 43.608,28.1618,0 43.596,28.0,0 43.608,27.8382,0 43.6438,27.6791,0 43.7029,27.5256,0 43.7841,27.3802,0 43.8861,27.2453,0 44.0072,27.1234,0 44.1453,27.0165,0 44.298,26.9264,0 44.4627,26.8547,0 44.6366,26.8026,0 44.8167,26.7709,0 45.0,26.7603,0 45.1833,26.7709,0 45.3634,26.8026,0 45.5373,26.8547,0 45.702,26.9264,0 45.8547,27.0165,0 45.9928,27.1234,0 46.1139,27.2453,0 46.2159,27.3802,0 46.2971,27.5256,0 46.3562,27.6791,0 46.392,27.8382,0 46.404,28.0,0</coordinates></LineString></Placemark>
</Document></kml>
