<?xml version="1.0" encoding="UTF-8"?>
<kml xmlns="http://www.opengis.net/kml/2.2" xmlns:gx="http://www.google.com/kml/ext/2.2" xmlns:kml="http://www.opengis.net/kml/2.2">
<Document><name>North Atlantic Corridor</name>
<LookAt><longitude>-40.0</longitude><latitude>50.0</latitude><range>6000000</range><tilt>45</tilt><heading>0</heading><altitudeMode>relativeToGround</altitudeMode></LookAt>
<Style id="icon_0"><IconStyle><scale>1.3</scale><Icon><href>http://lg1:81/kml/icons/circle-green.png</href></Icon></IconStyle></Style>
<Style id="icon_1"><IconStyle><scale>1.3</scale><Icon><href>http://lg1:81/kml/icons/circle-green.png</href></Icon></IconStyle></Style>
<Style id="line_2"><LineStyle><color>ff58d130</color><width>3</width></LineStyle></Style>
<Style id="ring_3"><LineStyle><color>ff58d130</color><width>2</width></LineStyle></Style>
<Style id="ring_4"><LineStyle><color>ff58d130</color><width>2</width></LineStyle></Style>
<Style id="poly_5"><PolyStyle><color>2258d130</color></PolyStyle></Style>
<Style id="spire_6"><LineStyle><color>ff00c4ff</color><width>2</width></LineStyle></Style>
<Placemark><styleUrl>#icon_0</styleUrl><Point><altitudeMode>relativeToGround</altitudeMode><coordinates>-0.45,51.47,11000</coordinates></Point></Placemark>
<Placemark><styleUrl>#icon_1</styleUrl><Point><altitudeMode>relativeToGround</altitudeMode><coordinates>-74.0,40.71,11500</coordinates></Point></Placemark>
<Placemark><styleUrl>#line_2</styleUrl><LineString><tessellate>1</tessellate><altitudeMode>relativeToGround</altitudeMode><coordinates>-0.45,51.47,11000 -20.0,53.5,11000 -40.0,50.0,11000 -60.0,46.0,11000 -74.0,40.71,11000</coordinates></LineString></Placemark>
<Placemark><styleUrl>#ring_3</styleUrl><LineString><tessellate>1</tessellate><altitudeMode>relativeToGround</altitudeMode><coordinates>1.2805,51.47,0 1.2657,51.6107,0 1.2215,51.749,0 1.1488,51.8825,0 1.0487,52.009,0 0.9229,52.1262,0 0.7737,52.2322,0 0.6035,52.3252,0 0.4153,52.4036,0 0.2122,52.4659,0 -0.0021,52.5112,0 -0.2241,52.5388,0 -0.45,52.548,0 -0.6759,52.5388,0 -0.8979,52.5112,0 -1.1122,52.4659,0 -1.3153,52.4036,0 -1.5035,52.3252,0 -1.6737,52.2322,0 -1.8229,52.1262,0 -1.9487,52.009,0 -2.0488,51.8825,0 -2.1215,51.749,0 -2.1657,51.6107,0 -2.1805,51.47,0 -2.1657,51.3293,0 -2.1215,51.191,0 -2.0488,51.0575,0 -1.9487,50.931,0 -1.8229,50.8138,0 -1.6737,50.7078,0 -1.5035,50.6148,0 -1.3153,50.5364,0 -1.1122,50.4741,0 -0.8979,50.4288,0 -0.6759,50.4012,0 -0.45,50.392,0 -0.2241,50.4012,0 -0.0021,50.4288,0 0.2122,50.4741,0 0.4153,50.5364,0 0.6035,50.6148,0 0.7737,50.7078,0 0.9229,50.8138,0 1.0487,50.931,0 1.1488,51.0575,0 1.2215,51.191,0 1.2657,51.3293,0 1.2805,51.47,0</coordinates></LineString></Placemark>
<Placemark><styleUrl>#ring_3</styleUrl><LineString><tessellate>1</tessellate><altitudeMode>relativeToGround</altitudeMode><coordinates>3.011,51.47,0 2.9814,51.7514,0 2.8931,52.028,0 2.7476,52.295,0 2.5473,52.548,0 2.2958,52.7825,0 1.9973,52.9945,0 1.6569,53.1804,0 1.2805,53.3371,0 0.8745,53.4618,0 0.4458,53.5525,0 0.0018,53.6075,0 -0.45,53.6259,0 -0.9018,53.6075,0 -1.3458,53.5525,0 -1.7745,53.4618,0 -2.1805,53.3371,0 -2.5569,53.1804,0 -2.8973,52.9945,0 -3.1958,52.7825,0 -3.4473,52.548,0 -3.6476,52.295,0 -3.7931,52.028,0 -3.8814,51.7514,0 -3.911,51.47,0 -3.8814,51.1886,0 -3.7931,50.912,0 -3.6476,50.645,0 -3.4473,50.392,0 -3.1958,50.1575,0 -2.8973,49.9455,0 -2.5569,49.7596,0 -2.1805,49.6029,0 -1.7745,49.4782,0 -1.3458,49.3875,0 -0.9018,49.3325,0 -0.45,49.3141,0 0.0018,49.3325,0 0.4458,49.3875,0 0.8745,49.4782,0 1.2805,49.6029,0 1.6569,49.7596,0 1.9973,49.9455,0 2.2958,50.1575,0 2.5473,50.392,0 2.7476,50.645,0 2.8931,50.912,0 2.9814,51.1886,0 3.011,51.47,0</coordinates></LineString></Placemark>
<Placemark><styleUrl>#ring_4</styleUrl><LineString><tessellate>1</tessellate><altitudeMode>relativeToGround</altitudeMode><coordinates>-72.5779,40.71,0 -72.5901,40.8507,0 -72.6264,40.989,0 -72.6862,41.1225,0 -72.7684,41.249,0 -72.8718,41.3662,0 -72.9944,41.4722,0 -73.1343,41.5652,0 -73.289,41.6436,0 -73.4558,41.7059,0 -73.6319,41.7512,0 -73.8144,41.7788,0 -74.0,41.788,0 -74.1856,41.7788,0 -74.3681,41.7512,0 -74.5442,41.7059,0 -74.711,41.6436,0 -74.8657,41.5652,0 -75.0056,41.4722,0 -75.1282,41.3662,0 -75.2316,41.249,0 -75.3138,41.1225,0 -75.3736,40.989,0 -75.4099,40.8507,0 -75.4221,40.71,0 -75.4099,40.5693,0 -75.3736,40.431,0 -75.3138,40.2975,0 -75.2316,40.171,0 -75.1282,40.0538,0 -75.0056,39.9478,0 -74.8657,39.8548,0 -74.711,39.7764,0 -74.5442,39.7141,0 -74.3681,39.6688,0 -74.1856,39.6412,0 -74.0,39.632,0 -73.8144,39.6412,0 -73.6319,39.6688,0 -73.4558,39.7141,0 -73.289,39.7764,0 -73.1343,39.8548,0 -72.9944,39.9478,0 -72.8718,40.0538,0 -72.7684,40.171,0 -72.6862,40.2975,0 -72.6264,40.431,0 -72.5901,40.5693,0 -72.5779,40.71,0</coordinates></LineString></Placemark>
<Placemark><styleUrl>#ring_4</styleUrl><LineString><tessellate>1</tessellate><altitudeMode>relativeToGround</altitudeMode><coordinates>-71.1558,40.71,0 -71.1802,40.9914,0 -71.2527,41.268,0 -71.3723,41.535,0 -71.5369,41.788,0 -71.7436,42.0225,0 -71.9889,42.2345,0 -72.2686,42.4204,0 -72.5779,42.5771,0 -72.9116,42.7018,0 -73.2639,42.7925,0 -73.6288,42.8475,0 -74.0,42.8659,0 -74.3712,42.8475,0 -74.7361,42.7925,0 -75.0884,42.7018,0 -75.4221,42.5771,0 -75.7314,42.4204,0 -76.0111,42.2345,0 -76.2564,42.0225,0 -76.4631,41.788,0 -76.6277,41.535,0 -76.7473,41.268,0 -76.8198,40.9914,0 -76.8442,40.71,0 -76.8198,40.4286,0 -76.7473,40.152,0 -76.6277,39.885,0 -76.4631,39.632,0 -76.2564,39.3975,0 -76.0111,39.1855,0 -75.7314,38.9996,0 -75.4221,38.8429,0 -75.0884,38.7182,0 -74.7361,38.6275,0 -74.3712,38.5725,0 -74.0,38.5541,0 -73.6288,38.5725,0 -73.2639,38.6275,0 -72.9116,38.7182,0 -72.5779,38.8429,0 -72.2686,38.9996,0 -71.9889,39.1855,0 -71.7436,39.3975,0 -71.5369,39.632,0 -71.3723,39.885,0 -71.2527,40.152,0 -71.1802,40.4286,0 -71.1558,40.71,0</coordinates></LineString></Placemark>
<Placemark><styleUrl>#poly_5</styleUrl><Polygon><tessellate>1</tessellate><altitudeMode>relativeToGround</altitudeMode><outerBoundaryIs><LinearRing><coordinates>-30.0,58.0,0 10.0,58.0,0 5.0,42.0,0 -60.0,42.0,0 -30.0,58.0,0</coordinates></LinearRing></outerBoundaryIs></Polygon></Placemark>
<Placemark><styleUrl>#spire_6</styleUrl><LineString><altitudeMode>relativeToGround</altitudeMode><coordinates>-35.0,46.0,0 -35.0,46.0,9000</coordinates></LineString></Placemark>
<Placemark><styleUrl>#spire_6</styleUrl><LineString><altitudeMode>relativeToGround</altitudeMode><coordinates>-35.0,46.0,0 -35.0,46.0,11000</coordinates></LineString></Placemark>
<Placemark><styleUrl>#spire_6</styleUrl><LineString><altitudeMode>relativeToGround</altitudeMode><coordinates>-35.0,46.0,0 -35.0,46.0,12500</coordinates></LineString></Placemark>
</Document></kml>
