<?xml version="1.0" encoding="UTF-8"?>
<kml xmlns="http://www.opengis.net/kml/2.2" xmlns:gx="http://www.google.com/kml/ext/2.2" xmlns:kml="http://www.opengis.net/kml/2.2">
<Document><name>Latitude Reference Lines</name>
<LookAt><longitude>0.0</longitude><latitude>0.0</latitude><range>22000000</range><tilt>30</tilt><heading>0</heading><altitudeMode>relativeToGround</altitudeMode></LookAt>
<Style id="line_0"><LineStyle><color>ffc7b030</color><width>3</width></LineStyle></Style>
<Style id="line_1"><LineStyle><color>ff0ad6ff</color><width>2</width></LineStyle></Style>
<Style id="line_2"><LineStyle><color>ff0ad6ff</color><width>2</width></LineStyle></Style>
<Style id="line_3"><LineStyle><color>fffac85a</color><width>2</width></LineStyle></Style>
<Style id="line_4"><LineStyle><color>fffac85a</color><width>2</width></LineStyle></Style>
<Style id="line_5"><LineStyle><color>ff938e8e</color><width>1</width></LineStyle></Style>
<Style id="dot_6"><IconStyle><scale>1.0</scale><Icon><href>http://lg1:81/kml/icons/circle-white.png</href></Icon></IconStyle></Style>
<Style id="ring_7"><LineStyle><color>ffc7b030</color><width>1</width></LineStyle></Style>
<Style id="poly_8"><PolyStyle><color>12c7b030</color></PolyStyle></Style>
<Placemark><styleUrl>#line_0</styleUrl><LineString><tessellate>1</tessellate><altitudeMode>relativeToGround</altitudeMode><coordinates>-180.0,0.0,0 -90.0,0.0,0 0.0,0.0,0 90.0,0.0,0 180.0,0.0,0</coordinates></LineString></Placemark>
<Placemark><styleUrl>#line_1</styleUrl><LineString><tessellate>1</tessellate><altitudeMode>relativeToGround</altitudeMode><coordinates>-180.0,23.5,0 0.0,23.5,0 180.0,23.5,0</coordinates></LineString></Placemark>
<Placemark><styleUrl>#line_2</styleUrl><LineString><tessellate>1</tessellate><altitudeMode>relativeToGround</altitudeMode><coordinates>-180.0,-23.5,0 0.0,-23.5,0 180.0,-23.5,0</coordinates></LineString></Placemark>
<Placemark><styleUrl>#line_3</styleUrl><LineString><tessellate>1</tessellate><altitudeMode>relativeToGround</altitudeMode><coordinates>-180.0,66.5,0 0.0,66.5,0 180.0,66.5,0</coordinates></LineString></Placemark>
<Placemark><styleUrl>#line_4</styleUrl><LineString><tessellate>1</tessellate><altitudeMode>relativeToGround</altitudeMode><coordinates>-180.0,-66.5,0 0.0,-66.5,0 180.0,-66.5,0</coordinates></LineString></Placemark>
<Placemark><styleUrl>#line_5</styleUrl><LineString><tessellate>1</tessellate><altitudeMode>relativeToGround</altitudeMode><coordinates>0.0,-90.0,0 0.0,0.0,0 0.0,90.0,0</coordinates></LineString></Placemark>
<Placemark><styleUrl>#dot_6</styleUrl><Point><altitudeMode>relativeToGround</altitudeMode><coordinates>0.0,0.0,0</coordinates></Point></Placemark>
<Placemark><styleUrl>#ring_7</styleUrl><LineString><tessellate>1</tessellate><altitudeMode>relativeToGround</altitudeMode><coordinates>8.9831,0.0,0 8.9063,1.1725,0 8.677,2.325,0 8.2993,3.4377,0 7.7796,4.4916,0 7.1268,5.4686,0 6.352,6.352,0 5.4686,7.1268,0 4.4916,7.7796,0 3.4377,8.2993,0 2.325,8.677,0 1.1725,8.9063,0 0.0,8.9831,0 -1.1725,8.9063,0 -2.325,8.677,0 -3.4377,8.2993,0 -4.4916,7.7796,0 -5.4686,7.1268,0 -6.352,6.352,0 -7.1268,5.4686,0 -7.7796,4.4916,0 -8.2993,3.4377,0 -8.677,2.325,0 -8.9063,1.1725,0 -8.9831,0.0,0 -8.9063,-1.1725,0 -8.677,-2.325,0 -8.2993,-3.4377,0 -7.7796,-4.4916,0 -7.1268,-5.4686,0 -6.352,-6.352,0 -5.4686,-7.1268,0 -4.4916,-7.7796,0 -3.4377,-8.2993,0 -2.325,-8.677,0 -1.1725,-8.9063,0 -0.0,-8.9831,0 1.1725,-8.9063,0 2.325,-8.677,0 3.4377,-8.2993,0 4.4916,-7.7796,0 5.4686,-7.1268,0 6.352,-6.352,0 7.1268,-5.4686,0 7.7796,-4.4916,0 8.2993,-3.4377,0 8.677,-2.325,0 8.9063,-1.1725,0 8.9831,-0.0,0</coordinates></LineString></Placemark>
<Placemark><styleUrl>#ring_7</styleUrl><LineString><tessellate>1</tessellate><altitudeMode>relativeToGround</altitudeMode><coordinates>17.9662,0.0,0 17.8125,2.3451,0 17.354,4.65,0 16.5986,6.8754,0 15.5592,8.9831,0 14.2536,10.9371,0 12.704,12.704,0 10.9371,14.2536,0 8.9831,15.5592,0 6.8754,16.5986,0 4.65,17.354,0 2.3451,17.8125,0 0.0,17.9662,0 -2.3451,17.8125,0 -4.65,17.354,0 -6.8754,16.5986,0 -8.9831,15.5592,0 -10.9371,14.2536,0 -12.704,12.704,0 -14.2536,10.9371,0 -15.5592,8.9831,0 -16.5986,6.8754,0 -17.354,4.65,0 -17.8125,2.3451,0 -17.9662,0.0,0 -17.8125,-2.3451,0 -17.354,-4.65,0 -16.5986,-6.8754,0 -15.5592,-8.9831,0 -14.2536,-10.9371,0 -12.704,-12.704,0 -10.9371,-14.2536,0 -8.9831,-15.5592,0 -6.8754,-16.5986,0 -4.65,-17.354,0 -2.3451,-17.8125,0 -0.0,-17.9662,0 2.3451,-17.8125,0 4.65,-17.354,0 6.8754,-16.5986,0 8.9831,-15.5592,0 10.9371,-14.2536,0 12.704,-12.704,0 14.2536,-10.9371,0 15.5592,-8.9831,0 16.5986,-6.8754,0 17.354,-4.65,0 17.8125,-2.3451,0 17.9662,-0.0,0</coordinates></LineString></Placemark>
<Placemark><styleUrl>#poly_8</styleUrl><Polygon><tessellate>1</tessellate><altitudeMode>relativeToGround</altitudeMode><outerBoundaryIs><LinearRing><coordinates>-30.0,23.5,0 30.0,23.5,0 30.0,-23.5,0 -30.0,-23.5,0 -30.0,23.5,0</coordinates></LinearRing></outerBoundaryIs></Polygon></Placemark>
</Document></kml>
