<?xml version="1.0" encoding="UTF-8"?>
<kml xmlns="http://www.opengis.net/kml/2.2" xmlns:gx="http://www.google.com/kml/ext/2.2" xmlns:kml="http://www.opengis.net/kml/2.2">
<Document><name>Tectonic Plates</name>
<LookAt><longitude>-120.0</longitude><latitude>10.0</latitude><range>12000000</range><tilt>35</tilt><heading>0</heading><altitudeMode>relativeToGround</altitudeMode></LookAt>
<Style id="line_0"><LineStyle><color>ff0095ff</color><width>3</width></LineStyle></Style>
<Style id="line_1"><LineStyle><color>ff0095ff</color><width>3</width></LineStyle></Style>
<Style id="poly_2"><PolyStyle><color>220095ff</color></PolyStyle></Style>
<Style id="dot_3"><IconStyle><scale>0.9</scale><Icon><href>http://lg1:81/kml/icons/circle-red.png</href></Icon></IconStyle></Style>
<Style id="ring_4"><LineStyle><color>ff0095ff</color><width>2</width></LineStyle></Style>
<Placemark><styleUrl>#line_0</styleUrl><LineString><tessellate>1</tessellate><altitudeMode>relativeToGround</altitudeMode><coordinates>-160.0,55.0,0 -140.0,45.0,0 -120.0,30.0,0 -100.0,10.0,0 -80.0,-20.0,0 -70.0,-50.0,0</coordinates></LineString></Placemark>
<Placemark><styleUrl>#line_1</styleUrl><LineString><tessellate>1</tessellate><altitudeMode>relativeToGround</altitudeMode><coordinates>100.0,-10.0,0 120.0,0.0,0 140.0,20.0,0 160.0,40.0,0</coordinates></LineString></Placemark>
<Placemark><styleUrl>#poly_2</styleUrl><Polygon><tessellate>1</tessellate><altitudeMode>relativeToGround</altitudeMode><outerBoundaryIs><LinearRing><coordinates>-140.0,40.0,0 -100.0,40.0,0 -110.0,10.0,0 -150.0,10.0,0 -140.0,40.0,0</coordinates></LinearRing></outerBoundaryIs></Polygon></Placemark>
<Placemark><styleUrl>#dot_3</styleUrl><Point><altitudeMode>relativeToGround</altitudeMode><coordinates>-155.0,20.0,0</coordinates></Point></Placemark>
<Placemark><styleUrl>#dot_3</styleUrl><Point><altitudeMode>relativeToGround</altitudeMode><coordinates>-122.0,46.0,0</coordinates></Point></Placemark>
<Placemark><styleUrl>#dot_3</styleUrl><Point><altitudeMode>relativeToGround</altitudeMode><coordinates>140.0,36.0,0</coordinates></Point></Placemark>
<Placemark><styleUrl>#dot_3</styleUrl><Point><altitudeMode>relativeToGround</altitudeMode><coordinates>100.0,-6.0,0</coordinates></Point></Placemark>
<Placemark><styleUrl>#ring_4</styleUrl><LineString><tessellate>1</tessellate><altitudeMode>relativeToGround</altitudeMode><coordinates>-106.1761,-20.0,0 -106.2089,-19.531,0 -106.3064,-19.07,0 -106.4672,-18.6249,0 -106.6884,-18.2034,0 -106.9663,-17.8126,0 -107.2961,-17.4592,0 -107.6722,-17.1493,0 -108.0881,-16.8882,0 -108.5367,-16.6803,0 -109.0103,-16.5292,0 -109.5009,-16.4375,0 -110.0,-16.4068,0 -110.4991,-16.4375,0 -110.9897,-16.5292,0 -111.4633,-16.6803,0 -111.9119,-16.8882,0 -112.3278,-17.1493,0 -112.7039,-17.4592,0 -113.0337,-17.8126,0 -113.3116,-18.2034,0 -113.5328,-18.6249,0 -113.6936,-19.07,0 -113.7911,-19.531,0 -113.8239,-20.0,0 -113.7911,-20.469,0 -113.6936,-20.93,0 -113.5328,-21.3751,0 -113.3116,-21.7966,0 -113.0337,-22.1874,0 -112.7039,-22.5408,0 -112.3278,-22.8507,0 -111.9119,-23.1118,0 -111.4633,-23.3197,0 -110.9897,-23.4708,0 -110.4991,-23.5625,0 -110.0,-23.5932,0 -109.5009,-23.5625,0 -109.0103,-23.4708,0 -108.5367,-23.3197,0 -108.0881,-23.1118,0 -107.6722,-22.8507,0 -107.2961,-22.5408,0 -106.9663,-22.1874,0 -106.6884,-21.7966,0 -106.4672,-21.3751,0 -106.3064,-20.93,0 -106.2089,-20.469,0 -106.1761,-20.0,0</coordinates></LineString></Placemark>
<Placemark><styleUrl>#ring_4</styleUrl><LineString><tessellate>1</tessellate><altitudeMode>relativeToGround</altitudeMode><coordinates>-102.3523,-20.0,0 -102.4177,-19.062,0 -102.6129,-18.14,0 -102.9344,-17.2498,0 -103.3769,-16.4068,0 -103.9327,-15.6251,0 -104.5923,-14.9184,0 -105.3444,-14.2986,0 -106.1761,-13.7763,0 -107.0734,-13.3605,0 -108.0206,-13.0584,0 -109.0018,-12.875,0 -110.0,-12.8135,0 -110.9982,-12.875,0 -111.9794,-13.0584,0 -112.9266,-13.3605,0 -113.8239,-13.7763,0 -114.6556,-14.2986,0 -115.4077,-14.9184,0 -116.0673,-15.6251,0 -116.6231,-16.4068,0 -117.0656,-17.2498,0 -117.3871,-18.14,0 -117.5823,-19.062,0 -117.6477,-20.0,0 -117.5823,-20.938,0 -117.3871,-21.86,0 -117.0656,-22.7502,0 -116.6231,-23.5932,0 -116.0673,-24.3749,0 -115.4077,-25.0816,0 -114.6556,-25.7014,0 -113.8239,-26.2237,0 -112.9266,-26.6395,0 -111.9794,-26.9416,0 -110.9982,-27.125,0 -110.0,-27.1865,0 -109.0018,-27.125,0 -108.0206,-26.9416,0 -107.0734,-26.6395,0 -106.1761,-26.2237,0 -105.3444,-25.7014,0 -104.5923,-25.0816,0 -103.9327,-24.3749,0 -103.3769,-23.5932,0 -102.9344,-22.7502,0 -102.6129,-21.86,0 -102.4177,-20.938,0 -102.3523,-20.0,0</coordinates></LineString></Placemark>
</Document></kml>
