<?xml version="1.0" encoding="UTF-8"?>
<kml xmlns="http://www.opengis.net/kml/2.2" xmlns:gx="http://www.google.com/kml/ext/2.2" xmlns:kml="http://www.opengis.net/kml/2.2">
<Document><name>Renewable Energy Rise</name>
<LookAt><longitude>0.0</longitude><latitude>30.0</latitude><range>9000000</range><tilt>40</tilt><heading>0</heading><altitudeMode>relativeToGround</altitudeMode></LookAt>
<Style id="burst_0"><LineStyle><color>ff0ad6ff</color><width>3</width></LineStyle></Style>
<Style id="col_1"><LineStyle><color>ff59c734</color><width>1</width></LineStyle><PolyStyle><color>ff59c734</color></PolyStyle></Style>
<Style id="col_2"><LineStyle><color>ff59c734</color><width>1</width></LineStyle><PolyStyle><color>ff59c734</color></PolyStyle></Style>
<Style id="ring_3"><LineStyle><color>ff0ad6ff</color><width>2</width></LineStyle></Style>
<Style id="poly_4"><PolyStyle><color>2259c734</color></PolyStyle></Style>
<Style id="dot_5"><IconStyle><scale>0.8</scale><Icon><href>http://lg1:81/kml/icons/circle-green.png</href></Icon></IconStyle></Style>
<Placemark><styleUrl>#burst_0</styleUrl><LineString><tessellate>1</tessellate><altitudeMode>relativeToGround</altitudeMode><coordinates>0.0,30.0,0 8.2982,30.0,0</coordinates></LineString></Placemark>
<Placemark><styleUrl>#burst_0</styleUrl><LineString><tessellate>1</tessellate><altitudeMode>relativeToGround</altitudeMode><coordinates>0.0,30.0,0 7.1865,33.5932,0</coordinates></LineString></Placemark>
<Placemark><styleUrl>#burst_0</styleUrl><LineString><tessellate>1</tessellate><altitudeMode>relativeToGround</altitudeMode><coordinates>0.0,30.0,0 4.1491,36.2237,0</coordinates></LineString></Placemark>
<Placemark><styleUrl>#burst_0</styleUrl><LineString><tessellate>1</tessellate><altitudeMode>relativeToGround</altitudeMode><coordinates>0.0,30.0,0 0.0,37.1865,0</coordinates></LineString></Placemark>
<Placemark><styleUrl>#burst_0</styleUrl><LineString><tessellate>1</tessellate><altitudeMode>relativeToGround</altitudeMode><coordinates>0.0,30.0,0 -4.1491,36.2237,0</coordinates></LineString></Placemark>
<Placemark><styleUrl>#burst_0</styleUrl><LineString><tessellate>1</tessellate><altitudeMode>relativeToGround</altitudeMode><coordinates>0.0,30.0,0 -7.1865,33.5932,0</coordinates></LineString></Placemark>
<Placemark><styleUrl>#burst_0</styleUrl><LineString><tessellate>1</tessellate><altitudeMode>relativeToGround</altitudeMode><coordinates>0.0,30.0,0 -8.2982,30.0,0</coordinates></LineString></Placemark>
<Placemark><styleUrl>#burst_0</styleUrl><LineString><tessellate>1</tessellate><altitudeMode>relativeToGround</altitudeMode><coordinates>0.0,30.0,0 -7.1865,26.4068,0</coordinates></LineString></Placemark>
<Placemark><styleUrl>#burst_0</styleUrl><LineString><tessellate>1</tessellate><altitudeMode>relativeToGround</altitudeMode><coordinates>0.0,30.0,0 -4.1491,23.7763,0</coordinates></LineString></Placemark>
<Placemark><styleUrl>#burst_0</styleUrl><LineString><tessellate>1</tessellate><altitudeMode>relativeToGround</altitudeMode><coordinates>0.0,30.0,0 -0.0,22.8135,0</coordinates></LineString></Placemark>
<Placemark><styleUrl>#burst_0</styleUrl><LineString><tessellate>1</tessellate><altitudeMode>relativeToGround</altitudeMode><coordinates>0.0,30.0,0 4.1491,23.7763,0</coordinates></LineString></Placemark>
<Placemark><styleUrl>#burst_0</styleUrl><LineString><tessellate>1</tessellate><altitudeMode>relativeToGround</altitudeMode><coordinates>0.0,30.0,0 7.1865,26.4068,0</coordinates></LineString></Placemark>
<Placemark><styleUrl>#col_1</styleUrl><Polygon><extrude>1</extrude><tessellate>1</tessellate><altitudeMode>relativeToGround</altitudeMode><outerBoundaryIs><LinearRing><coordinates>4.775,44.775,28000 5.225,44.775,28000 5.225,45.225,28000 4.775,45.225,28000 4.775,44.775,28000</coordinates></LinearRing></outerBoundaryIs></Polygon></Placemark>
<Placemark><styleUrl>#col_2</styleUrl><Polygon><extrude>1</extrude><tessellate>1</tessellate><altitudeMode>relativeToGround</altitudeMode><outerBoundaryIs><LinearRing><coordinates>119.8,29.8,24000 120.2,29.8,24000 120.2,30.2,24000 119.8,30.2,24000 119.8,29.8,24000</coordinates></LinearRing></outerBoundaryIs></Polygon></Placemark>
<Placemark><styleUrl>#ring_3</styleUrl><LineString><tessellate>1</tessellate><altitudeMode>relativeToGround</altitudeMode><coordinates>10.3728,30.0,0 10.2841,31.1725,0 10.0194,32.325,0 9.5832,33.4377,0 8.9831,34.4916,0 8.2293,35.4686,0 7.3347,36.352,0 6.3146,37.1268,0 5.1864,37.7796,0 3.9695,38.2993,0 2.6847,38.677,0 1.3539,38.9063,0 0.0,38.9831,0 -1.3539,38.9063,0 -2.6847,38.677,0 -3.9695,38.2993,0 -5.1864,37.7796,0 -6.3146,37.1268,0 -7.3347,36.352,0 -8.2293,35.4686,0 -8.9831,34.4916,0 -9.5832,33.4377,0 -10.0194,32.325,0 -10.2841,31.1725,0 -10.3728,30.0,0 -10.2841,28.8275,0 -10.0194,27.675,0 -9.5832,26.5623,0 -8.9831,25.5084,0 -8.2293,24.5314,0 -7.3347,23.648,0 -6.3146,22.8732,0 -5.1864,22.2204,0 -3.9695,21.7007,0 -2.6847,21.323,0 -1.3539,21.0937,0 -0.0,21.0169,0 1.3539,21.0937,0 2.6847,21.323,0 3.9695,21.7007,0 5.1864,22.2204,0 6.3146,22.8732,0 7.3347,23.648,0 8.2293,24.5314,0 8.9831,25.5084,0 9.5832,26.5623,0 10.0194,27.675,0 10.2841,28.8275,0 10.3728,30.0,0</coordinates></LineString></Placemark>
<Placemark><styleUrl>#ring_3</styleUrl><LineString><tessellate>1</tessellate><altitudeMode>relativeToGround</altitudeMode><coordinates>20.7456,30.0,0 20.5681,32.3451,0 20.0387,34.65,0 19.1664,36.8754,0 17.9662,38.9831,0 16.4586,40.9371,0 14.6694,42.704,0 12.6291,44.2536,0 10.3728,45.5592,0 7.939,46.5986,0 5.3694,47.354,0 2.7078,47.8125,0 0.0,47.9662,0 -2.7078,47.8125,0 -5.3694,47.354,0 -7.939,46.5986,0 -10.3728,45.5592,0 -12.6291,44.2536,0 -14.6694,42.704,0 -16.4586,40.9371,0 -17.9662,38.9831,0 -19.1664,36.8754,0 -20.0387,34.65,0 -20.5681,32.3451,0 -20.7456,30.0,0 -20.5681,27.6549,0 -20.0387,25.35,0 -19.1664,23.1246,0 -17.9662,21.0169,0 -16.4586,19.0629,0 -14.6694,17.296,0 -12.6291,15.7464,0 -10.3728,14.4408,0 -7.939,13.4014,0 -5.3694,12.646,0 -2.7078,12.1875,0 -0.0,12.0338,0 2.7078,12.1875,0 5.3694,12.646,0 7.939,13.4014,0 10.3728,14.4408,0 12.6291,15.7464,0 14.6694,17.296,0 16.4586,19.0629,0 17.9662,21.0169,0 19.1664,23.1246,0 20.0387,25.35,0 20.5681,27.6549,0 20.7456,30.0,0</coordinates></LineString></Placemark>
<Placemark><styleUrl>#poly_4</styleUrl><Polygon><tessellate>1</tessellate><altitudeMode>relativeToGround</altitudeMode><outerBoundaryIs><LinearRing><coordinates>-20.0,50.0,0 30.0,50.0,0 20.0,10.0,0 -15.0,10.0,0 -20.0,50.0,0</coordinates></LinearRing></outerBoundaryIs></Polygon></Placemark>
<Placemark><styleUrl>#dot_5</styleUrl><Point><altitudeMode>relativeToGround</altitudeMode><coordinates>5.0,45.0,0</coordinates></Point></Placemark>
<Placemark><styleUrl>#dot_5</styleUrl><Point><altitudeMode>relativeToGround</altitudeMode><coordinates>120.0,30.0,0</coordinates></Point></Placemark>
<Placemark><styleUrl>#dot_5</styleUrl><Point><altitudeMode>relativeToGround</altitudeMode><coordinates>-100.0,35.0,0</coordinates></Point></Placemark>
</Document></kml>
