<?xml version="1.0" encoding="UTF-8"?>
<kml xmlns="http://www.opengis.net/kml/2.2" xmlns:gx="http://www.google.com/kml/ext/2.2" xmlns:kml="http://www.opengis.net/kml/2.2">
<Document><name>European Gas Network</name>
<LookAt><longitude>15.0</longitude><latitude>50.0</latitude><range>4000000</range><tilt>45</tilt><heading>0</heading><altitudeMode>relativeToGround</altitudeMode></LookAt>
<Style id="line_0"><LineStyle><color>ff0095ff</color><width>4</width></LineStyle></Style>
<Style id="line_1"><LineStyle><color>ff0095ff</color><width>3</width></LineStyle></Style>
<Style id="col_2"><LineStyle><color>ff0095ff</color><width>1</width></LineStyle><PolyStyle><color>ff0095ff</color></PolyStyle></Style>
<Style id="icon_3"><IconStyle><scale>1.2</scale><Icon><href>http://lg1:81/kml/icons/circle-orange.png</href></Icon></IconStyle></Style>
<Style id="icon_4"><IconStyle><scale>1.1</scale><Icon><href>http://lg1:81/kml/icons/circle-orange.png</href></Icon></IconStyle></Style>
<Style id="poly_5"><PolyStyle><color>330095ff</color></PolyStyle></Style>
<Style id="ring_6"><LineStyle><color>ff0095ff</color><width>2</width></LineStyle></Style>
<Placemark><styleUrl>#line_0</styleUrl><LineString><tessellate>1</tessellate><altitudeMode>relativeToGround</altitudeMode><coordinates>4.0,52.0,0 10.0,50.0,0 16.0,48.0,0 24.0,46.0,0</coordinates></LineString></Placemark>
<Placemark><styleUrl>#line_1</styleUrl><LineString><tessellate>1</tessellate><altitudeMode>relativeToGround</altitudeMode><coordinates>2.0,46.0,0 8.0,48.0,0 14.0,50.0,0</coordinates></LineString></Placemark>
<Placemark><styleUrl>#col_2</styleUrl><Polygon><extrude>1</extrude><tessellate>1</tessellate><altitudeMode>relativeToGround</altitudeMode><outerBoundaryIs><LinearRing><coordinates>14.8,49.8,30000 15.2,49.8,30000 15.2,50.2,30000 14.8,50.2,30000 14.8,49.8,30000</coordinates></LinearRing></outerBoundaryIs></Polygon></Placemark>
<Placemark><styleUrl>#icon_3</styleUrl><Point><altitudeMode>relativeToGround</altitudeMode><coordinates>7.0,53.5,0</coordinates></Point></Placemark>
<Placemark><styleUrl>#icon_4</styleUrl><Point><altitudeMode>relativeToGround</altitudeMode><coordinates>24.0,48.0,0</coordinates></Point></Placemark>
<Placemark><styleUrl>#poly_5</styleUrl><Polygon><tessellate>1</tessellate><altitudeMode>relativeToGround</altitudeMode><outerBoundaryIs><LinearRing><coordinates>8.0,53.0,0 14.0,53.0,0 12.0,50.0,0 6.0,50.0,0 8.0,53.0,0</coordinates></LinearRing></outerBoundaryIs></Polygon></Placemark>
<Placemark><styleUrl>#ring_6</styleUrl><LineString><tessellate>1</tessellate><altitudeMode>relativeToGround</altitudeMode><coordinates>17.5155,50.0,0 17.494,50.2111,0 17.4298,50.4185,0 17.3241,50.6188,0 17.1785,50.8085,0 16.9957,50.9843,0 16.7788,51.1434,0 16.5314,51.2828,0 16.2578,51.4003,0 15.9627,51.4939,0 15.6511,51.5619,0 15.3283,51.6031,0 15.0,51.617,0 14.6717,51.6031,0 14.3489,51.5619,0 14.0373,51.4939,0 13.7422,51.4003,0 13.4686,51.2828,0 13.2212,51.1434,0 13.0043,50.9843,0 12.8215,50.8085,0 12.6759,50.6188,0 12.5702,50.4185,0 12.506,50.2111,0 12.4845,50.0,0 12.506,49.7889,0 12.5702,49.5815,0 12.6759,49.3812,0 12.8215,49.1915,0 13.0043,49.0157,0 13.2212,48.8566,0 13.4686,48.7172,0 13.7422,48.5997,0 14.0373,48.5061,0 14.3489,48.4381,0 14.6717,48.3969,0 15.0,48.383,0 15.3283,48.3969,0 15.6511,48.4381,0 15.9627,48.5061,0 16.2578,48.5997,0 16.5314,48.7172,0 16.7788,48.8566,0 16.9957,49.0157,0 17.1785,49.1915,0 17.3241,49.3812,0 17.4298,49.5815,0 17.494,49.7889,0 17.5155,50.0,0</coordinates></LineString></Placemark>
<Placemark><styleUrl>#ring_6</styleUrl><LineString><tessellate>1</tessellate><altitudeMode>relativeToGround</altitudeMode><coordinates>20.0311,50.0,0 19.988,50.4221,0 19.8597,50.837,0 19.6481,51.2376,0 19.357,51.617,0 18.9914,51.9687,0 18.5575,52.2867,0 18.0627,52.5656,0 17.5155,52.8007,0 16.9253,52.9878,0 16.3021,53.1237,0 15.6567,53.2063,0 15.0,53.2339,0 14.3433,53.2063,0 13.6979,53.1237,0 13.0747,52.9878,0 12.4845,52.8007,0 11.9373,52.5656,0 11.4425,52.2867,0 11.0086,51.9687,0 10.643,51.617,0 10.3519,51.2376,0 10.1403,50.837,0 10.012,50.4221,0 9.9689,50.0,0 10.012,49.5779,0 10.1403,49.163,0 10.3519,48.7624,0 10.643,48.383,0 11.0086,48.0313,0 11.4425,47.7133,0 11.9373,47.4344,0 12.4845,47.1993,0 13.0747,47.0122,0 13.6979,46.8763,0 14.3433,46.7937,0 15.0,46.7661,0 15.6567,46.7937,0 16.3021,46.8763,0 16.9253,47.0122,0 17.5155,47.1993,0 18.0627,47.4344,0 18.5575,47.7133,0 18.9914,48.0313,0 19.357,48.383,0 19.6481,48.7624,0 19.8597,49.163,0 19.988,49.5779,0 20.0311,50.0,0</coordinates></LineString></Placemark>
</Document></kml>
