<?xml version="1.0" encoding="UTF-8"?>
<kml xmlns="http://www.opengis.net/kml/2.2">
<Document><name>DRC Faction Markers</name>
<LookAt><longitude>28.0</longitude><latitude>-1.5</latitude><range>1500000</range><tilt>45</tilt><heading>0</heading><altitudeMode>relativeToGround</altitudeMode></LookAt>
<Style id="icon_0"><IconStyle><scale>1.3</scale><Icon><href>http://maps.google.com/mapfiles/kml/paddle/red-circle.png</href></Icon></IconStyle></Style>
<Style id="icon_1"><IconStyle><scale>1.3</scale><Icon><href>http://maps.google.com/mapfiles/kml/paddle/orange-circle.png</href></Icon></IconStyle></Style>
<Style id="icon_2"><IconStyle><scale>1.3</scale><Icon><href>http://maps.google.com/mapfiles/kml/paddle/yellow-circle.png</href></Icon></IconStyle></Style>
<Style id="icon_3"><IconStyle><scale>1.3</scale><Icon><href>http://maps.google.com/mapfiles/kml/paddle/green-circle.png</href></Icon></IconStyle></Style>
<Style id="poly_4"><PolyStyle><color>2d0095ff</color></PolyStyle></Style>
<Style id="ring_5"><LineStyle><color>ff0095ff</color><width>2</width></LineStyle></Style>
<Style id="line_6"><LineStyle><color>ff303bff</color><width>3</width></LineStyle></Style>
<Style id="ring_7"><LineStyle><color>550095ff</color><width>3</width></LineStyle></Style>
<Style id="ring_8"><LineStyle><color>3c0095ff</color><width>3</width></LineStyle></Style>
<Style id="ring_9"><LineStyle><color>280095ff</color><width>3</width></LineStyle></Style>
<Placemark><styleUrl>#icon_0</styleUrl><Point><altitudeMode>relativeToGround</altitudeMode><coordinates>29.0,-0.5,0</coordinates></Point></Placemark>
<Placemark><styleUrl>#icon_1</styleUrl><Point><altitudeMode>relativeToGround</altitudeMode><coordinates>30.0,1.5,0</coordinates></Point></Placemark>
<Placemark><styleUrl>#icon_2</styleUrl><Point><altitudeMode>relativeToGround</altitudeMode><coordinates>28.5,-3.0,0</coordinates></Point></Placemark>
<Placemark><styleUrl>#icon_3</styleUrl><Point><altitudeMode>relativeToGround</altitudeMode><coordinates>27.0,-1.0,0</coordinates></Point></Placemark>
<Placemark><styleUrl>#poly_4</styleUrl><Polygon><tessellate>1</tessellate><altitudeMode>relativeToGround</altitudeMode><outerBoundaryIs><LinearRing><coordinates>26.0,2.0,0 30.0,2.0,0 29.0,-4.0,0 26.0,-4.0,0 26.0,2.0,0</coordinates></LinearRing></outerBoundaryIs></Polygon></Placemark>
<Placemark><styleUrl>#ring_5</styleUrl><LineString><tessellate>1</tessellate><altitudeMode>relativeToGround</altitudeMode><coordinates>29.7969,-1.0,0 29.7815,-0.7655,0 29.7357,-0.535,0 29.6601,-0.3125,0 29.5562,-0.1017,0 29.4256,0.0937,0 29.2706,0.2704,0 29.0939,0.4254,0 28.8984,0.5559,0 28.6876,0.6599,0 28.4651,0.7354,0 28.2345,0.7813,0 28.0,0.7966,0 27.7655,0.7813,0 27.5349,0.7354,0 27.3124,0.6599,0 27.1016,0.5559,0 26.9061,0.4254,0 26.7294,0.2704,0 26.5744,0.0937,0 26.4438,-0.1017,0 26.3399,-0.3125,0 26.2643,-0.535,0 26.2185,-0.7655,0 26.2031,-1.0,0 26.2185,-1.2345,0 26.2643,-1.465,0 26.3399,-1.6875,0 26.4438,-1.8983,0 26.5744,-2.0937,0 26.7294,-2.2704,0 26.9061,-2.4254,0 27.1016,-2.5559,0 27.3124,-2.6599,0 27.5349,-2.7354,0 27.7655,-2.7813,0 28.0,-2.7966,0 28.2345,-2.7813,0 28.4651,-2.7354,0 28.6876,-2.6599,0 28.8984,-2.5559,0 29.0939,-2.4254,0 29.2706,-2.2704,0 29.4256,-2.0937,0 29.5562,-1.8983,0 29.6601,-1.6875,0 29.7357,-1.465,0 29.7815,-1.2345,0 29.7969,-1.0,0</coordinates></LineString></Placemark>
<Placemark><styleUrl>#ring_5</styleUrl><LineString><tessellate>1</tessellate><altitudeMode>relativeToGround</altitudeMode><coordinates>31.5938,-1.0,0 31.563,-0.531,0 31.4713,-0.07,0 31.3202,0.3751,0 31.1123,0.7966,0 30.8511,1.1874,0 30.5412,1.5408,0 30.1878,1.8507,0 29.7969,2.1118,0 29.3753,2.3197,0 28.9301,2.4708,0 28.4691,2.5625,0 28.0,2.5932,0 27.5309,2.5625,0 27.0699,2.4708,0 26.6247,2.3197,0 26.2031,2.1118,0 25.8122,1.8507,0 25.4588,1.5408,0 25.1489,1.1874,0 24.8877,0.7966,0 24.6798,0.3751,0 24.5287,-0.07,0 24.437,-0.531,0 24.4062,-1.0,0 24.437,-1.469,0 24.5287,-1.93,0 24.6798,-2.3751,0 24.8877,-2.7966,0 25.1489,-3.1874,0 25.4588,-3.5408,0 25.8122,-3.8507,0 26.2031,-4.1118,0 26.6247,-4.3197,0 27.0699,-4.4708,0 27.5309,-4.5625,0 28.0,-4.5932,0 28.4691,-4.5625,0 28.9301,-4.4708,0 29.3753,-4.3197,0 29.7969,-4.1118,0 30.1878,-3.8507,0 30.5412,-3.5408,0 30.8511,-3.1874,0 31.1123,-2.7966,0 31.3202,-2.3751,0 31.4713,-1.93,0 31.563,-1.469,0 31.5938,-1.0,0</coordinates></LineString></Placemark>
<Placemark><styleUrl>#line_6</styleUrl><LineString><tessellate>1</tessellate><altitudeMode>relativeToGround</altitudeMode><coordinates>27.0,-1.0,0 28.0,-1.5,0 29.0,-0.5,0</coordinates></LineString></Placemark>
<Placemark><styleUrl>#ring_7</styleUrl><LineString><tessellate>1</tessellate><altitudeMode>relativeToGround</altitudeMode><coordinates>28.5931,-1.5,0 28.588,-1.4226,0 28.5729,-1.3465,0 28.5479,-1.2731,0 28.5136,-1.2036,0 28.4705,-1.1391,0 28.4194,-1.0808,0 28.361,-1.0296,0 28.2965,-0.9865,0 28.227,-0.9522,0 28.1535,-0.9273,0 28.0774,-0.9122,0 28.0,-0.9071,0 27.9226,-0.9122,0 27.8465,-0.9273,0 27.773,-0.9522,0 27.7035,-0.9865,0 27.639,-1.0296,0 27.5806,-1.0808,0 27.5295,-1.1391,0 27.4864,-1.2036,0 27.4521,-1.2731,0 27.4271,-1.3465,0 27.412,-1.4226,0 27.4069,-1.5,0 27.412,-1.5774,0 27.4271,-1.6535,0 27.4521,-1.7269,0 27.4864,-1.7964,0 27.5295,-1.8609,0 27.5806,-1.9192,0 27.639,-1.9704,0 27.7035,-2.0135,0 27.773,-2.0478,0 27.8465,-2.0727,0 27.9226,-2.0878,0 28.0,-2.0929,0 28.0774,-2.0878,0 28.1535,-2.0727,0 28.227,-2.0478,0 28.2965,-2.0135,0 28.361,-1.9704,0 28.4194,-1.9192,0 28.4705,-1.8609,0 28.5136,-1.7964,0 28.5479,-1.7269,0 28.5729,-1.6535,0 28.588,-1.5774,0 28.5931,-1.5,0</coordinates></LineString></Placemark>
<Placemark><styleUrl>#ring_8</styleUrl><LineString><tessellate>1</tessellate><altitudeMode>relativeToGround</altitudeMode><coordinates>28.9166,-1.5,0 28.9087,-1.3804,0 28.8854,-1.2628,0 28.8468,-1.1494,0 28.7938,-1.0419,0 28.7272,-0.9422,0 28.6481,-0.8521,0 28.558,-0.7731,0 28.4583,-0.7065,0 28.3508,-0.6535,0 28.2372,-0.6149,0 28.1196,-0.5916,0 28.0,-0.5837,0 27.8804,-0.5916,0 27.7628,-0.6149,0 27.6492,-0.6535,0 27.5417,-0.7065,0 27.442,-0.7731,0 27.3519,-0.8521,0 27.2728,-0.9422,0 27.2062,-1.0419,0 27.1532,-1.1494,0 27.1146,-1.2628,0 27.0913,-1.3804,0 27.0834,-1.5,0 27.0913,-1.6196,0 27.1146,-1.7372,0 27.1532,-1.8506,0 27.2062,-1.9581,0 27.2728,-2.0578,0 27.3519,-2.1479,0 27.442,-2.2269,0 27.5417,-2.2935,0 27.6492,-2.3465,0 27.7628,-2.3851,0 27.8804,-2.4084,0 28.0,-2.4163,0 28.1196,-2.4084,0 28.2372,-2.3851,0 28.3508,-2.3465,0 28.4583,-2.2935,0 28.558,-2.2269,0 28.6481,-2.1479,0 28.7272,-2.0578,0 28.7938,-1.9581,0 28.8468,-1.8506,0 28.8854,-1.7372,0 28.9087,-1.6196,0 28.9166,-1.5,0</coordinates></LineString></Placemark>
<Placemark><styleUrl>#ring_9</styleUrl><LineString><tessellate>1</tessellate><altitudeMode>relativeToGround</altitudeMode><coordinates>29.2401,-1.5,0 29.2295,-1.3382,0 29.1978,-1.1791,0 29.1457,-1.0256,0 29.074,-0.8802,0 28.9838,-0.7453,0 28.8769,-0.6234,0 28.7549,-0.5165,0 28.62,-0.4264,0 28.4746,-0.3547,0 28.321,-0.3026,0 28.1619,-0.2709,0 28.0,-0.2603,0 27.8381,-0.2709,0 27.679,-0.3026,0 27.5254,-0.3547,0 27.38,-0.4264,0 27.2451,-0.5165,0 27.1231,-0.6234,0 27.0162,-0.7453,0 26.926,-0.8802,0 26.8543,-1.0256,0 26.8022,-1.1791,0 26.7705,-1.3382,0 26.7599,-1.5,0 26.7705,-1.6618,0 26.8022,-1.8209,0 26.8543,-1.9744,0 26.926,-2.1198,0 27.0162,-2.2547,0 27.1231,-2.3766,0 27.2451,-2.4835,0 27.38,-2.5736,0 27.5254,-2.6453,0 27.679,-2.6974,0 27.8381,-2.7291,0 28.0,-2.7397,0 28.1619,-2.7291,0 28.321,-2.6974,0 28.4746,-2.6453,0 28.62,-2.5736,0 28.7549,-2.4835,0 28.8769,-2.3766,0 28.9838,-2.2547,0 29.074,-2.1198,0 29.1457,-1.9744,0 29.1978,-1.8209,0 29.2295,-1.6618,0 29.2401,-1.5,0</coordinates></LineString></Placemark>
</Document></kml>
