<?xml version="1.0" encoding="UTF-8"?>
<kml xmlns="http://www.opengis.net/kml/2.2" xmlns:gx="http://www.google.com/kml/ext/2.2" xmlns:kml="http://www.opengis.net/kml/2.2">
<Document><name>Great Barrier Reef</name>
<LookAt><longitude>147.7</longitude><latitude>-18.3</latitude><range>1200000</range><tilt>45</tilt><heading>0</heading><altitudeMode>relativeToGround</altitudeMode></LookAt>
<Style id="poly_0"><PolyStyle><color>44c7b030</color></PolyStyle></Style>
<Style id="col_1"><LineStyle><color>ff5f37ff</color><width>1</width></LineStyle><PolyStyle><color>ff5f37ff</color></PolyStyle></Style>
<Style id="col_2"><LineStyle><color>ff0095ff</color><width>1</width></LineStyle><PolyStyle><color>ff0095ff</color></PolyStyle></Style>
<Style id="ring_3"><LineStyle><color>ff5f37ff</color><width>3</width></LineStyle></Style>
<Style id="dot_4"><IconStyle><scale>0.8</scale><Icon><href>http://maps.google.com/mapfiles/kml/paddle/pink-circle.png</href></Icon></IconStyle></Style>
<Style id="burst_5"><LineStyle><color>ff5f37ff</color><width>2</width></LineStyle></Style>
<Style id="spike_6"><LineStyle><color>ff5f37ff</color><width>2</width></LineStyle></Style>
<Style id="ring_7"><LineStyle><color>555f37ff</color><width>3</width></LineStyle></Style>
<Style id="ring_8"><LineStyle><color>3c5f37ff</color><width>3</width></LineStyle></Style>
<Style id="ring_9"><LineStyle><color>285f37ff</color><width>3</width></LineStyle></Style>
<Placemark><styleUrl>#poly_0</styleUrl><Polygon><tessellate>1</tessellate><altitudeMode>relativeToGround</altitudeMode><outerBoundaryIs><LinearRing><coordinates>145.0,-14.0,0 150.0,-14.0,0 149.0,-22.0,0 144.0,-22.0,0 145.0,-14.0,0</coordinates></LinearRing></outerBoundaryIs></Polygon></Placemark>
<Placemark><styleUrl>#col_1</styleUrl><Polygon><extrude>1</extrude><tessellate>1</tessellate><altitudeMode>relativeToGround</altitudeMode><outerBoundaryIs><LinearRing><coordinates>147.5,-18.5,24000 147.9,-18.5,24000 147.9,-18.1,24000 147.5,-18.1,24000 147.5,-18.5,24000</coordinates></LinearRing></outerBoundaryIs></Polygon></Placemark>
<Placemark><styleUrl>#col_2</styleUrl><Polygon><extrude>1</extrude><tessellate>1</tessellate><altitudeMode>relativeToGround</altitudeMode><outerBoundaryIs><LinearRing><coordinates>145.825,-16.175,18000 146.175,-16.175,18000 146.175,-15.825,18000 145.825,-15.825,18000 145.825,-16.175,18000</coordinates></LinearRing></outerBoundaryIs></Polygon></Placemark>
<Placemark><styleUrl>#ring_3</styleUrl><LineString><tessellate>1</tessellate><altitudeMode>relativeToGround</altitudeMode><coordinates>149.1192,-18.3,0 149.1071,-18.1241,0 149.0709,-17.9512,0 149.0112,-17.7843,0 148.9291,-17.6263,0 148.826,-17.4797,0 148.7036,-17.3472,0 148.564,-17.231,0 148.4096,-17.1331,0 148.2431,-17.0551,0 148.0673,-16.9984,0 147.8852,-16.9641,0 147.7,-16.9525,0 147.5148,-16.9641,0 147.3327,-16.9984,0 147.1569,-17.0551,0 146.9904,-17.1331,0 146.836,-17.231,0 146.6964,-17.3472,0 146.574,-17.4797,0 146.4709,-17.6263,0 146.3888,-17.7843,0 146.3291,-17.9512,0 146.2929,-18.1241,0 146.2808,-18.3,0 146.2929,-18.4759,0 146.3291,-18.6488,0 146.3888,-18.8157,0 146.4709,-18.9737,0 146.574,-19.1203,0 146.6964,-19.2528,0 146.836,-19.369,0 146.9904,-19.4669,0 147.1569,-19.5449,0 147.3327,-19.6016,0 147.5148,-19.6359,0 147.7,-19.6475,0 147.8852,-19.6359,0 148.0673,-19.6016,0 148.2431,-19.5449,0 148.4096,-19.4669,0 148.564,-19.369,0 148.7036,-19.2528,0 148.826,-19.1203,0 148.9291,-18.9737,0 149.0112,-18.8157,0 149.0709,-18.6488,0 149.1071,-18.4759,0 149.1192,-18.3,0</coordinates></LineString></Placemark>
<Placemark><styleUrl>#ring_3</styleUrl><LineString><tessellate>1</tessellate><altitudeMode>relativeToGround</altitudeMode><coordinates>150.5385,-18.3,0 150.5142,-17.9482,0 150.4418,-17.6025,0 150.3224,-17.2687,0 150.1582,-16.9525,0 149.9519,-16.6594,0 149.7071,-16.3944,0 149.428,-16.162,0 149.1192,-15.9661,0 148.7862,-15.8102,0 148.4347,-15.6969,0 148.0705,-15.6281,0 147.7,-15.6051,0 147.3295,-15.6281,0 146.9653,-15.6969,0 146.6138,-15.8102,0 146.2808,-15.9661,0 145.972,-16.162,0 145.6929,-16.3944,0 145.4481,-16.6594,0 145.2418,-16.9525,0 145.0776,-17.2687,0 144.9582,-17.6025,0 144.8858,-17.9482,0 144.8615,-18.3,0 144.8858,-18.6518,0 144.9582,-18.9975,0 145.0776,-19.3313,0 145.2418,-19.6475,0 145.4481,-19.9406,0 145.6929,-20.2056,0 145.972,-20.438,0 146.2808,-20.6339,0 146.6138,-20.7898,0 146.9653,-20.9031,0 147.3295,-20.9719,0 147.7,-20.9949,0 148.0705,-20.9719,0 148.4347,-20.9031,0 148.7862,-20.7898,0 149.1192,-20.6339,0 149.428,-20.438,0 149.7071,-20.2056,0 149.9519,-19.9406,0 150.1582,-19.6475,0 150.3224,-19.3313,0 150.4418,-18.9975,0 150.5142,-18.6518,0 150.5385,-18.3,0</coordinates></LineString></Placemark>
<Placemark><styleUrl>#dot_4</styleUrl><Point><altitudeMode>relativeToGround</altitudeMode><coordinates>147.0,-17.0,0</coordinates></Point></Placemark>
<Placemark><styleUrl>#dot_4</styleUrl><Point><altitudeMode>relativeToGround</altitudeMode><coordinates>148.0,-19.0,0</coordinates></Point></Placemark>
<Placemark><styleUrl>#dot_4</styleUrl><Point><altitudeMode>relativeToGround</altitudeMode><coordinates>146.5,-20.0,0</coordinates></Point></Placemark>
<Placemark><styleUrl>#burst_5</styleUrl><LineString><tessellate>1</tessellate><altitudeMode>relativeToGround</altitudeMode><coordinates>147.7,-18.3,0 148.8354,-18.3,0</coordinates></LineString></Placemark>
<Placemark><styleUrl>#burst_5</styleUrl><LineString><tessellate>1</tessellate><altitudeMode>relativeToGround</altitudeMode><coordinates>147.7,-18.3,0 148.2677,-17.3664,0</coordinates></LineString></Placemark>
<Placemark><styleUrl>#burst_5</styleUrl><LineString><tessellate>1</tessellate><altitudeMode>relativeToGround</altitudeMode><coordinates>147.7,-18.3,0 147.1323,-17.3664,0</coordinates></LineString></Placemark>
<Placemark><styleUrl>#burst_5</styleUrl><LineString><tessellate>1</tessellate><altitudeMode>relativeToGround</altitudeMode><coordinates>147.7,-18.3,0 146.5646,-18.3,0</coordinates></LineString></Placemark>
<Placemark><styleUrl>#burst_5</styleUrl><LineString><tessellate>1</tessellate><altitudeMode>relativeToGround</altitudeMode><coordinates>147.7,-18.3,0 147.1323,-19.2336,0</coordinates></LineString></Placemark>
<Placemark><styleUrl>#burst_5</styleUrl><LineString><tessellate>1</tessellate><altitudeMode>relativeToGround</altitudeMode><coordinates>147.7,-18.3,0 148.2677,-19.2336,0</coordinates></LineString></Placemark>
<Placemark><styleUrl>#spike_6</styleUrl><LineString><tessellate>1</tessellate><altitudeMode>relativeToGround</altitudeMode><coordinates>147.8533,-18.3,0 148.8354,-18.3,0</coordinates></LineString></Placemark>
<Placemark><styleUrl>#spike_6</styleUrl><LineString><tessellate>1</tessellate><altitudeMode>relativeToGround</altitudeMode><coordinates>147.7787,-18.2691,0 148.749,-17.8875,0</coordinates></LineString></Placemark>
<Placemark><styleUrl>#spike_6</styleUrl><LineString><tessellate>1</tessellate><altitudeMode>relativeToGround</altitudeMode><coordinates>147.8084,-18.1971,0 148.5028,-17.5378,0</coordinates></LineString></Placemark>
<Placemark><styleUrl>#spike_6</styleUrl><LineString><tessellate>1</tessellate><altitudeMode>relativeToGround</altitudeMode><coordinates>147.7326,-18.2253,0 148.1345,-17.3041,0</coordinates></LineString></Placemark>
<Placemark><styleUrl>#spike_6</styleUrl><LineString><tessellate>1</tessellate><altitudeMode>relativeToGround</altitudeMode><coordinates>147.7,-18.1545,0 147.7,-17.222,0</coordinates></LineString></Placemark>
<Placemark><styleUrl>#spike_6</styleUrl><LineString><tessellate>1</tessellate><altitudeMode>relativeToGround</altitudeMode><coordinates>147.6674,-18.2253,0 147.2655,-17.3041,0</coordinates></LineString></Placemark>
<Placemark><styleUrl>#spike_6</styleUrl><LineString><tessellate>1</tessellate><altitudeMode>relativeToGround</altitudeMode><coordinates>147.5916,-18.1971,0 146.8972,-17.5378,0</coordinates></LineString></Placemark>
<Placemark><styleUrl>#spike_6</styleUrl><LineString><tessellate>1</tessellate><altitudeMode>relativeToGround</altitudeMode><coordinates>147.6213,-18.2691,0 146.651,-17.8875,0</coordinates></LineString></Placemark>
<Placemark><styleUrl>#spike_6</styleUrl><LineString><tessellate>1</tessellate><altitudeMode>relativeToGround</altitudeMode><coordinates>147.5467,-18.3,0 146.5646,-18.3,0</coordinates></LineString></Placemark>
<Placemark><styleUrl>#spike_6</styleUrl><LineString><tessellate>1</tessellate><altitudeMode>relativeToGround</altitudeMode><coordinates>147.6213,-18.3309,0 146.651,-18.7125,0</coordinates></LineString></Placemark>
<Placemark><styleUrl>#spike_6</styleUrl><LineString><tessellate>1</tessellate><altitudeMode>relativeToGround</altitudeMode><coordinates>147.5916,-18.4029,0 146.8972,-19.0622,0</coordinates></LineString></Placemark>
<Placemark><styleUrl>#spike_6</styleUrl><LineString><tessellate>1</tessellate><altitudeMode>relativeToGround</altitudeMode><coordinates>147.6674,-18.3747,0 147.2655,-19.2959,0</coordinates></LineString></Placemark>
<Placemark><styleUrl>#spike_6</styleUrl><LineString><tessellate>1</tessellate><altitudeMode>relativeToGround</altitudeMode><coordinates>147.7,-18.4455,0 147.7,-19.378,0</coordinates></LineString></Placemark>
<Placemark><styleUrl>#spike_6</styleUrl><LineString><tessellate>1</tessellate><altitudeMode>relativeToGround</altitudeMode><coordinates>147.7326,-18.3747,0 148.1345,-19.2959,0</coordinates></LineString></Placemark>
<Placemark><styleUrl>#spike_6</styleUrl><LineString><tessellate>1</tessellate><altitudeMode>relativeToGround</altitudeMode><coordinates>147.8084,-18.4029,0 148.5028,-19.0622,0</coordinates></LineString></Placemark>
<Placemark><styleUrl>#spike_6</styleUrl><LineString><tessellate>1</tessellate><altitudeMode>relativeToGround</altitudeMode><coordinates>147.7787,-18.3309,0 148.749,-18.7125,0</coordinates></LineString></Placemark>
<Placemark><styleUrl>#ring_7</styleUrl><LineString><tessellate>1</tessellate><altitudeMode>relativeToGround</altitudeMode><coordinates>148.3245,-18.3,0 148.3191,-18.2226,0 148.3032,-18.1465,0 148.2769,-18.0731,0 148.2408,-18.0036,0 148.1954,-17.9391,0 148.1416,-17.8808,0 148.0802,-17.8296,0 148.0122,-17.7865,0 147.939,-17.7522,0 147.8616,-17.7273,0 147.7815,-17.7122,0 147.7,-17.7071,0 147.6185,-17.7122,0 147.5384,-17.7273,0 147.461,-17.7522,0 147.3878,-17.7865,0 147.3198,-17.8296,0 147.2584,-17.8808,0 147.2046,-17.9391,0 147.1592,-18.0036,0 147.1231,-18.0731,0 147.0968,-18.1465,0 147.0809,-18.2226,0 147.0755,-18.3,0 147.0809,-18.3774,0 147.0968,-18.4535,0 147.1231,-18.5269,0 147.1592,-18.5964,0 147.2046,-18.6609,0 147.2584,-18.7192,0 147.3198,-18.7704,0 147.3878,-18.8135,0 147.461,-18.8478,0 147.5384,-18.8727,0 147.6185,-18.8878,0 147.7,-18.8929,0 147.7815,-18.8878,0 147.8616,-18.8727,0 147.939,-18.8478,0 148.0122,-18.8135,0 148.0802,-18.7704,0 148.1416,-18.7192,0 148.1954,-18.6609,0 148.2408,-18.5964,0 148.2769,-18.5269,0 148.3032,-18.4535,0 148.3191,-18.3774,0 148.3245,-18.3,0</coordinates></LineString></Placemark>
<Placemark><styleUrl>#ring_8</styleUrl><LineString><tessellate>1</tessellate><altitudeMode>relativeToGround</altitudeMode><coordinates>148.6651,-18.3,0 148.6568,-18.1804,0 148.6322,-18.0628,0 148.5916,-17.9494,0 148.5358,-17.8419,0 148.4657,-17.7422,0 148.3824,-17.6521,0 148.2875,-17.5731,0 148.1825,-17.5065,0 148.0693,-17.4535,0 147.9498,-17.4149,0 147.826,-17.3916,0 147.7,-17.3837,0 147.574,-17.3916,0 147.4502,-17.4149,0 147.3307,-17.4535,0 147.2175,-17.5065,0 147.1125,-17.5731,0 147.0176,-17.6521,0 146.9343,-17.7422,0 146.8642,-17.8419,0 146.8084,-17.9494,0 146.7678,-18.0628,0 146.7432,-18.1804,0 146.7349,-18.3,0 146.7432,-18.4196,0 146.7678,-18.5372,0 146.8084,-18.6506,0 146.8642,-18.7581,0 146.9343,-18.8578,0 147.0176,-18.9479,0 147.1125,-19.0269,0 147.2175,-19.0935,0 147.3307,-19.1465,0 147.4502,-19.1851,0 147.574,-19.2084,0 147.7,-19.2163,0 147.826,-19.2084,0 147.9498,-19.1851,0 148.0693,-19.1465,0 148.1825,-19.0935,0 148.2875,-19.0269,0 148.3824,-18.9479,0 148.4657,-18.8578,0 148.5358,-18.7581,0 148.5916,-18.6506,0 148.6322,-18.5372,0 148.6568,-18.4196,0 148.6651,-18.3,0</coordinates></LineString></Placemark>
<Placemark><styleUrl>#ring_9</styleUrl><LineString><tessellate>1</tessellate><altitudeMode>relativeToGround</altitudeMode><coordinates>149.0057,-18.3,0 148.9945,-18.1382,0 148.9612,-17.9791,0 148.9063,-17.8256,0 148.8308,-17.6802,0 148.7359,-17.5453,0 148.6233,-17.4234,0 148.4949,-17.3165,0 148.3529,-17.2264,0 148.1997,-17.1547,0 148.0379,-17.1026,0 147.8704,-17.0709,0 147.7,-17.0603,0 147.5296,-17.0709,0 147.3621,-17.1026,0 147.2003,-17.1547,0 147.0471,-17.2264,0 146.9051,-17.3165,0 146.7767,-17.4234,0 146.6641,-17.5453,0 146.5692,-17.6802,0 146.4937,-17.8256,0 146.4388,-17.9791,0 146.4055,-18.1382,0 146.3943,-18.3,0 146.4055,-18.4618,0 146.4388,-18.6209,0 146.4937,-18.7744,0 146.5692,-18.9198,0 146.6641,-19.0547,0 146.7767,-19.1766,0 146.9051,-19.2835,0 147.0471,-19.3736,0 147.2003,-19.4453,0 147.3621,-19.4974,0 147.5296,-19.5291,0 147.7,-19.5397,0 147.8704,-19.5291,0 148.0379,-19.4974,0 148.1997,-19.4453,0 148.3529,-19.3736,0 148.4949,-19.2835,0 148.6233,-19.1766,0 148.7359,-19.0547,0 148.8308,-18.9198,0 148.9063,-18.7744,0 148.9612,-18.6209,0 148.9945,-18.4618,0 149.0057,-18.3,0</coordinates></LineString></Placemark>
</Document></kml>
