<?xml version="1.0" encoding="UTF-8"?>
<kml xmlns="http://www.opengis.net/kml/2.2" xmlns:gx="http://www.google.com/kml/ext/2.2" xmlns:kml="http://www.opengis.net/kml/2.2">
<Document><name>Maldives Atolls</name>
<LookAt><longitude>73.2</longitude><latitude>3.2</latitude><range>800000</range><tilt>50</tilt><heading>0</heading><altitudeMode>relativeToGround</altitudeMode></LookAt>
<Style id="ring_0"><LineStyle><color>ffc7b030</color><width>3</width></LineStyle></Style>
<Style id="ring_1"><LineStyle><color>ffc7b030</color><width>2</width></LineStyle></Style>
<Style id="ring_2"><LineStyle><color>ffc7b030</color><width>2</width></LineStyle></Style>
<Style id="dot_3"><IconStyle><scale>0.8</scale><Icon><href>http://lg1:81/kml/icons/circle-pink.png</href></Icon></IconStyle></Style>
<Style id="col_4"><LineStyle><color>ff0095ff</color><width>1</width></LineStyle><PolyStyle><color>ff0095ff</color></PolyStyle></Style>
<Style id="arc_5"><LineStyle><color>ff0095ff</color><width>3</width></LineStyle></Style>
<Placemark><styleUrl>#ring_0</styleUrl><LineString><tessellate>1</tessellate><altitudeMode>relativeToGround</altitudeMode><coordinates>73.5599,3.2,0 73.5568,3.2469,0 73.5476,3.293,0 73.5325,3.3375,0 73.5117,3.3797,0 73.4855,3.4187,0 73.4545,3.4541,0 73.4191,3.4851,0 73.3799,3.5112,0 73.3377,3.532,0 73.2931,3.5471,0 73.247,3.5563,0 73.2,3.5593,0 73.153,3.5563,0 73.1069,3.5471,0 73.0623,3.532,0 73.0201,3.5112,0 72.9809,3.4851,0 72.9455,3.4541,0 72.9145,3.4187,0 72.8883,3.3797,0 72.8675,3.3375,0 72.8524,3.293,0 72.8432,3.2469,0 72.8401,3.2,0 72.8432,3.1531,0 72.8524,3.107,0 72.8675,3.0625,0 72.8883,3.0203,0 72.9145,2.9813,0 72.9455,2.9459,0 72.9809,2.9149,0 73.0201,2.8888,0 73.0623,2.868,0 73.1069,2.8529,0 73.153,2.8437,0 73.2,2.8407,0 73.247,2.8437,0 73.2931,2.8529,0 73.3377,2.868,0 73.3799,2.8888,0 73.4191,2.9149,0 73.4545,2.9459,0 73.4855,2.9813,0 73.5117,3.0203,0 73.5325,3.0625,0 73.5476,3.107,0 73.5568,3.1531,0 73.5599,3.2,0</coordinates></LineString></Placemark>
<Placemark><styleUrl>#ring_0</styleUrl><LineString><tessellate>1</tessellate><altitudeMode>relativeToGround</altitudeMode><coordinates>73.9198,3.2,0 73.9136,3.2938,0 73.8952,3.386,0 73.865,3.475,0 73.8233,3.5593,0 73.771,3.6375,0 73.709,3.7082,0 73.6382,3.7701,0 73.5599,3.8224,0 73.4754,3.8639,0 73.3863,3.8942,0 73.2939,3.9125,0 73.2,3.9186,0 73.1061,3.9125,0 73.0137,3.8942,0 72.9246,3.8639,0 72.8401,3.8224,0 72.7618,3.7701,0 72.691,3.7082,0 72.629,3.6375,0 72.5767,3.5593,0 72.535,3.475,0 72.5048,3.386,0 72.4864,3.2938,0 72.4802,3.2,0 72.4864,3.1062,0 72.5048,3.014,0 72.535,2.925,0 72.5767,2.8407,0 72.629,2.7625,0 72.691,2.6918,0 72.7618,2.6299,0 72.8401,2.5776,0 72.9246,2.5361,0 73.0137,2.5058,0 73.1061,2.4875,0 73.2,2.4814,0 73.2939,2.4875,0 73.3863,2.5058,0 73.4754,2.5361,0 73.5599,2.5776,0 73.6382,2.6299,0 73.709,2.6918,0 73.771,2.7625,0 73.8233,2.8407,0 73.865,2.925,0 73.8952,3.014,0 73.9136,3.1062,0 73.9198,3.2,0</coordinates></LineString></Placemark>
<Placemark><styleUrl>#ring_0</styleUrl><LineString><tessellate>1</tessellate><altitudeMode>relativeToGround</altitudeMode><coordinates>74.2797,3.2,0 74.2704,3.3407,0 74.2429,3.479,0 74.1975,3.6125,0 74.135,3.739,0 74.0565,3.8562,0 73.9634,3.9622,0 73.8573,4.0552,0 73.7398,4.1336,0 73.6132,4.1959,0 73.4794,4.2412,0 73.3409,4.2688,0 73.2,4.278,0 73.0591,4.2688,0 72.9206,4.2412,0 72.7868,4.1959,0 72.6602,4.1336,0 72.5427,4.0552,0 72.4366,3.9622,0 72.3435,3.8562,0 72.265,3.739,0 72.2025,3.6125,0 72.1571,3.479,0 72.1296,3.3407,0 72.1203,3.2,0 72.1296,3.0593,0 72.1571,2.921,0 72.2025,2.7875,0 72.265,2.661,0 72.3435,2.5438,0 72.4366,2.4378,0 72.5427,2.3448,0 72.6602,2.2664,0 72.7868,2.2041,0 72.9206,2.1588,0 73.0591,2.1312,0 73.2,2.122,0 73.3409,2.1312,0 73.4794,2.1588,0 73.6132,2.2041,0 73.7398,2.2664,0 73.8573,2.3448,0 73.9634,2.4378,0 74.0565,2.5438,0 74.135,2.661,0 74.1975,2.7875,0 74.2429,2.921,0 74.2704,3.0593,0 74.2797,3.2,0</coordinates></LineString></Placemark>
<Placemark><styleUrl>#ring_1</styleUrl><LineString><tessellate>1</tessellate><altitudeMode>relativeToGround</altitudeMode><coordinates>73.7702,4.2,0 73.7679,4.2352,0 73.761,4.2698,0 73.7496,4.3031,0 73.734,4.3347,0 73.7144,4.3641,0 73.6911,4.3906,0 73.6645,4.4138,0 73.6351,4.4334,0 73.6034,4.449,0 73.5699,4.4603,0 73.5353,4.4672,0 73.5,4.4695,0 73.4647,4.4672,0 73.4301,4.4603,0 73.3966,4.449,0 73.3649,4.4334,0 73.3355,4.4138,0 73.3089,4.3906,0 73.2856,4.3641,0 73.266,4.3347,0 73.2504,4.3031,0 73.239,4.2698,0 73.2321,4.2352,0 73.2298,4.2,0 73.2321,4.1648,0 73.239,4.1302,0 73.2504,4.0969,0 73.266,4.0653,0 73.2856,4.0359,0 73.3089,4.0094,0 73.3355,3.9862,0 73.3649,3.9666,0 73.3966,3.951,0 73.4301,3.9397,0 73.4647,3.9328,0 73.5,3.9305,0 73.5353,3.9328,0 73.5699,3.9397,0 73.6034,3.951,0 73.6351,3.9666,0 73.6645,3.9862,0 73.6911,4.0094,0 73.7144,4.0359,0 73.734,4.0653,0 73.7496,4.0969,0 73.761,4.1302,0 73.7679,4.1648,0 73.7702,4.2,0</coordinates></LineString></Placemark>
<Placemark><styleUrl>#ring_1</styleUrl><LineString><tessellate>1</tessellate><altitudeMode>relativeToGround</altitudeMode><coordinates>74.0404,4.2,0 74.0358,4.2704,0 74.022,4.3395,0 73.9993,4.4063,0 73.968,4.4695,0 73.9288,4.5281,0 73.8821,4.5811,0 73.829,4.6276,0 73.7702,4.6668,0 73.7068,4.698,0 73.6399,4.7206,0 73.5705,4.7344,0 73.5,4.739,0 73.4295,4.7344,0 73.3601,4.7206,0 73.2932,4.698,0 73.2298,4.6668,0 73.171,4.6276,0 73.1179,4.5811,0 73.0712,4.5281,0 73.032,4.4695,0 73.0007,4.4063,0 72.978,4.3395,0 72.9642,4.2704,0 72.9596,4.2,0 72.9642,4.1296,0 72.978,4.0605,0 73.0007,3.9937,0 73.032,3.9305,0 73.0712,3.8719,0 73.1179,3.8189,0 73.171,3.7724,0 73.2298,3.7332,0 73.2932,3.702,0 73.3601,3.6794,0 73.4295,3.6656,0 73.5,3.661,0 73.5705,3.6656,0 73.6399,3.6794,0 73.7068,3.702,0 73.7702,3.7332,0 73.829,3.7724,0 73.8821,3.8189,0 73.9288,3.8719,0 73.968,3.9305,0 73.9993,3.9937,0 74.022,4.0605,0 74.0358,4.1296,0 74.0404,4.2,0</coordinates></LineString></Placemark>
<Placemark><styleUrl>#ring_2</styleUrl><LineString><tessellate>1</tessellate><altitudeMode>relativeToGround</altitudeMode><coordinates>73.1247,2.2,0 73.1228,2.2293,0 73.1171,2.2581,0 73.1076,2.2859,0 73.0946,2.3123,0 73.0783,2.3367,0 73.0589,2.3588,0 73.0368,2.3782,0 73.0124,2.3945,0 72.986,2.4075,0 72.9582,2.4169,0 72.9293,2.4227,0 72.9,2.4246,0 72.8707,2.4227,0 72.8418,2.4169,0 72.814,2.4075,0 72.7876,2.3945,0 72.7632,2.3782,0 72.7411,2.3588,0 72.7217,2.3367,0 72.7054,2.3123,0 72.6924,2.2859,0 72.6829,2.2581,0 72.6772,2.2293,0 72.6753,2.2,0 72.6772,2.1707,0 72.6829,2.1419,0 72.6924,2.1141,0 72.7054,2.0877,0 72.7217,2.0633,0 72.7411,2.0412,0 72.7632,2.0218,0 72.7876,2.0055,0 72.814,1.9925,0 72.8418,1.9831,0 72.8707,1.9773,0 72.9,1.9754,0 72.9293,1.9773,0 72.9582,1.9831,0 72.986,1.9925,0 73.0124,2.0055,0 73.0368,2.0218,0 73.0589,2.0412,0 73.0783,2.0633,0 73.0946,2.0877,0 73.1076,2.1141,0 73.1171,2.1419,0 73.1228,2.1707,0 73.1247,2.2,0</coordinates></LineString></Placemark>
<Placemark><styleUrl>#ring_2</styleUrl><LineString><tessellate>1</tessellate><altitudeMode>relativeToGround</altitudeMode><coordinates>73.3495,2.2,0 73.3456,2.2586,0 73.3342,2.3163,0 73.3153,2.3719,0 73.2893,2.4246,0 73.2566,2.4734,0 73.2178,2.5176,0 73.1736,2.5563,0 73.1247,2.589,0 73.072,2.615,0 73.0163,2.6339,0 72.9587,2.6453,0 72.9,2.6492,0 72.8413,2.6453,0 72.7837,2.6339,0 72.728,2.615,0 72.6753,2.589,0 72.6264,2.5563,0 72.5822,2.5176,0 72.5434,2.4734,0 72.5107,2.4246,0 72.4847,2.3719,0 72.4658,2.3163,0 72.4544,2.2586,0 72.4505,2.2,0 72.4544,2.1414,0 72.4658,2.0837,0 72.4847,2.0281,0 72.5107,1.9754,0 72.5434,1.9266,0 72.5822,1.8824,0 72.6264,1.8437,0 72.6753,1.811,0 72.728,1.785,0 72.7837,1.7661,0 72.8413,1.7547,0 72.9,1.7508,0 72.9587,1.7547,0 73.0163,1.7661,0 73.072,1.785,0 73.1247,1.811,0 73.1736,1.8437,0 73.2178,1.8824,0 73.2566,1.9266,0 73.2893,1.9754,0 73.3153,2.0281,0 73.3342,2.0837,0 73.3456,2.1414,0 73.3495,2.2,0</coordinates></LineString></Placemark>
<Placemark><styleUrl>#dot_3</styleUrl><Point><altitudeMode>relativeToGround</altitudeMode><coordinates>73.2,3.2,0</coordinates></Point></Placemark>
<Placemark><styleUrl>#dot_3</styleUrl><Point><altitudeMode>relativeToGround</altitudeMode><coordinates>73.5,4.2,0</coordinates></Point></Placemark>
<Placemark><styleUrl>#dot_3</styleUrl><Point><altitudeMode>relativeToGround</altitudeMode><coordinates>72.9,2.2,0</coordinates></Point></Placemark>
<Placemark><styleUrl>#col_4</styleUrl><Polygon><extrude>1</extrude><tessellate>1</tessellate><altitudeMode>relativeToGround</altitudeMode><outerBoundaryIs><LinearRing><coordinates>73.05,3.05,9000 73.35,3.05,9000 73.35,3.35,9000 73.05,3.35,9000 73.05,3.05,9000</coordinates></LinearRing></outerBoundaryIs></Polygon></Placemark>
<Placemark><styleUrl>#arc_5</styleUrl><LineString><tessellate>1</tessellate><altitudeMode>relativeToGround</altitudeMode><coordinates>73.9581,3.8352,0 73.9119,3.8864,0 73.8622,3.9343,0 73.8093,3.9787,0 73.7534,4.0192,0 73.6948,4.0558,0 73.6338,4.0881,0 73.5707,4.1162,0 73.5058,4.1398,0 73.4394,4.1588,0 73.3719,4.1731,0 73.3035,4.1827,0 73.2345,4.1875,0 73.1655,4.1875,0 73.0965,4.1827,0 73.0281,4.1731,0 72.9606,4.1588,0 72.8942,4.1398,0 72.8293,4.1162,0 72.7662,4.0881,0 72.7052,4.0558,0 72.6466,4.0192,0 72.5907,3.9787,0 72.5378,3.9343,0 72.4881,3.8864,0 72.4419,3.8352,0 72.3993,3.7808,0 72.3607,3.7236,0 72.3262,3.6639,0 72.2959,3.6019,0 72.27,3.538,0 72.2487,3.4724,0 72.2319,3.4054,0 72.2199,3.3375,0 72.2127,3.2689,0 72.2103,3.2,0 72.2127,3.1311,0 72.2199,3.0625,0 72.2319,2.9946,0 72.2487,2.9276,0 72.27,2.862,0 72.2959,2.7981,0 72.3262,2.7361,0 72.3607,2.6764,0 72.3993,2.6192,0 72.4419,2.5648,0 72.4881,2.5136,0 72.5378,2.4657,0 72.5907,2.4213,0 72.6466,2.3808,0 72.7052,2.3442,0 72.7662,2.3119,0 72.8293,2.2838,0 72.8942,2.2602,0 72.9606,2.2412,0 73.0281,2.2269,0 73.0965,2.2173,0 73.1655,2.2125,0 73.2345,2.2125,0 73.3035,2.2173,0 73.3719,2.2269,0 73.4394,2.2412,0 73.5058,2.2602,0 73.5707,2.2838,0 73.6338,2.3119,0 73.6948,2.3442,0</coordinates></LineString></Placemark>
</Document></kml>
