<?xml version="1.0" encoding="UTF-8"?>
<kml xmlns="http://www.opengis.net/kml/2.2" xmlns:gx="http://www.google.com/kml/ext/2.2" xmlns:kml="http://www.opengis.net/kml/2.2">
<Document><name>Sahel Hotspots</name>
<LookAt><longitude>0.0</longitude><latitude>15.0</latitude><range>3500000</range><tilt>45</tilt><heading>0</heading><altitudeMode>relativeToGround</altitudeMode></LookAt>
<Style id="ter_0"><LineStyle><color>fff25abf</color><width>1</width></LineStyle><PolyStyle><color>fff25abf</color></PolyStyle></Style>
<Style id="ter_1"><LineStyle><color>ff303bff</color><width>1</width></LineStyle><PolyStyle><color>ff303bff</color></PolyStyle></Style>
<Style id="ter_2"><LineStyle><color>ff0095ff</color><width>1</width></LineStyle><PolyStyle><color>ff0095ff</color></PolyStyle></Style>
<Style id="ring_3"><LineStyle><color>fff25abf</color><width>2</width></LineStyle></Style>
<Style id="poly_4"><PolyStyle><color>22f25abf</color></PolyStyle></Style>
<Style id="spire_5"><LineStyle><color>fff25abf</color><width>2</width></LineStyle></Style>
<Style id="spike_6"><LineStyle><color>fff25abf</color><width>2</width></LineStyle></Style>
<Style id="ring_7"><LineStyle><color>55f25abf</color><width>3</width></LineStyle></Style>
<Style id="ring_8"><LineStyle><color>3cf25abf</color><width>3</width></LineStyle></Style>
<Style id="ring_9"><LineStyle><color>28f25abf</color><width>3</width></LineStyle></Style>
<Placemark><styleUrl>#ter_0</styleUrl><Polygon><extrude>1</extrude><tessellate>1</tessellate><altitudeMode>relativeToGround</altitudeMode><outerBoundaryIs><LinearRing><coordinates>-4.4,16.6,12000.0 -3.6,16.6,12000.0 -3.6,17.4,12000.0 -4.4,17.4,12000.0 -4.4,16.6,12000.0</coordinates></LinearRing></outerBoundaryIs></Polygon></Placemark>
<Placemark><styleUrl>#ter_0</styleUrl><Polygon><extrude>1</extrude><tessellate>1</tessellate><altitudeMode>relativeToGround</altitudeMode><outerBoundaryIs><LinearRing><coordinates>-4.352,16.648,21000.0 -3.648,16.648,21000.0 -3.648,17.352,21000.0 -4.352,17.352,21000.0 -4.352,16.648,21000.0</coordinates></LinearRing></outerBoundaryIs></Polygon></Placemark>
<Placemark><styleUrl>#ter_0</styleUrl><Polygon><extrude>1</extrude><tessellate>1</tessellate><altitudeMode>relativeToGround</altitudeMode><outerBoundaryIs><LinearRing><coordinates>-4.304,16.696,27000.0 -3.696,16.696,27000.0 -3.696,17.304,27000.0 -4.304,17.304,27000.0 -4.304,16.696,27000.0</coordinates></LinearRing></outerBoundaryIs></Polygon></Placemark>
<Placemark><styleUrl>#ter_0</styleUrl><Polygon><extrude>1</extrude><tessellate>1</tessellate><altitudeMode>relativeToGround</altitudeMode><outerBoundaryIs><LinearRing><coordinates>-4.256,16.744,31000.0 -3.744,16.744,31000.0 -3.744,17.256,31000.0 -4.256,17.256,31000.0 -4.256,16.744,31000.0</coordinates></LinearRing></outerBoundaryIs></Polygon></Placemark>
<Placemark><styleUrl>#ter_1</styleUrl><Polygon><extrude>1</extrude><tessellate>1</tessellate><altitudeMode>relativeToGround</altitudeMode><outerBoundaryIs><LinearRing><coordinates>-2.4,11.6,11000.0 -1.6,11.6,11000.0 -1.6,12.4,11000.0 -2.4,12.4,11000.0 -2.4,11.6,11000.0</coordinates></LinearRing></outerBoundaryIs></Polygon></Placemark>
<Placemark><styleUrl>#ter_1</styleUrl><Polygon><extrude>1</extrude><tessellate>1</tessellate><altitudeMode>relativeToGround</altitudeMode><outerBoundaryIs><LinearRing><coordinates>-2.352,11.648,19000.0 -1.648,11.648,19000.0 -1.648,12.352,19000.0 -2.352,12.352,19000.0 -2.352,11.648,19000.0</coordinates></LinearRing></outerBoundaryIs></Polygon></Placemark>
<Placemark><styleUrl>#ter_1</styleUrl><Polygon><extrude>1</extrude><tessellate>1</tessellate><altitudeMode>relativeToGround</altitudeMode><outerBoundaryIs><LinearRing><coordinates>-2.304,11.696,24000.0 -1.696,11.696,24000.0 -1.696,12.304,24000.0 -2.304,12.304,24000.0 -2.304,11.696,24000.0</coordinates></LinearRing></outerBoundaryIs></Polygon></Placemark>
<Placemark><styleUrl>#ter_2</styleUrl><Polygon><extrude>1</extrude><tessellate>1</tessellate><altitudeMode>relativeToGround</altitudeMode><outerBoundaryIs><LinearRing><coordinates>7.6,15.6,8000.0 8.4,15.6,8000.0 8.4,16.4,8000.0 7.6,16.4,8000.0 7.6,15.6,8000.0</coordinates></LinearRing></outerBoundaryIs></Polygon></Placemark>
<Placemark><styleUrl>#ter_2</styleUrl><Polygon><extrude>1</extrude><tessellate>1</tessellate><altitudeMode>relativeToGround</altitudeMode><outerBoundaryIs><LinearRing><coordinates>7.648,15.648,14000.0 8.352,15.648,14000.0 8.352,16.352,14000.0 7.648,16.352,14000.0 7.648,15.648,14000.0</coordinates></LinearRing></outerBoundaryIs></Polygon></Placemark>
<Placemark><styleUrl>#ter_2</styleUrl><Polygon><extrude>1</extrude><tessellate>1</tessellate><altitudeMode>relativeToGround</altitudeMode><outerBoundaryIs><LinearRing><coordinates>7.696,15.696,17000.0 8.304,15.696,17000.0 8.304,16.304,17000.0 7.696,16.304,17000.0 7.696,15.696,17000.0</coordinates></LinearRing></outerBoundaryIs></Polygon></Placemark>
<Placemark><styleUrl>#ring_3</styleUrl><LineString><tessellate>1</tessellate><altitudeMode>relativeToGround</altitudeMode><coordinates>3.72,15.0,0 3.6882,15.469,0 3.5932,15.93,0 3.4368,16.3751,0 3.2216,16.7966,0 2.9513,17.1874,0 2.6304,17.5408,0 2.2646,17.8507,0 1.86,18.1118,0 1.4236,18.3197,0 0.9628,18.4708,0 0.4856,18.5625,0 0.0,18.5932,0 -0.4856,18.5625,0 -0.9628,18.4708,0 -1.4236,18.3197,0 -1.86,18.1118,0 -2.2646,17.8507,0 -2.6304,17.5408,0 -2.9513,17.1874,0 -3.2216,16.7966,0 -3.4368,16.3751,0 -3.5932,15.93,0 -3.6882,15.469,0 -3.72,15.0,0 -3.6882,14.531,0 -3.5932,14.07,0 -3.4368,13.6249,0 -3.2216,13.2034,0 -2.9513,12.8126,0 -2.6304,12.4592,0 -2.2646,12.1493,0 -1.86,11.8882,0 -1.4236,11.6803,0 -0.9628,11.5292,0 -0.4856,11.4375,0 -0.0,11.4068,0 0.4856,11.4375,0 0.9628,11.5292,0 1.4236,11.6803,0 1.86,11.8882,0 2.2646,12.1493,0 2.6304,12.4592,0 2.9513,12.8126,0 3.2216,13.2034,0 3.4368,13.6249,0 3.5932,14.07,0 3.6882,14.531,0 3.72,15.0,0</coordinates></LineString></Placemark>
<Placemark><styleUrl>#ring_3</styleUrl><LineString><tessellate>1</tessellate><altitudeMode>relativeToGround</altitudeMode><coordinates>7.44,15.0,0 7.3764,15.938,0 7.1865,16.86,0 6.8737,17.7502,0 6.4432,18.5932,0 5.9025,19.3749,0 5.2609,20.0816,0 4.5292,20.7014,0 3.72,21.2237,0 2.8472,21.6395,0 1.9256,21.9416,0 0.9711,22.125,0 0.0,22.1865,0 -0.9711,22.125,0 -1.9256,21.9416,0 -2.8472,21.6395,0 -3.72,21.2237,0 -4.5292,20.7014,0 -5.2609,20.0816,0 -5.9025,19.3749,0 -6.4432,18.5932,0 -6.8737,17.7502,0 -7.1865,16.86,0 -7.3764,15.938,0 -7.44,15.0,0 -7.3764,14.062,0 -7.1865,13.14,0 -6.8737,12.2498,0 -6.4432,11.4068,0 -5.9025,10.6251,0 -5.2609,9.9184,0 -4.5292,9.2986,0 -3.72,8.7763,0 -2.8472,8.3605,0 -1.9256,8.0584,0 -0.9711,7.875,0 -0.0,7.8135,0 0.9711,7.875,0 1.9256,8.0584,0 2.8472,8.3605,0 3.72,8.7763,0 4.5292,9.2986,0 5.2609,9.9184,0 5.9025,10.6251,0 6.4432,11.4068,0 6.8737,12.2498,0 7.1865,13.14,0 7.3764,14.062,0 7.44,15.0,0</coordinates></LineString></Placemark>
<Placemark><styleUrl>#ring_3</styleUrl><LineString><tessellate>1</tessellate><altitudeMode>relativeToGround</altitudeMode><coordinates>11.16,15.0,0 11.0645,16.407,0 10.7797,17.79,0 10.3105,19.1252,0 9.6648,20.3899,0 8.8538,21.5623,0 7.8913,22.6224,0 6.7938,23.5521,0 5.58,24.3355,0 4.2707,24.9592,0 2.8884,25.4124,0 1.4567,25.6875,0 0.0,25.7797,0 -1.4567,25.6875,0 -2.8884,25.4124,0 -4.2707,24.9592,0 -5.58,24.3355,0 -6.7938,23.5521,0 -7.8913,22.6224,0 -8.8538,21.5623,0 -9.6648,20.3899,0 -10.3105,19.1252,0 -10.7797,17.79,0 -11.0645,16.407,0 -11.16,15.0,0 -11.0645,13.593,0 -10.7797,12.21,0 -10.3105,10.8748,0 -9.6648,9.6101,0 -8.8538,8.4377,0 -7.8913,7.3776,0 -6.7938,6.4479,0 -5.58,5.6645,0 -4.2707,5.0408,0 -2.8884,4.5876,0 -1.4567,4.3125,0 -0.0,4.2203,0 1.4567,4.3125,0 2.8884,4.5876,0 4.2707,5.0408,0 5.58,5.6645,0 6.7938,6.4479,0 7.8913,7.3776,0 8.8538,8.4377,0 9.6648,9.6101,0 10.3105,10.8748,0 10.7797,12.21,0 11.0645,13.593,0 11.16,15.0,0</coordinates></LineString></Placemark>
<Placemark><styleUrl>#poly_4</styleUrl><Polygon><tessellate>1</tessellate><altitudeMode>relativeToGround</altitudeMode><outerBoundaryIs><LinearRing><coordinates>-10.0,20.0,0 15.0,20.0,0 12.0,8.0,0 -8.0,8.0,0 -10.0,20.0,0</coordinates></LinearRing></outerBoundaryIs></Polygon></Placemark>
<Placemark><styleUrl>#spire_5</styleUrl><LineString><altitudeMode>relativeToGround</altitudeMode><coordinates>-4.0,17.0,0 -4.0,17.0,16000</coordinates></LineString></Placemark>
<Placemark><styleUrl>#spire_5</styleUrl><LineString><altitudeMode>relativeToGround</altitudeMode><coordinates>-4.0,17.0,0 -4.0,17.0,24000</coordinates></LineString></Placemark>
<Placemark><styleUrl>#spike_6</styleUrl><LineString><tessellate>1</tessellate><altitudeMode>relativeToGround</altitudeMode><coordinates>-3.9577,17.0,0 -3.7746,17.0,0</coordinates></LineString></Placemark>
<Placemark><styleUrl>#spike_6</styleUrl><LineString><tessellate>1</tessellate><altitudeMode>relativeToGround</altitudeMode><coordinates>-3.9783,17.0086,0 -3.7917,17.0825,0</coordinates></LineString></Placemark>
<Placemark><styleUrl>#spike_6</styleUrl><LineString><tessellate>1</tessellate><altitudeMode>relativeToGround</altitudeMode><coordinates>-3.9701,17.0286,0 -3.8406,17.1524,0</coordinates></LineString></Placemark>
<Placemark><styleUrl>#spike_6</styleUrl><LineString><tessellate>1</tessellate><altitudeMode>relativeToGround</altitudeMode><coordinates>-3.991,17.0207,0 -3.9137,17.1992,0</coordinates></LineString></Placemark>
<Placemark><styleUrl>#spike_6</styleUrl><LineString><tessellate>1</tessellate><altitudeMode>relativeToGround</altitudeMode><coordinates>-4.0,17.0404,0 -4.0,17.2156,0</coordinates></LineString></Placemark>
<Placemark><styleUrl>#spike_6</styleUrl><LineString><tessellate>1</tessellate><altitudeMode>relativeToGround</altitudeMode><coordinates>-4.009,17.0207,0 -4.0863,17.1992,0</coordinates></LineString></Placemark>
<Placemark><styleUrl>#spike_6</styleUrl><LineString><tessellate>1</tessellate><altitudeMode>relativeToGround</altitudeMode><coordinates>-4.0299,17.0286,0 -4.1594,17.1524,0</coordinates></LineString></Placemark>
<Placemark><styleUrl>#spike_6</styleUrl><LineString><tessellate>1</tessellate><altitudeMode>relativeToGround</altitudeMode><coordinates>-4.0217,17.0086,0 -4.2083,17.0825,0</coordinates></LineString></Placemark>
<Placemark><styleUrl>#spike_6</styleUrl><LineString><tessellate>1</tessellate><altitudeMode>relativeToGround</altitudeMode><coordinates>-4.0423,17.0,0 -4.2254,17.0,0</coordinates></LineString></Placemark>
<Placemark><styleUrl>#spike_6</styleUrl><LineString><tessellate>1</tessellate><altitudeMode>relativeToGround</altitudeMode><coordinates>-4.0217,16.9914,0 -4.2083,16.9175,0</coordinates></LineString></Placemark>
<Placemark><styleUrl>#spike_6</styleUrl><LineString><tessellate>1</tessellate><altitudeMode>relativeToGround</altitudeMode><coordinates>-4.0299,16.9714,0 -4.1594,16.8476,0</coordinates></LineString></Placemark>
<Placemark><styleUrl>#spike_6</styleUrl><LineString><tessellate>1</tessellate><altitudeMode>relativeToGround</altitudeMode><coordinates>-4.009,16.9793,0 -4.0863,16.8008,0</coordinates></LineString></Placemark>
<Placemark><styleUrl>#spike_6</styleUrl><LineString><tessellate>1</tessellate><altitudeMode>relativeToGround</altitudeMode><coordinates>-4.0,16.9596,0 -4.0,16.7844,0</coordinates></LineString></Placemark>
<Placemark><styleUrl>#spike_6</styleUrl><LineString><tessellate>1</tessellate><altitudeMode>relativeToGround</altitudeMode><coordinates>-3.991,16.9793,0 -3.9137,16.8008,0</coordinates></LineString></Placemark>
<Placemark><styleUrl>#spike_6</styleUrl><LineString><tessellate>1</tessellate><altitudeMode>relativeToGround</altitudeMode><coordinates>-3.9701,16.9714,0 -3.8406,16.8476,0</coordinates></LineString></Placemark>
<Placemark><styleUrl>#spike_6</styleUrl><LineString><tessellate>1</tessellate><altitudeMode>relativeToGround</altitudeMode><coordinates>-3.9783,16.9914,0 -3.7917,16.9175,0</coordinates></LineString></Placemark>
<Placemark><styleUrl>#ring_7</styleUrl><LineString><tessellate>1</tessellate><altitudeMode>relativeToGround</altitudeMode><coordinates>0.6138,15.0,0 0.6085,15.0774,0 0.5929,15.1535,0 0.5671,15.2269,0 0.5316,15.2964,0 0.487,15.3609,0 0.434,15.4192,0 0.3737,15.4704,0 0.3069,15.5135,0 0.2349,15.5478,0 0.1589,15.5727,0 0.0801,15.5878,0 0.0,15.5929,0 -0.0801,15.5878,0 -0.1589,15.5727,0 -0.2349,15.5478,0 -0.3069,15.5135,0 -0.3737,15.4704,0 -0.434,15.4192,0 -0.487,15.3609,0 -0.5316,15.2964,0 -0.5671,15.2269,0 -0.5929,15.1535,0 -0.6085,15.0774,0 -0.6138,15.0,0 -0.6085,14.9226,0 -0.5929,14.8465,0 -0.5671,14.7731,0 -0.5316,14.7036,0 -0.487,14.6391,0 -0.434,14.5808,0 -0.3737,14.5296,0 -0.3069,14.4865,0 -0.2349,14.4522,0 -0.1589,14.4273,0 -0.0801,14.4122,0 -0.0,14.4071,0 0.0801,14.4122,0 0.1589,14.4273,0 0.2349,14.4522,0 0.3069,14.4865,0 0.3737,14.5296,0 0.434,14.5808,0 0.487,14.6391,0 0.5316,14.7036,0 0.5671,14.7731,0 0.5929,14.8465,0 0.6085,14.9226,0 0.6138,15.0,0</coordinates></LineString></Placemark>
<Placemark><styleUrl>#ring_8</styleUrl><LineString><tessellate>1</tessellate><altitudeMode>relativeToGround</altitudeMode><coordinates>0.9486,15.0,0 0.9405,15.1196,0 0.9163,15.2372,0 0.8764,15.3506,0 0.8215,15.4581,0 0.7526,15.5578,0 0.6708,15.6479,0 0.5775,15.7269,0 0.4743,15.7935,0 0.363,15.8465,0 0.2455,15.8851,0 0.1238,15.9084,0 0.0,15.9163,0 -0.1238,15.9084,0 -0.2455,15.8851,0 -0.363,15.8465,0 -0.4743,15.7935,0 -0.5775,15.7269,0 -0.6708,15.6479,0 -0.7526,15.5578,0 -0.8215,15.4581,0 -0.8764,15.3506,0 -0.9163,15.2372,0 -0.9405,15.1196,0 -0.9486,15.0,0 -0.9405,14.8804,0 -0.9163,14.7628,0 -0.8764,14.6494,0 -0.8215,14.5419,0 -0.7526,14.4422,0 -0.6708,14.3521,0 -0.5775,14.2731,0 -0.4743,14.2065,0 -0.363,14.1535,0 -0.2455,14.1149,0 -0.1238,14.0916,0 -0.0,14.0837,0 0.1238,14.0916,0 0.2455,14.1149,0 0.363,14.1535,0 0.4743,14.2065,0 0.5775,14.2731,0 0.6708,14.3521,0 0.7526,14.4422,0 0.8215,14.5419,0 0.8764,14.6494,0 0.9163,14.7628,0 0.9405,14.8804,0 0.9486,15.0,0</coordinates></LineString></Placemark>
<Placemark><styleUrl>#ring_9</styleUrl><LineString><tessellate>1</tessellate><altitudeMode>relativeToGround</altitudeMode><coordinates>1.2834,15.0,0 1.2724,15.1618,0 1.2397,15.3209,0 1.1857,15.4744,0 1.1115,15.6198,0 1.0182,15.7547,0 0.9075,15.8766,0 0.7813,15.9835,0 0.6417,16.0736,0 0.4911,16.1453,0 0.3322,16.1974,0 0.1675,16.2291,0 0.0,16.2397,0 -0.1675,16.2291,0 -0.3322,16.1974,0 -0.4911,16.1453,0 -0.6417,16.0736,0 -0.7813,15.9835,0 -0.9075,15.8766,0 -1.0182,15.7547,0 -1.1115,15.6198,0 -1.1857,15.4744,0 -1.2397,15.3209,0 -1.2724,15.1618,0 -1.2834,15.0,0 -1.2724,14.8382,0 -1.2397,14.6791,0 -1.1857,14.5256,0 -1.1115,14.3802,0 -1.0182,14.2453,0 -0.9075,14.1234,0 -0.7813,14.0165,0 -0.6417,13.9264,0 -0.4911,13.8547,0 -0.3322,13.8026,0 -0.1675,13.7709,0 -0.0,13.7603,0 0.1675,13.7709,0 0.3322,13.8026,0 0.4911,13.8547,0 0.6417,13.9264,0 0.7813,14.0165,0 0.9075,14.1234,0 1.0182,14.2453,0 1.1115,14.3802,0 1.1857,14.5256,0 1.2397,14.6791,0 1.2724,14.8382,0 1.2834,15.0,0</coordinates></LineString></Placemark>
</Document></kml>
