<?xml version="1.0" encoding="UTF-8"?>
<kml xmlns="http://www.opengis.net/kml/2.2" xmlns:gx="http://www.google.com/kml/ext/2.2" xmlns:kml="http://www.opengis.net/kml/2.2">
<Document><name>Amazon Rainforest</name>
<LookAt><longitude>-62.0</longitude><latitude>-5.0</latitude><range>5000000</range><tilt>45</tilt><heading>0</heading><altitudeMode>relativeToGround</altitudeMode></LookAt>
<Style id="dot_0"><IconStyle><scale>0.9</scale><Icon><href>http://maps.google.com/mapfiles/kml/paddle/green-circle.png</href></Icon></IconStyle></Style>
<Style id="jag_1"><LineStyle><color>ff303bff</color><width>3</width></LineStyle></Style>
<Style id="poly_2"><PolyStyle><color>552b5a8e</color></PolyStyle></Style>
<Style id="line_3"><LineStyle><color>ff2b5a8e</color><width>3</width></LineStyle></Style>
<Style id="ring_4"><LineStyle><color>ff59c734</color><width>2</width></LineStyle></Style>
<Style id="col_5"><LineStyle><color>ff59c734</color><width>1</width></LineStyle><PolyStyle><color>ff59c734</color></PolyStyle></Style>
<Style id="ring_6"><LineStyle><color>5559c734</color><width>3</width></LineStyle></Style>
<Style id="ring_7"><LineStyle><color>3c59c734</color><width>3</width></LineStyle></Style>
<Style id="ring_8"><LineStyle><color>2859c734</color><width>3</width></LineStyle></Style>
<Placemark><styleUrl>#dot_0</styleUrl><Point><altitudeMode>relativeToGround</altitudeMode><coordinates>-62.0,-4.0,0</coordinates></Point></Placemark>
<Placemark><styleUrl>#dot_0</styleUrl><Point><altitudeMode>relativeToGround</altitudeMode><coordinates>-60.0,-6.0,0</coordinates></Point></Placemark>
<Placemark><styleUrl>#dot_0</styleUrl><Point><altitudeMode>relativeToGround</altitudeMode><coordinates>-64.0,-7.0,0</coordinates></Point></Placemark>
<Placemark><styleUrl>#dot_0</styleUrl><Point><altitudeMode>relativeToGround</altitudeMode><coordinates>-58.0,-5.0,0</coordinates></Point></Placemark>
<Placemark><styleUrl>#dot_0</styleUrl><Point><altitudeMode>relativeToGround</altitudeMode><coordinates>-61.0,-8.0,0</coordinates></Point></Placemark>
<Placemark><styleUrl>#dot_0</styleUrl><Point><altitudeMode>relativeToGround</altitudeMode><coordinates>-63.0,-4.5,0</coordinates></Point></Placemark>
<Placemark><styleUrl>#jag_1</styleUrl><LineString><tessellate>1</tessellate><altitudeMode>relativeToGround</altitudeMode><coordinates>-64.0,-6.0,0.0 -62.5,-5.5,0.5 -61.0,-6.5,0.0 -59.5,-5.0,0.5</coordinates></LineString></Placemark>
<Placemark><styleUrl>#poly_2</styleUrl><Polygon><tessellate>1</tessellate><altitudeMode>relativeToGround</altitudeMode><outerBoundaryIs><LinearRing><coordinates>-63.0,-3.0,0 -60.0,-3.0,0 -60.0,-5.0,0 -63.0,-5.0,0 -63.0,-3.0,0</coordinates></LinearRing></outerBoundaryIs></Polygon></Placemark>
<Placemark><styleUrl>#line_3</styleUrl><LineString><tessellate>1</tessellate><altitudeMode>relativeToGround</altitudeMode><coordinates>-65.0,-8.0,0 -62.0,-6.0,0 -59.0,-5.0,0</coordinates></LineString></Placemark>
<Placemark><styleUrl>#ring_4</styleUrl><LineString><tessellate>1</tessellate><altitudeMode>relativeToGround</altitudeMode><coordinates>-59.7456,-5.0,0 -59.7649,-4.7069,0 -59.8225,-4.4187,0 -59.9172,-4.1406,0 -60.0477,-3.8771,0 -60.2115,-3.6329,0 -60.4059,-3.412,0 -60.6276,-3.2183,0 -60.8728,-3.0551,0 -61.1373,-2.9252,0 -61.4165,-2.8307,0 -61.7057,-2.7734,0 -62.0,-2.7542,0 -62.2943,-2.7734,0 -62.5835,-2.8307,0 -62.8627,-2.9252,0 -63.1272,-3.0551,0 -63.3724,-3.2183,0 -63.5941,-3.412,0 -63.7885,-3.6329,0 -63.9523,-3.8771,0 -64.0828,-4.1406,0 -64.1775,-4.4187,0 -64.2351,-4.7069,0 -64.2544,-5.0,0 -64.2351,-5.2931,0 -64.1775,-5.5813,0 -64.0828,-5.8594,0 -63.9523,-6.1229,0 -63.7885,-6.3671,0 -63.5941,-6.588,0 -63.3724,-6.7817,0 -63.1272,-6.9449,0 -62.8627,-7.0748,0 -62.5835,-7.1693,0 -62.2943,-7.2266,0 -62.0,-7.2458,0 -61.7057,-7.2266,0 -61.4165,-7.1693,0 -61.1373,-7.0748,0 -60.8728,-6.9449,0 -60.6276,-6.7817,0 -60.4059,-6.588,0 -60.2115,-6.3671,0 -60.0477,-6.1229,0 -59.9172,-5.8594,0 -59.8225,-5.5813,0 -59.7649,-5.2931,0 -59.7456,-5.0,0</coordinates></LineString></Placemark>
<Placemark><styleUrl>#ring_4</styleUrl><LineString><tessellate>1</tessellate><altitudeMode>relativeToGround</altitudeMode><coordinates>-57.4913,-5.0,0 -57.5299,-4.4137,0 -57.6449,-3.8375,0 -57.8345,-3.2812,0 -58.0953,-2.7542,0 -58.423,-2.2657,0 -58.8119,-1.824,0 -59.2553,-1.4366,0 -59.7456,-1.1102,0 -60.2746,-0.8503,0 -60.8331,-0.6615,0 -61.4115,-0.5469,0 -62.0,-0.5084,0 -62.5885,-0.5469,0 -63.1669,-0.6615,0 -63.7254,-0.8503,0 -64.2544,-1.1102,0 -64.7447,-1.4366,0 -65.1881,-1.824,0 -65.577,-2.2657,0 -65.9047,-2.7542,0 -66.1655,-3.2812,0 -66.3551,-3.8375,0 -66.4701,-4.4137,0 -66.5087,-5.0,0 -66.4701,-5.5863,0 -66.3551,-6.1625,0 -66.1655,-6.7188,0 -65.9047,-7.2458,0 -65.577,-7.7343,0 -65.1881,-8.176,0 -64.7447,-8.5634,0 -64.2544,-8.8898,0 -63.7254,-9.1497,0 -63.1669,-9.3385,0 -62.5885,-9.4531,0 -62.0,-9.4916,0 -61.4115,-9.4531,0 -60.8331,-9.3385,0 -60.2746,-9.1497,0 -59.7456,-8.8898,0 -59.2553,-8.5634,0 -58.8119,-8.176,0 -58.423,-7.7343,0 -58.0953,-7.2458,0 -57.8345,-6.7188,0 -57.6449,-6.1625,0 -57.5299,-5.5863,0 -57.4913,-5.0,0</coordinates></LineString></Placemark>
<Placemark><styleUrl>#col_5</styleUrl><Polygon><extrude>1</extrude><tessellate>1</tessellate><altitudeMode>relativeToGround</altitudeMode><outerBoundaryIs><LinearRing><coordinates>-62.2,-5.2,20000 -61.8,-5.2,20000 -61.8,-4.8,20000 -62.2,-4.8,20000 -62.2,-5.2,20000</coordinates></LinearRing></outerBoundaryIs></Polygon></Placemark>
<Placemark><styleUrl>#ring_6</styleUrl><LineString><tessellate>1</tessellate><altitudeMode>relativeToGround</altitudeMode><coordinates>-61.4048,-5.0,0 -61.4099,-4.9226,0 -61.4251,-4.8465,0 -61.4502,-4.7731,0 -61.4846,-4.7036,0 -61.5278,-4.6391,0 -61.5792,-4.5808,0 -61.6377,-4.5296,0 -61.7024,-4.4865,0 -61.7722,-4.4522,0 -61.846,-4.4273,0 -61.9223,-4.4122,0 -62.0,-4.4071,0 -62.0777,-4.4122,0 -62.154,-4.4273,0 -62.2278,-4.4522,0 -62.2976,-4.4865,0 -62.3623,-4.5296,0 -62.4208,-4.5808,0 -62.4722,-4.6391,0 -62.5154,-4.7036,0 -62.5498,-4.7731,0 -62.5749,-4.8465,0 -62.5901,-4.9226,0 -62.5952,-5.0,0 -62.5901,-5.0774,0 -62.5749,-5.1535,0 -62.5498,-5.2269,0 -62.5154,-5.2964,0 -62.4722,-5.3609,0 -62.4208,-5.4192,0 -62.3623,-5.4704,0 -62.2976,-5.5135,0 -62.2278,-5.5478,0 -62.154,-5.5727,0 -62.0777,-5.5878,0 -62.0,-5.5929,0 -61.9223,-5.5878,0 -61.846,-5.5727,0 -61.7722,-5.5478,0 -61.7024,-5.5135,0 -61.6377,-5.4704,0 -61.5792,-5.4192,0 -61.5278,-5.3609,0 -61.4846,-5.2964,0 -61.4502,-5.2269,0 -61.4251,-5.1535,0 -61.4099,-5.0774,0 -61.4048,-5.0,0</coordinates></LineString></Placemark>
<Placemark><styleUrl>#ring_7</styleUrl><LineString><tessellate>1</tessellate><altitudeMode>relativeToGround</altitudeMode><coordinates>-61.0802,-5.0,0 -61.0881,-4.8804,0 -61.1116,-4.7628,0 -61.1502,-4.6494,0 -61.2034,-4.5419,0 -61.2703,-4.4422,0 -61.3496,-4.3521,0 -61.4401,-4.2731,0 -61.5401,-4.2065,0 -61.648,-4.1535,0 -61.7619,-4.1149,0 -61.8799,-4.0916,0 -62.0,-4.0837,0 -62.1201,-4.0916,0 -62.2381,-4.1149,0 -62.352,-4.1535,0 -62.4599,-4.2065,0 -62.5599,-4.2731,0 -62.6504,-4.3521,0 -62.7297,-4.4422,0 -62.7966,-4.5419,0 -62.8498,-4.6494,0 -62.8884,-4.7628,0 -62.9119,-4.8804,0 -62.9198,-5.0,0 -62.9119,-5.1196,0 -62.8884,-5.2372,0 -62.8498,-5.3506,0 -62.7966,-5.4581,0 -62.7297,-5.5578,0 -62.6504,-5.6479,0 -62.5599,-5.7269,0 -62.4599,-5.7935,0 -62.352,-5.8465,0 -62.2381,-5.8851,0 -62.1201,-5.9084,0 -62.0,-5.9163,0 -61.8799,-5.9084,0 -61.7619,-5.8851,0 -61.648,-5.8465,0 -61.5401,-5.7935,0 -61.4401,-5.7269,0 -61.3496,-5.6479,0 -61.2703,-5.5578,0 -61.2034,-5.4581,0 -61.1502,-5.3506,0 -61.1116,-5.2372,0 -61.0881,-5.1196,0 -61.0802,-5.0,0</coordinates></LineString></Placemark>
<Placemark><styleUrl>#ring_8</styleUrl><LineString><tessellate>1</tessellate><altitudeMode>relativeToGround</altitudeMode><coordinates>-60.7556,-5.0,0 -60.7662,-4.8382,0 -60.798,-4.6791,0 -60.8503,-4.5256,0 -60.9223,-4.3802,0 -61.0127,-4.2453,0 -61.1201,-4.1234,0 -61.2425,-4.0165,0 -61.3778,-3.9264,0 -61.5238,-3.8547,0 -61.6779,-3.8026,0 -61.8376,-3.7709,0 -62.0,-3.7603,0 -62.1624,-3.7709,0 -62.3221,-3.8026,0 -62.4762,-3.8547,0 -62.6222,-3.9264,0 -62.7575,-4.0165,0 -62.8799,-4.1234,0 -62.9873,-4.2453,0 -63.0777,-4.3802,0 -63.1497,-4.5256,0 -63.202,-4.6791,0 -63.2338,-4.8382,0 -63.2444,-5.0,0 -63.2338,-5.1618,0 -63.202,-5.3209,0 -63.1497,-5.4744,0 -63.0777,-5.6198,0 -62.9873,-5.7547,0 -62.8799,-5.8766,0 -62.7575,-5.9835,0 -62.6222,-6.0736,0 -62.4762,-6.1453,0 -62.3221,-6.1974,0 -62.1624,-6.2291,0 -62.0,-6.2397,0 -61.8376,-6.2291,0 -61.6779,-6.1974,0 -61.5238,-6.1453,0 -61.3778,-6.0736,0 -61.2425,-5.9835,0 -61.1201,-5.8766,0 -61.0127,-5.7547,0 -60.9223,-5.6198,0 -60.8503,-5.4744,0 -60.798,-5.3209,0 -60.7662,-5.1618,0 -60.7556,-5.0,0</coordinates></LineString></Placemark>
</Document></kml>
