<?xml version="1.0" encoding="UTF-8"?>
<kml xmlns="http://www.opengis.net/kml/2.2" xmlns:gx="http://www.google.com/kml/ext/2.2" xmlns:kml="http://www.opengis.net/kml/2.2">
<Document><name>Middle East Military</name>
<LookAt><longitude>45.0</longitude><latitude>28.0</latitude><range>3500000</range><tilt>45</tilt><heading>0</heading><altitudeMode>relativeToGround</altitudeMode></LookAt>
<Style id="icon_0"><IconStyle><scale>1.4</scale><Icon><href>http://lg1:81/kml/icons/circle-red.png</href></Icon></IconStyle></Style>
<Style id="icon_1"><IconStyle><scale>1.4</scale><Icon><href>http://lg1:81/kml/icons/circle-red.png</href></Icon></IconStyle></Style>
<Style id="poly_2"><PolyStyle><color>33303bff</color></PolyStyle></Style>
<Style id="ring_3"><LineStyle><color>ff303bff</color><width>2</width></LineStyle></Style>
<Style id="line_4"><LineStyle><color>ff00c4ff</color><width>3</width></LineStyle></Style>
<Style id="spire_5"><LineStyle><color>ff303bff</color><width>2</width></LineStyle></Style>
<Placemark><styleUrl>#icon_0</styleUrl><Point><altitudeMode>relativeToGround</altitudeMode><coordinates>50.0,26.0,9500</coordinates></Point></Placemark>
<Placemark><styleUrl>#icon_1</styleUrl><Point><altitudeMode>relativeToGround</altitudeMode><coordinates>40.0,30.0,10000</coordinates></Point></Placemark>
<Placemark><styleUrl>#poly_2</styleUrl><Polygon><tessellate>1</tessellate><altitudeMode>relativeToGround</altitudeMode><outerBoundaryIs><LinearRing><coordinates>38.0,34.0,0 48.0,34.0,0 46.0,24.0,0 38.0,24.0,0 38.0,34.0,0</coordinates></LinearRing></outerBoundaryIs></Polygon></Placemark>
<Placemark><styleUrl>#ring_3</styleUrl><LineString><tessellate>1</tessellate><altitudeMode>relativeToGround</altitudeMode><coordinates>48.0522,28.0,0 48.0261,28.3518,0 47.9482,28.6975,0 47.8199,29.0313,0 47.6433,29.3475,0 47.4215,29.6406,0 47.1582,29.9056,0 46.8581,30.138,0 46.5261,30.3339,0 46.168,30.4898,0 45.79,30.6031,0 45.3984,30.6719,0 45.0,30.6949,0 44.6016,30.6719,0 44.21,30.6031,0 43.832,30.4898,0 43.4739,30.3339,0 43.1419,30.138,0 42.8418,29.9056,0 42.5785,29.6406,0 42.3567,29.3475,0 42.1801,29.0313,0 42.0518,28.6975,0 41.9739,28.3518,0 41.9478,28.0,0 41.9739,27.6482,0 42.0518,27.3025,0 42.1801,26.9687,0 42.3567,26.6525,0 42.5785,26.3594,0 42.8418,26.0944,0 43.1419,25.862,0 43.4739,25.6661,0 43.832,25.5102,0 44.21,25.3969,0 44.6016,25.3281,0 45.0,25.3051,0 45.3984,25.3281,0 45.79,25.3969,0 46.168,25.5102,0 46.5261,25.6661,0 46.8581,25.862,0 47.1582,26.0944,0 47.4215,26.3594,0 47.6433,26.6525,0 47.8199,26.9687,0 47.9482,27.3025,0 48.0261,27.6482,0 48.0522,28.0,0</coordinates></LineString></Placemark>
<Placemark><styleUrl>#ring_3</styleUrl><LineString><tessellate>1</tessellate><altitudeMode>relativeToGround</altitudeMode><coordinates>51.1044,28.0,0 51.0522,28.7035,0 50.8964,29.395,0 50.6397,30.0626,0 50.2866,30.6949,0 49.8429,31.2811,0 49.3165,31.8112,0 48.7161,32.2761,0 48.0522,32.6678,0 47.3361,32.9796,0 46.5799,33.2062,0 45.7968,33.3438,0 45.0,33.3899,0 44.2032,33.3438,0 43.4201,33.2062,0 42.6639,32.9796,0 41.9478,32.6678,0 41.2839,32.2761,0 40.6835,31.8112,0 40.1571,31.2811,0 39.7134,30.6949,0 39.3603,30.0626,0 39.1036,29.395,0 38.9478,28.7035,0 38.8956,28.0,0 38.9478,27.2965,0 39.1036,26.605,0 39.3603,25.9374,0 39.7134,25.3051,0 40.1571,24.7189,0 40.6835,24.1888,0 41.2839,23.7239,0 41.9478,23.3322,0 42.6639,23.0204,0 43.4201,22.7938,0 44.2032,22.6562,0 45.0,22.6101,0 45.7968,22.6562,0 46.5799,22.7938,0 47.3361,23.0204,0 48.0522,23.3322,0 48.7161,23.7239,0 49.3165,24.1888,0 49.8429,24.7189,0 50.2866,25.3051,0 50.6397,25.9374,0 50.8964,26.605,0 51.0522,27.2965,0 51.1044,28.0,0</coordinates></LineString></Placemark>
<Placemark><styleUrl>#line_4</styleUrl><LineString><tessellate>1</tessellate><altitudeMode>relativeToGround</altitudeMode><coordinates>40.0,30.0,9000 44.0,27.0,9000 48.0,25.0,9000</coordinates></LineString></Placemark>
<Placemark><styleUrl>#spire_5</styleUrl><LineString><altitudeMode>relativeToGround</altitudeMode><coordinates>45.0,28.0,0 45.0,28.0,7000</coordinates></LineString></Placemark>
<Placemark><styleUrl>#spire_5</styleUrl><LineString><altitudeMode>relativeToGround</altitudeMode><coordinates>45.0,28.0,0 45.0,28.0,10500</coordinates></LineString></Placemark>
<Placemark><styleUrl>#spire_5</styleUrl><LineString><altitudeMode>relativeToGround</altitudeMode><coordinates>45.0,28.0,0 45.0,28.0,12000</coordinates></LineString></Placemark>
</Document></kml>
