<?xml version="1.0" encoding="UTF-8"?>
<kml xmlns="http://www.opengis.net/kml/2.2" xmlns:gx="http://www.google.com/kml/ext/2.2" xmlns:kml="http://www.opengis.net/kml/2.2">
<Document><name>North Atlantic Corridor</name>
<LookAt><longitude>-40.0</longitude><latitude>50.0</latitude><range>6000000</range><tilt>45</tilt><heading>0</heading><altitudeMode>relativeToGround</altitudeMode></LookAt>
<Style id="icon_0"><IconStyle><scale>1.3</scale><Icon><href>http://lg1:81/kml/icons/circle-green.png</href></Icon></IconStyle></Style>
<Style id="icon_1"><IconStyle><scale>1.3</scale><Icon><href>http://lg1:81/kml/icons/circle-green.png</href></Icon></IconStyle></Style>
<Style id="line_2"><LineStyle><color>ff58d130</color><width>3</width></LineStyle></Style>
<Style id="ring_3"><LineStyle><color>ff58d130</color><width>2</width></LineStyle></Style>
<Style id="ring_4"><LineStyle><color>ff58d130</color><width>2</width></LineStyle></Style>
<Style id="poly_5"><PolyStyle><color>2258d130</color></PolyStyle></Style>
<Style id="spire_6"><LineStyle><color>ff00c4ff</color><width>2</width></LineStyle></Style>
<Style id="spike_7"><LineStyle><color>ff58d130</color><width>2</width></LineStyle></Style>
<Style id="ring_8"><LineStyle><color>5558d130</color><width>3</width></LineStyle></Style>
<Style id="ring_9"><LineStyle><color>3c58d130</color><width>3</width></LineStyle></Style>
<Style id="ring_10"><LineStyle><color>2858d130</color><width>3</width></LineStyle></Style>
<Placemark><styleUrl>#icon_0</styleUrl><Point><altitudeMode>relativeToGround</altitudeMode><coordinates>-0.45,51.47,11000</coordinates></Point></Placemark>
<Placemark><styleUrl>#icon_1</styleUrl><Point><altitudeMode>relativeToGround</altitudeMode><coordinates>-74.0,40.71,11500</coordinates></Point></Placemark>
<Placemark><styleUrl>#line_2</styleUrl><LineString><tessellate>1</tessellate><altitudeMode>relativeToGround</altitudeMode><coordinates>-0.45,51.47,11000 -20.0,53.5,11000 -40.0,50.0,11000 -60.0,46.0,11000 -74.0,40.71,11000</coordinates></LineString></Placemark>
<Placemark><styleUrl>#ring_3</styleUrl><LineString><tessellate>1</tessellate><altitudeMode>relativeToGround</altitudeMode><coordinates>1.2805,51.47,0 1.2657,51.6107,0 1.2215,51.749,0 1.1488,51.8825,0 1.0487,52.009,0 0.9229,52.1262,0 0.7737,52.2322,0 0.6035,52.3252,0 0.4153,52.4036,0 0.2122,52.4659,0 -0.0021,52.5112,0 -0.2241,52.5388,0 -0.45,52.548,0 -0.6759,52.5388,0 -0.8979,52.5112,0 -1.1122,52.4659,0 -1.3153,52.4036,0 -1.5035,52.3252,0 -1.6737,52.2322,0 -1.8229,52.1262,0 -1.9487,52.009,0 -2.0488,51.8825,0 -2.1215,51.749,0 -2.1657,51.6107,0 -2.1805,51.47,0 -2.1657,51.3293,0 -2.1215,51.191,0 -2.0488,51.0575,0 -1.9487,50.931,0 -1.8229,50.8138,0 -1.6737,50.7078,0 -1.5035,50.6148,0 -1.3153,50.5364,0 -1.1122,50.4741,0 -0.8979,50.4288,0 -0.6759,50.4012,0 -0.45,50.392,0 -0.2241,50.4012,0 -0.0021,50.4288,0 0.2122,50.4741,0 0.4153,50.5364,0 0.6035,50.6148,0 0.7737,50.7078,0 0.9229,50.8138,0 1.0487,50.931,0 1.1488,51.0575,0 1.2215,51.191,0 1.2657,51.3293,0 1.2805,51.47,0</coordinates></LineString></Placemark>
<Placemark><styleUrl>#ring_3</styleUrl><LineString><tessellate>1</tessellate><altitudeMode>relativeToGround</altitudeMode><coordinates>3.011,51.47,0 2.9814,51.7514,0 2.8931,52.028,0 2.7476,52.295,0 2.5473,52.548,0 2.2958,52.7825,0 1.9973,52.9945,0 1.6569,53.1804,0 1.2805,53.3371,0 0.8745,53.4618,0 0.4458,53.5525,0 0.0018,53.6075,0 -0.45,53.6259,0 -0.9018,53.6075,0 -1.3458,53.5525,0 -1.7745,53.4618,0 -2.1805,53.3371,0 -2.5569,53.1804,0 -2.8973,52.9945,0 -3.1958,52.7825,0 -3.4473,52.548,0 -3.6476,52.295,0 -3.7931,52.028,0 -3.8814,51.7514,0 -3.911,51.47,0 -3.8814,51.1886,0 -3.7931,50.912,0 -3.6476,50.645,0 -3.4473,50.392,0 -3.1958,50.1575,0 -2.8973,49.9455,0 -2.5569,49.7596,0 -2.1805,49.6029,0 -1.7745,49.4782,0 -1.3458,49.3875,0 -0.9018,49.3325,0 -0.45,49.3141,0 0.0018,49.3325,0 0.4458,49.3875,0 0.8745,49.4782,0 1.2805,49.6029,0 1.6569,49.7596,0 1.9973,49.9455,0 2.2958,50.1575,0 2.5473,50.392,0 2.7476,50.645,0 2.8931,50.912,0 2.9814,51.1886,0 3.011,51.47,0</coordinates></LineString></Placemark>
<Placemark><styleUrl>#ring_4</styleUrl><LineString><tessellate>1</tessellate><altitudeMode>relativeToGround</altitudeMode><coordinates>-72.5779,40.71,0 -72.5901,40.8507,0 -72.6264,40.989,0 -72.6862,41.1225,0 -72.7684,41.249,0 -72.8718,41.3662,0 -72.9944,41.4722,0 -73.1343,41.5652,0 -73.289,41.6436,0 -73.4558,41.7059,0 -73.6319,41.7512,0 -73.8144,41.7788,0 -74.0,41.788,0 -74.1856,41.7788,0 -74.3681,41.7512,0 -74.5442,41.7059,0 -74.711,41.6436,0 -74.8657,41.5652,0 -75.0056,41.4722,0 -75.1282,41.3662,0 -75.2316,41.249,0 -75.3138,41.1225,0 -75.3736,40.989,0 -75.4099,40.8507,0 -75.4221,40.71,0 -75.4099,40.5693,0 -75.3736,40.431,0 -75.3138,40.2975,0 -75.2316,40.171,0 -75.1282,40.0538,0 -75.0056,39.9478,0 -74.8657,39.8548,0 -74.711,39.7764,0 -74.5442,39.7141,0 -74.3681,39.6688,0 -74.1856,39.6412,0 -74.0,39.632,0 -73.8144,39.6412,0 -73.6319,39.6688,0 -73.4558,39.7141,0 -73.289,39.7764,0 -73.1343,39.8548,0 -72.9944,39.9478,0 -72.8718,40.0538,0 -72.7684,40.171,0 -72.6862,40.2975,0 -72.6264,40.431,0 -72.5901,40.5693,0 -72.5779,40.71,0</coordinates></LineString></Placemark>
<Placemark><styleUrl>#ring_4</styleUrl><LineString><tessellate>1</tessellate><altitudeMode>relativeToGround</altitudeMode><coordinates>-71.1558,40.71,0 -71.1802,40.9914,0 -71.2527,41.268,0 -71.3723,41.535,0 -71.5369,41.788,0 -71.7436,42.0225,0 -71.9889,42.2345,0 -72.2686,42.4204,0 -72.5779,42.5771,0 -72.9116,42.7018,0 -73.2639,42.7925,0 -73.6288,42.8475,0 -74.0,42.8659,0 -74.3712,42.8475,0 -74.7361,42.7925,0 -75.0884,42.7018,0 -75.4221,42.5771,0 -75.7314,42.4204,0 -76.0111,42.2345,0 -76.2564,42.0225,0 -76.4631,41.788,0 -76.6277,41.535,0 -76.7473,41.268,0 -76.8198,40.9914,0 -76.8442,40.71,0 -76.8198,40.4286,0 -76.7473,40.152,0 -76.6277,39.885,0 -76.4631,39.632,0 -76.2564,39.3975,0 -76.0111,39.1855,0 -75.7314,38.9996,0 -75.4221,38.8429,0 -75.0884,38.7182,0 -74.7361,38.6275,0 -74.3712,38.5725,0 -74.0,38.5541,0 -73.6288,38.5725,0 -73.2639,38.6275,0 -72.9116,38.7182,0 -72.5779,38.8429,0 -72.2686,38.9996,0 -71.9889,39.1855,0 -71.7436,39.3975,0 -71.5369,39.632,0 -71.3723,39.885,0 -71.2527,40.152,0 -71.1802,40.4286,0 -71.1558,40.71,0</coordinates></LineString></Placemark>
<Placemark><styleUrl>#poly_5</styleUrl><Polygon><tessellate>1</tessellate><altitudeMode>relativeToGround</altitudeMode><outerBoundaryIs><LinearRing><coordinates>-30.0,58.0,0 10.0,58.0,0 5.0,42.0,0 -60.0,42.0,0 -30.0,58.0,0</coordinates></LinearRing></outerBoundaryIs></Polygon></Placemark>
<Placemark><styleUrl>#spire_6</styleUrl><LineString><altitudeMode>relativeToGround</altitudeMode><coordinates>-35.0,46.0,0 -35.0,46.0,9000</coordinates></LineString></Placemark>
<Placemark><styleUrl>#spire_6</styleUrl><LineString><altitudeMode>relativeToGround</altitudeMode><coordinates>-35.0,46.0,0 -35.0,46.0,11000</coordinates></LineString></Placemark>
<Placemark><styleUrl>#spire_6</styleUrl><LineString><altitudeMode>relativeToGround</altitudeMode><coordinates>-35.0,46.0,0 -35.0,46.0,12500</coordinates></LineString></Placemark>
<Placemark><styleUrl>#spike_7</styleUrl><LineString><tessellate>1</tessellate><altitudeMode>relativeToGround</altitudeMode><coordinates>-34.9418,46.0,0 -34.8384,46.0,0</coordinates></LineString></Placemark>
<Placemark><styleUrl>#spike_7</styleUrl><LineString><tessellate>1</tessellate><altitudeMode>relativeToGround</altitudeMode><coordinates>-34.9701,46.0086,0 -34.8507,46.043,0</coordinates></LineString></Placemark>
<Placemark><styleUrl>#spike_7</styleUrl><LineString><tessellate>1</tessellate><altitudeMode>relativeToGround</altitudeMode><coordinates>-34.9589,46.0286,0 -34.8857,46.0794,0</coordinates></LineString></Placemark>
<Placemark><styleUrl>#spike_7</styleUrl><LineString><tessellate>1</tessellate><altitudeMode>relativeToGround</altitudeMode><coordinates>-34.9876,46.0207,0 -34.9381,46.1037,0</coordinates></LineString></Placemark>
<Placemark><styleUrl>#spike_7</styleUrl><LineString><tessellate>1</tessellate><altitudeMode>relativeToGround</altitudeMode><coordinates>-35.0,46.0404,0 -35.0,46.1123,0</coordinates></LineString></Placemark>
<Placemark><styleUrl>#spike_7</styleUrl><LineString><tessellate>1</tessellate><altitudeMode>relativeToGround</altitudeMode><coordinates>-35.0124,46.0207,0 -35.0619,46.1037,0</coordinates></LineString></Placemark>
<Placemark><styleUrl>#spike_7</styleUrl><LineString><tessellate>1</tessellate><altitudeMode>relativeToGround</altitudeMode><coordinates>-35.0411,46.0286,0 -35.1143,46.0794,0</coordinates></LineString></Placemark>
<Placemark><styleUrl>#spike_7</styleUrl><LineString><tessellate>1</tessellate><altitudeMode>relativeToGround</altitudeMode><coordinates>-35.0299,46.0086,0 -35.1493,46.043,0</coordinates></LineString></Placemark>
<Placemark><styleUrl>#spike_7</styleUrl><LineString><tessellate>1</tessellate><altitudeMode>relativeToGround</altitudeMode><coordinates>-35.0582,46.0,0 -35.1616,46.0,0</coordinates></LineString></Placemark>
<Placemark><styleUrl>#spike_7</styleUrl><LineString><tessellate>1</tessellate><altitudeMode>relativeToGround</altitudeMode><coordinates>-35.0299,45.9914,0 -35.1493,45.957,0</coordinates></LineString></Placemark>
<Placemark><styleUrl>#spike_7</styleUrl><LineString><tessellate>1</tessellate><altitudeMode>relativeToGround</altitudeMode><coordinates>-35.0411,45.9714,0 -35.1143,45.9206,0</coordinates></LineString></Placemark>
<Placemark><styleUrl>#spike_7</styleUrl><LineString><tessellate>1</tessellate><altitudeMode>relativeToGround</altitudeMode><coordinates>-35.0124,45.9793,0 -35.0619,45.8963,0</coordinates></LineString></Placemark>
<Placemark><styleUrl>#spike_7</styleUrl><LineString><tessellate>1</tessellate><altitudeMode>relativeToGround</altitudeMode><coordinates>-35.0,45.9596,0 -35.0,45.8877,0</coordinates></LineString></Placemark>
<Placemark><styleUrl>#spike_7</styleUrl><LineString><tessellate>1</tessellate><altitudeMode>relativeToGround</altitudeMode><coordinates>-34.9876,45.9793,0 -34.9381,45.8963,0</coordinates></LineString></Placemark>
<Placemark><styleUrl>#spike_7</styleUrl><LineString><tessellate>1</tessellate><altitudeMode>relativeToGround</altitudeMode><coordinates>-34.9589,45.9714,0 -34.8857,45.9206,0</coordinates></LineString></Placemark>
<Placemark><styleUrl>#spike_7</styleUrl><LineString><tessellate>1</tessellate><altitudeMode>relativeToGround</altitudeMode><coordinates>-34.9701,45.9914,0 -34.8507,45.957,0</coordinates></LineString></Placemark>
<Placemark><styleUrl>#ring_8</styleUrl><LineString><tessellate>1</tessellate><altitudeMode>relativeToGround</altitudeMode><coordinates>-39.0776,50.0,0 -39.0855,50.0774,0 -39.1091,50.1535,0 -39.1478,50.2269,0 -39.2012,50.2964,0 -39.2682,50.3609,0 -39.3478,50.4192,0 -39.4385,50.4704,0 -39.5388,50.5135,0 -39.647,50.5478,0 -39.7613,50.5727,0 -39.8796,50.5878,0 -40.0,50.5929,0 -40.1204,50.5878,0 -40.2387,50.5727,0 -40.353,50.5478,0 -40.4612,50.5135,0 -40.5615,50.4704,0 -40.6522,50.4192,0 -40.7318,50.3609,0 -40.7988,50.2964,0 -40.8522,50.2269,0 -40.8909,50.1535,0 -40.9145,50.0774,0 -40.9224,50.0,0 -40.9145,49.9226,0 -40.8909,49.8465,0 -40.8522,49.7731,0 -40.7988,49.7036,0 -40.7318,49.6391,0 -40.6522,49.5808,0 -40.5615,49.5296,0 -40.4612,49.4865,0 -40.353,49.4522,0 -40.2387,49.4273,0 -40.1204,49.4122,0 -40.0,49.4071,0 -39.8796,49.4122,0 -39.7613,49.4273,0 -39.647,49.4522,0 -39.5388,49.4865,0 -39.4385,49.5296,0 -39.3478,49.5808,0 -39.2682,49.6391,0 -39.2012,49.7036,0 -39.1478,49.7731,0 -39.1091,49.8465,0 -39.0855,49.9226,0 -39.0776,50.0,0</coordinates></LineString></Placemark>
<Placemark><styleUrl>#ring_9</styleUrl><LineString><tessellate>1</tessellate><altitudeMode>relativeToGround</altitudeMode><coordinates>-38.5745,50.0,0 -38.5867,50.1196,0 -38.6231,50.2372,0 -38.683,50.3506,0 -38.7655,50.4581,0 -38.8691,50.5578,0 -38.992,50.6479,0 -39.1322,50.7269,0 -39.2873,50.7935,0 -39.4545,50.8465,0 -39.6311,50.8851,0 -39.8139,50.9084,0 -40.0,50.9163,0 -40.1861,50.9084,0 -40.3689,50.8851,0 -40.5455,50.8465,0 -40.7127,50.7935,0 -40.8678,50.7269,0 -41.008,50.6479,0 -41.1309,50.5578,0 -41.2345,50.4581,0 -41.317,50.3506,0 -41.3769,50.2372,0 -41.4133,50.1196,0 -41.4255,50.0,0 -41.4133,49.8804,0 -41.3769,49.7628,0 -41.317,49.6494,0 -41.2345,49.5419,0 -41.1309,49.4422,0 -41.008,49.3521,0 -40.8678,49.2731,0 -40.7127,49.2065,0 -40.5455,49.1535,0 -40.3689,49.1149,0 -40.1861,49.0916,0 -40.0,49.0837,0 -39.8139,49.0916,0 -39.6311,49.1149,0 -39.4545,49.1535,0 -39.2873,49.2065,0 -39.1322,49.2731,0 -38.992,49.3521,0 -38.8691,49.4422,0 -38.7655,49.5419,0 -38.683,49.6494,0 -38.6231,49.7628,0 -38.5867,49.8804,0 -38.5745,50.0,0</coordinates></LineString></Placemark>
<Placemark><styleUrl>#ring_10</styleUrl><LineString><tessellate>1</tessellate><altitudeMode>relativeToGround</altitudeMode><coordinates>-38.0714,50.0,0 -38.0879,50.1618,0 -38.1371,50.3209,0 -38.2182,50.4744,0 -38.3298,50.6198,0 -38.47,50.7547,0 -38.6363,50.8766,0 -38.826,50.9835,0 -39.0357,51.0736,0 -39.262,51.1453,0 -39.5008,51.1974,0 -39.7483,51.2291,0 -40.0,51.2397,0 -40.2517,51.2291,0 -40.4992,51.1974,0 -40.738,51.1453,0 -40.9643,51.0736,0 -41.174,50.9835,0 -41.3637,50.8766,0 -41.53,50.7547,0 -41.6702,50.6198,0 -41.7818,50.4744,0 -41.8629,50.3209,0 -41.9121,50.1618,0 -41.9286,50.0,0 -41.9121,49.8382,0 -41.8629,49.6791,0 -41.7818,49.5256,0 -41.6702,49.3802,0 -41.53,49.2453,0 -41.3637,49.1234,0 -41.174,49.0165,0 -40.9643,48.9264,0 -40.738,48.8547,0 -40.4992,48.8026,0 -40.2517,48.7709,0 -40.0,48.7603,0 -39.7483,48.7709,0 -39.5008,48.8026,0 -39.262,48.8547,0 -39.0357,48.9264,0 -38.826,49.0165,0 -38.6363,49.1234,0 -38.47,49.2453,0 -38.3298,49.3802,0 -38.2182,49.5256,0 -38.1371,49.6791,0 -38.0879,49.8382,0 -38.0714,50.0,0</coordinates></LineString></Placemark>
</Document></kml>
