<?xml version="1.0" encoding="UTF-8"?>
<kml xmlns="http://www.opengis.net/kml/2.2" xmlns:gx="http://www.google.com/kml/ext/2.2" xmlns:kml="http://www.opengis.net/kml/2.2">
<Document><name>Tokyo Approach Stack</name>
<LookAt><longitude>139.8</longitude><latitude>35.55</latitude><range>250000</range><tilt>55</tilt><heading>0</heading><altitudeMode>relativeToGround</altitudeMode></LookAt>
<Style id="icon_0"><IconStyle><scale>1.2</scale><Icon><href>http://lg1:81/kml/icons/circle-yellow.png</href></Icon></IconStyle></Style>
<Style id="icon_1"><IconStyle><scale>1.2</scale><Icon><href>http://lg1:81/kml/icons/circle-yellow.png</href></Icon></IconStyle></Style>
<Style id="icon_2"><IconStyle><scale>1.2</scale><Icon><href>http://lg1:81/kml/icons/circle-yellow.png</href></Icon></IconStyle></Style>
<Style id="icon_3"><IconStyle><scale>1.2</scale><Icon><href>http://lg1:81/kml/icons/circle-yellow.png</href></Icon></IconStyle></Style>
<Style id="ring_4"><LineStyle><color>ff00c4ff</color><width>2</width></LineStyle></Style>
<Style id="line_5"><LineStyle><color>ff58d130</color><width>2</width></LineStyle></Style>
<Style id="spire_6"><LineStyle><color>ff00c4ff</color><width>2</width></LineStyle></Style>
<Placemark><styleUrl>#icon_0</styleUrl><Point><altitudeMode>relativeToGround</altitudeMode><coordinates>139.8,35.55,9000</coordinates></Point></Placemark>
<Placemark><styleUrl>#icon_1</styleUrl><Point><altitudeMode>relativeToGround</altitudeMode><coordinates>139.9,35.6,6500</coordinates></Point></Placemark>
<Placemark><styleUrl>#icon_2</styleUrl><Point><altitudeMode>relativeToGround</altitudeMode><coordinates>139.7,35.5,4200</coordinates></Point></Placemark>
<Placemark><styleUrl>#icon_3</styleUrl><Point><altitudeMode>relativeToGround</altitudeMode><coordinates>139.75,35.58,1800</coordinates></Point></Placemark>
<Placemark><styleUrl>#ring_4</styleUrl><LineString><tessellate>1</tessellate><altitudeMode>relativeToGround</altitudeMode><coordinates>140.3521,35.55,0 140.3473,35.6086,0 140.3332,35.6663,0 140.31,35.7219,0 140.2781,35.7746,0 140.238,35.8234,0 140.1904,35.8676,0 140.1361,35.9063,0 140.076,35.939,0 140.0113,35.965,0 139.9429,35.9839,0 139.8721,35.9953,0 139.8,35.9992,0 139.7279,35.9953,0 139.6571,35.9839,0 139.5887,35.965,0 139.524,35.939,0 139.4639,35.9063,0 139.4096,35.8676,0 139.362,35.8234,0 139.3219,35.7746,0 139.29,35.7219,0 139.2668,35.6663,0 139.2527,35.6086,0 139.2479,35.55,0 139.2527,35.4914,0 139.2668,35.4337,0 139.29,35.3781,0 139.3219,35.3254,0 139.362,35.2766,0 139.4096,35.2324,0 139.4639,35.1937,0 139.524,35.161,0 139.5887,35.135,0 139.6571,35.1161,0 139.7279,35.1047,0 139.8,35.1008,0 139.8721,35.1047,0 139.9429,35.1161,0 140.0113,35.135,0 140.076,35.161,0 140.1361,35.1937,0 140.1904,35.2324,0 140.238,35.2766,0 140.2781,35.3254,0 140.31,35.3781,0 140.3332,35.4337,0 140.3473,35.4914,0 140.3521,35.55,0</coordinates></LineString></Placemark>
<Placemark><styleUrl>#ring_4</styleUrl><LineString><tessellate>1</tessellate><altitudeMode>relativeToGround</altitudeMode><coordinates>140.9041,35.55,0 140.8947,35.6673,0 140.8665,35.7825,0 140.8201,35.8938,0 140.7562,35.9992,0 140.6759,36.0969,0 140.5807,36.1852,0 140.4721,36.2627,0 140.3521,36.328,0 140.2225,36.3799,0 140.0858,36.4177,0 139.9441,36.4406,0 139.8,36.4483,0 139.6559,36.4406,0 139.5142,36.4177,0 139.3775,36.3799,0 139.2479,36.328,0 139.1279,36.2627,0 139.0193,36.1852,0 138.9241,36.0969,0 138.8438,35.9992,0 138.7799,35.8938,0 138.7335,35.7825,0 138.7053,35.6673,0 138.6959,35.55,0 138.7053,35.4327,0 138.7335,35.3175,0 138.7799,35.2062,0 138.8438,35.1008,0 138.9241,35.0031,0 139.0193,34.9148,0 139.1279,34.8373,0 139.2479,34.772,0 139.3775,34.7201,0 139.5142,34.6823,0 139.6559,34.6594,0 139.8,34.6517,0 139.9441,34.6594,0 140.0858,34.6823,0 140.2225,34.7201,0 140.3521,34.772,0 140.4721,34.8373,0 140.5807,34.9148,0 140.6759,35.0031,0 140.7562,35.1008,0 140.8201,35.2062,0 140.8665,35.3175,0 140.8947,35.4327,0 140.9041,35.55,0</coordinates></LineString></Placemark>
<Placemark><styleUrl>#line_5</styleUrl><LineString><tessellate>1</tessellate><altitudeMode>relativeToGround</altitudeMode><coordinates>139.6,35.6,500 139.75,35.55,500 139.8,35.52,500</coordinates></LineString></Placemark>
<Placemark><styleUrl>#spire_6</styleUrl><LineString><altitudeMode>relativeToGround</altitudeMode><coordinates>139.8,35.55,0 139.8,35.55,2000</coordinates></LineString></Placemark>
<Placemark><styleUrl>#spire_6</styleUrl><LineString><altitudeMode>relativeToGround</altitudeMode><coordinates>139.8,35.55,0 139.8,35.55,5000</coordinates></LineString></Placemark>
<Placemark><styleUrl>#spire_6</styleUrl><LineString><altitudeMode>relativeToGround</altitudeMode><coordinates>139.8,35.55,0 139.8,35.55,9000</coordinates></LineString></Placemark>
</Document></kml>
