<?xml version="1.0" encoding="UTF-8"?>
<kml xmlns="http://www.opengis.net/kml/2.2" xmlns:gx="http://www.google.com/kml/ext/2.2" xmlns:kml="http://www.opengis.net/kml/2.2">
<Document><name>BGP Hijack Alert</name>
<LookAt><longitude>15.0</longitude><latitude>48.0</latitude><range>5000000</range><tilt>45</tilt><heading>0</heading><altitudeMode>relativeToGround</altitudeMode></LookAt>
<Style id="ring_0"><LineStyle><color>ff00c4ff</color><width>3</width></LineStyle></Style>
<Style id="ring_1"><LineStyle><color>ff3a45ff</color><width>5</width></LineStyle></Style>
<Style id="spire_2"><LineStyle><color>ff00c4ff</color><width>3</width></LineStyle></Style>
<Style id="icon_3"><IconStyle><scale>1.6</scale><Icon><href>http://lg1:81/kml/icons/circle-red.png</href></Icon></IconStyle></Style>
<Style id="poly_4"><PolyStyle><color>333a45ff</color></PolyStyle></Style>
<Placemark><styleUrl>#ring_0</styleUrl><LineString><tessellate>1</tessellate><altitudeMode>relativeToGround</altitudeMode><coordinates>19.0275,48.0,0 18.9931,48.3518,0 18.8903,48.6975,0 18.7209,49.0313,0 18.4879,49.3475,0 18.1952,49.6406,0 17.8479,49.9056,0 17.4518,50.138,0 17.0138,50.3339,0 16.5413,50.4898,0 16.0424,50.6031,0 15.5257,50.6719,0 15.0,50.6949,0 14.4743,50.6719,0 13.9576,50.6031,0 13.4587,50.4898,0 12.9862,50.3339,0 12.5482,50.138,0 12.1521,49.9056,0 11.8048,49.6406,0 11.5121,49.3475,0 11.2791,49.0313,0 11.1097,48.6975,0 11.0069,48.3518,0 10.9725,48.0,0 11.0069,47.6482,0 11.1097,47.3025,0 11.2791,46.9687,0 11.5121,46.6525,0 11.8048,46.3594,0 12.1521,46.0944,0 12.5482,45.862,0 12.9862,45.6661,0 13.4587,45.5102,0 13.9576,45.3969,0 14.4743,45.3281,0 15.0,45.3051,0 15.5257,45.3281,0 16.0424,45.3969,0 16.5413,45.5102,0 17.0138,45.6661,0 17.4518,45.862,0 17.8479,46.0944,0 18.1952,46.3594,0 18.4879,46.6525,0 18.7209,46.9687,0 18.8903,47.3025,0 18.9931,47.6482,0 19.0275,48.0,0</coordinates></LineString></Placemark>
<Placemark><styleUrl>#ring_0</styleUrl><LineString><tessellate>1</tessellate><altitudeMode>relativeToGround</altitudeMode><coordinates>23.055,48.0,0 22.9861,48.7035,0 22.7806,49.395,0 22.4419,50.0626,0 21.9759,50.6949,0 21.3905,51.2811,0 20.6958,51.8112,0 19.9036,52.2761,0 19.0275,52.6678,0 18.0825,52.9796,0 17.0848,53.2062,0 16.0514,53.3438,0 15.0,53.3899,0 13.9486,53.3438,0 12.9152,53.2062,0 11.9175,52.9796,0 10.9725,52.6678,0 10.0964,52.2761,0 9.3042,51.8112,0 8.6095,51.2811,0 8.0241,50.6949,0 7.5581,50.0626,0 7.2194,49.395,0 7.0139,48.7035,0 6.945,48.0,0 7.0139,47.2965,0 7.2194,46.605,0 7.5581,45.9374,0 8.0241,45.3051,0 8.6095,44.7189,0 9.3042,44.1888,0 10.0964,43.7239,0 10.9725,43.3322,0 11.9175,43.0204,0 12.9152,42.7938,0 13.9486,42.6562,0 15.0,42.6101,0 16.0514,42.6562,0 17.0848,42.7938,0 18.0825,43.0204,0 19.0275,43.3322,0 19.9036,43.7239,0 20.6958,44.1888,0 21.3905,44.7189,0 21.9759,45.3051,0 22.4419,45.9374,0 22.7806,46.605,0 22.9861,47.2965,0 23.055,48.0,0</coordinates></LineString></Placemark>
<Placemark><styleUrl>#ring_0</styleUrl><LineString><tessellate>1</tessellate><altitudeMode>relativeToGround</altitudeMode><coordinates>27.0825,48.0,0 26.9792,49.0553,0 26.6708,50.0925,0 26.1628,51.0939,0 25.4638,52.0424,0 24.5857,52.9217,0 23.5436,53.7168,0 22.3554,54.4141,0 21.0413,55.0016,0 19.6238,55.4694,0 18.1272,55.8093,0 16.5771,56.0156,0 15.0,56.0848,0 13.4229,56.0156,0 11.8728,55.8093,0 10.3762,55.4694,0 8.9587,55.0016,0 7.6446,54.4141,0 6.4564,53.7168,0 5.4143,52.9217,0 4.5362,52.0424,0 3.8372,51.0939,0 3.3292,50.0925,0 3.0208,49.0553,0 2.9175,48.0,0 3.0208,46.9447,0 3.3292,45.9075,0 3.8372,44.9061,0 4.5362,43.9576,0 5.4143,43.0783,0 6.4564,42.2832,0 7.6446,41.5859,0 8.9587,40.9984,0 10.3762,40.5306,0 11.8728,40.1907,0 13.4229,39.9844,0 15.0,39.9152,0 16.5771,39.9844,0 18.1272,40.1907,0 19.6238,40.5306,0 21.0413,40.9984,0 22.3554,41.5859,0 23.5436,42.2832,0 24.5857,43.0783,0 25.4638,43.9576,0 26.1628,44.9061,0 26.6708,45.9075,0 26.9792,46.9447,0 27.0825,48.0,0</coordinates></LineString></Placemark>
<Placemark><styleUrl>#ring_1</styleUrl><LineString><tessellate>1</tessellate><altitudeMode>relativeToGround</altitudeMode><coordinates>17.0138,48.0,0 16.9965,48.1759,0 16.9451,48.3488,0 16.8605,48.5157,0 16.744,48.6737,0 16.5976,48.8203,0 16.4239,48.9528,0 16.2259,49.069,0 16.0069,49.1669,0 15.7706,49.2449,0 15.5212,49.3016,0 15.2628,49.3359,0 15.0,49.3475,0 14.7372,49.3359,0 14.4788,49.3016,0 14.2294,49.2449,0 13.9931,49.1669,0 13.7741,49.069,0 13.5761,48.9528,0 13.4024,48.8203,0 13.256,48.6737,0 13.1395,48.5157,0 13.0549,48.3488,0 13.0035,48.1759,0 12.9862,48.0,0 13.0035,47.8241,0 13.0549,47.6512,0 13.1395,47.4843,0 13.256,47.3263,0 13.4024,47.1797,0 13.5761,47.0472,0 13.7741,46.931,0 13.9931,46.8331,0 14.2294,46.7551,0 14.4788,46.6984,0 14.7372,46.6641,0 15.0,46.6525,0 15.2628,46.6641,0 15.5212,46.6984,0 15.7706,46.7551,0 16.0069,46.8331,0 16.2259,46.931,0 16.4239,47.0472,0 16.5976,47.1797,0 16.744,47.3263,0 16.8605,47.4843,0 16.9451,47.6512,0 16.9965,47.8241,0 17.0138,48.0,0</coordinates></LineString></Placemark>
<Placemark><styleUrl>#spire_2</styleUrl><LineString><altitudeMode>relativeToGround</altitudeMode><coordinates>15.0,48.0,0 15.0,48.0,20000</coordinates></LineString></Placemark>
<Placemark><styleUrl>#spire_2</styleUrl><LineString><altitudeMode>relativeToGround</altitudeMode><coordinates>15.0,48.0,0 15.0,48.0,38000</coordinates></LineString></Placemark>
<Placemark><styleUrl>#icon_3</styleUrl><Point><altitudeMode>relativeToGround</altitudeMode><coordinates>15.0,48.0,0</coordinates></Point></Placemark>
<Placemark><styleUrl>#poly_4</styleUrl><Polygon><tessellate>1</tessellate><altitudeMode>relativeToGround</altitudeMode><outerBoundaryIs><LinearRing><coordinates>5.0,55.0,0 25.0,55.0,0 22.0,42.0,0 8.0,42.0,0 5.0,55.0,0</coordinates></LinearRing></outerBoundaryIs></Polygon></Placemark>
</Document></kml>
