<?xml version="1.0" encoding="UTF-8"?>
<kml xmlns="http://www.opengis.net/kml/2.2" xmlns:gx="http://www.google.com/kml/ext/2.2" xmlns:kml="http://www.opengis.net/kml/2.2">
<Document><name>London Mild Front</name>
<LookAt><longitude>-0.1278</longitude><latitude>51.5074</latitude><range>150000</range><tilt>55</tilt><heading>0</heading><altitudeMode>relativeToGround</altitudeMode></LookAt>
<Style id="col_0"><LineStyle><color>ff59c734</color><width>1</width></LineStyle><PolyStyle><color>ff59c734</color></PolyStyle></Style>
<Style id="ring_1"><LineStyle><color>ffff840a</color><width>3</width></LineStyle></Style>
<Style id="burst_2"><LineStyle><color>ffc7b030</color><width>2</width></LineStyle></Style>
<Style id="dot_3"><IconStyle><scale>0.7</scale><Icon><href>http://lg1:81/kml/icons/circle-blue.png</href></Icon></IconStyle></Style>
<Style id="arc_4"><LineStyle><color>ff59c734</color><width>3</width></LineStyle></Style>
<Placemark><styleUrl>#col_0</styleUrl><Polygon><extrude>1</extrude><tessellate>1</tessellate><altitudeMode>relativeToGround</altitudeMode><outerBoundaryIs><LinearRing><coordinates>-0.3028,51.3324,18000 0.0472,51.3324,18000 0.0472,51.6824,18000 -0.3028,51.6824,18000 -0.3028,51.3324,18000</coordinates></LinearRing></outerBoundaryIs></Polygon></Placemark>
<Placemark><styleUrl>#ring_1</styleUrl><LineString><tessellate>1</tessellate><altitudeMode>relativeToGround</altitudeMode><coordinates>0.233,51.5074,0 0.2299,51.5367,0 0.2207,51.5655,0 0.2056,51.5933,0 0.1847,51.6197,0 0.1585,51.6441,0 0.1273,51.6662,0 0.0919,51.6856,0 0.0526,51.7019,0 0.0103,51.7149,0 -0.0344,51.7243,0 -0.0807,51.7301,0 -0.1278,51.732,0 -0.1749,51.7301,0 -0.2212,51.7243,0 -0.2659,51.7149,0 -0.3082,51.7019,0 -0.3475,51.6856,0 -0.3829,51.6662,0 -0.4141,51.6441,0 -0.4403,51.6197,0 -0.4612,51.5933,0 -0.4763,51.5655,0 -0.4855,51.5367,0 -0.4886,51.5074,0 -0.4855,51.4781,0 -0.4763,51.4493,0 -0.4612,51.4215,0 -0.4403,51.3951,0 -0.4141,51.3707,0 -0.3829,51.3486,0 -0.3475,51.3292,0 -0.3082,51.3129,0 -0.2659,51.2999,0 -0.2212,51.2905,0 -0.1749,51.2847,0 -0.1278,51.2828,0 -0.0807,51.2847,0 -0.0344,51.2905,0 0.0103,51.2999,0 0.0526,51.3129,0 0.0919,51.3292,0 0.1273,51.3486,0 0.1585,51.3707,0 0.1847,51.3951,0 0.2056,51.4215,0 0.2207,51.4493,0 0.2299,51.4781,0 0.233,51.5074,0</coordinates></LineString></Placemark>
<Placemark><styleUrl>#ring_1</styleUrl><LineString><tessellate>1</tessellate><altitudeMode>relativeToGround</altitudeMode><coordinates>0.5938,51.5074,0 0.5877,51.566,0 0.5692,51.6237,0 0.5389,51.6793,0 0.4972,51.732,0 0.4447,51.7808,0 0.3825,51.825,0 0.3115,51.8637,0 0.233,51.8964,0 0.1484,51.9224,0 0.059,51.9413,0 -0.0336,51.9527,0 -0.1278,51.9566,0 -0.222,51.9527,0 -0.3146,51.9413,0 -0.404,51.9224,0 -0.4886,51.8964,0 -0.5671,51.8637,0 -0.6381,51.825,0 -0.7003,51.7808,0 -0.7528,51.732,0 -0.7945,51.6793,0 -0.8248,51.6237,0 -0.8433,51.566,0 -0.8494,51.5074,0 -0.8433,51.4488,0 -0.8248,51.3911,0 -0.7945,51.3355,0 -0.7528,51.2828,0 -0.7003,51.234,0 -0.6381,51.1898,0 -0.5671,51.1511,0 -0.4886,51.1184,0 -0.404,51.0924,0 -0.3146,51.0735,0 -0.222,51.0621,0 -0.1278,51.0582,0 -0.0336,51.0621,0 0.059,51.0735,0 0.1484,51.0924,0 0.233,51.1184,0 0.3115,51.1511,0 0.3825,51.1898,0 0.4447,51.234,0 0.4972,51.2828,0 0.5389,51.3355,0 0.5692,51.3911,0 0.5877,51.4488,0 0.5938,51.5074,0</coordinates></LineString></Placemark>
<Placemark><styleUrl>#ring_1</styleUrl><LineString><tessellate>1</tessellate><altitudeMode>relativeToGround</altitudeMode><coordinates>0.9547,51.5074,0 0.9454,51.5953,0 0.9178,51.6818,0 0.8723,51.7652,0 0.8096,51.8443,0 0.731,51.9175,0 0.6376,51.9838,0 0.5312,52.0419,0 0.4134,52.0909,0 0.2864,52.1298,0 0.1524,52.1582,0 0.0135,52.1754,0 -0.1278,52.1811,0 -0.2691,52.1754,0 -0.408,52.1582,0 -0.542,52.1298,0 -0.669,52.0909,0 -0.7868,52.0419,0 -0.8932,51.9838,0 -0.9866,51.9175,0 -1.0652,51.8443,0 -1.1279,51.7652,0 -1.1734,51.6818,0 -1.201,51.5953,0 -1.2103,51.5074,0 -1.201,51.4195,0 -1.1734,51.333,0 -1.1279,51.2496,0 -1.0652,51.1705,0 -0.9866,51.0973,0 -0.8932,51.031,0 -0.7868,50.9729,0 -0.669,50.9239,0 -0.542,50.885,0 -0.408,50.8566,0 -0.2691,50.8394,0 -0.1278,50.8337,0 0.0135,50.8394,0 0.1524,50.8566,0 0.2864,50.885,0 0.4134,50.9239,0 0.5312,50.9729,0 0.6376,51.031,0 0.731,51.0973,0 0.8096,51.1705,0 0.8723,51.2496,0 0.9178,51.333,0 0.9454,51.4195,0 0.9547,51.5074,0</coordinates></LineString></Placemark>
<Placemark><styleUrl>#burst_2</styleUrl><LineString><tessellate>1</tessellate><altitudeMode>relativeToGround</altitudeMode><coordinates>-0.1278,51.5074,0 0.5217,51.5074,0</coordinates></LineString></Placemark>
<Placemark><styleUrl>#burst_2</styleUrl><LineString><tessellate>1</tessellate><altitudeMode>relativeToGround</altitudeMode><coordinates>-0.1278,51.5074,0 0.3314,51.7932,0</coordinates></LineString></Placemark>
<Placemark><styleUrl>#burst_2</styleUrl><LineString><tessellate>1</tessellate><altitudeMode>relativeToGround</altitudeMode><coordinates>-0.1278,51.5074,0 -0.1278,51.9116,0</coordinates></LineString></Placemark>
<Placemark><styleUrl>#burst_2</styleUrl><LineString><tessellate>1</tessellate><altitudeMode>relativeToGround</altitudeMode><coordinates>-0.1278,51.5074,0 -0.587,51.7932,0</coordinates></LineString></Placemark>
<Placemark><styleUrl>#burst_2</styleUrl><LineString><tessellate>1</tessellate><altitudeMode>relativeToGround</altitudeMode><coordinates>-0.1278,51.5074,0 -0.7773,51.5074,0</coordinates></LineString></Placemark>
<Placemark><styleUrl>#burst_2</styleUrl><LineString><tessellate>1</tessellate><altitudeMode>relativeToGround</altitudeMode><coordinates>-0.1278,51.5074,0 -0.587,51.2216,0</coordinates></LineString></Placemark>
<Placemark><styleUrl>#burst_2</styleUrl><LineString><tessellate>1</tessellate><altitudeMode>relativeToGround</altitudeMode><coordinates>-0.1278,51.5074,0 -0.1278,51.1032,0</coordinates></LineString></Placemark>
<Placemark><styleUrl>#burst_2</styleUrl><LineString><tessellate>1</tessellate><altitudeMode>relativeToGround</altitudeMode><coordinates>-0.1278,51.5074,0 0.3314,51.2216,0</coordinates></LineString></Placemark>
<Placemark><styleUrl>#dot_3</styleUrl><Point><altitudeMode>relativeToGround</altitudeMode><coordinates>-0.55,51.35,0</coordinates></Point></Placemark>
<Placemark><styleUrl>#dot_3</styleUrl><Point><altitudeMode>relativeToGround</altitudeMode><coordinates>-0.2,51.6,0</coordinates></Point></Placemark>
<Placemark><styleUrl>#dot_3</styleUrl><Point><altitudeMode>relativeToGround</altitudeMode><coordinates>0.15,51.45,0</coordinates></Point></Placemark>
<Placemark><styleUrl>#dot_3</styleUrl><Point><altitudeMode>relativeToGround</altitudeMode><coordinates>-0.35,51.75,0</coordinates></Point></Placemark>
<Placemark><styleUrl>#arc_4</styleUrl><LineString><tessellate>1</tessellate><altitudeMode>relativeToGround</altitudeMode><coordinates>-0.402,51.803,0 -0.4345,51.7904,0 -0.4655,51.7764,0 -0.4948,51.7611,0 -0.5223,51.7445,0 -0.5479,51.7268,0 -0.5715,51.708,0 -0.5929,51.6883,0 -0.612,51.6677,0 -0.6288,51.6462,0 -0.6432,51.6242,0 -0.655,51.6015,0 -0.6643,51.5784,0 -0.6709,51.5549,0 -0.6749,51.5312,0 -0.6762,51.5074,0 -0.6749,51.4836,0 -0.6709,51.4599,0 -0.6643,51.4364,0 -0.655,51.4133,0 -0.6432,51.3906,0 -0.6288,51.3686,0 -0.612,51.3471,0 -0.5929,51.3265,0 -0.5715,51.3068,0 -0.5479,51.288,0 -0.5223,51.2703,0 -0.4948,51.2537,0 -0.4655,51.2384,0 -0.4345,51.2244,0 -0.402,51.2118,0 -0.3682,51.2006,0 -0.3333,51.1909,0 -0.2973,51.1827,0 -0.2605,51.1762,0 -0.223,51.1712,0 -0.1851,51.1679,0 -0.1469,51.1662,0 -0.1087,51.1662,0 -0.0705,51.1679,0 -0.0326,51.1712,0</coordinates></LineString></Placemark>
</Document></kml>
