<?xml version="1.0" encoding="UTF-8"?>
<kml xmlns="http://www.opengis.net/kml/2.2" xmlns:gx="http://www.google.com/kml/ext/2.2" xmlns:kml="http://www.opengis.net/kml/2.2">
<Document><name>Moscow Deep Freeze</name>
<LookAt><longitude>37.6173</longitude><latitude>55.7558</latitude><range>200000</range><tilt>55</tilt><heading>0</heading><altitudeMode>relativeToGround</altitudeMode></LookAt>
<Style id="col_0"><LineStyle><color>ffff840a</color><width>1</width></LineStyle><PolyStyle><color>ffff840a</color></PolyStyle></Style>
<Style id="ring_1"><LineStyle><color>ffff7a00</color><width>4</width></LineStyle></Style>
<Style id="burst_2"><LineStyle><color>fffac85a</color><width>2</width></LineStyle></Style>
<Style id="spire_3"><LineStyle><color>fffac85a</color><width>2</width></LineStyle></Style>
<Style id="icon_4"><IconStyle><scale>1.4</scale><Icon><href>http://lg1:81/kml/icons/circle-blue.png</href></Icon></IconStyle></Style>
<Placemark><styleUrl>#col_0</styleUrl><Polygon><extrude>1</extrude><tessellate>1</tessellate><altitudeMode>relativeToGround</altitudeMode><outerBoundaryIs><LinearRing><coordinates>37.4423,55.5808,20000 37.7923,55.5808,20000 37.7923,55.9308,20000 37.4423,55.9308,20000 37.4423,55.5808,20000</coordinates></LinearRing></outerBoundaryIs></Polygon></Placemark>
<Placemark><styleUrl>#ring_1</styleUrl><LineString><tessellate>1</tessellate><altitudeMode>relativeToGround</altitudeMode><coordinates>38.176,55.7558,0 38.1712,55.7968,0 38.157,55.8372,0 38.1335,55.8761,0 38.1012,55.913,0 38.0606,55.9472,0 38.0124,55.9781,0 37.9574,56.0052,0 37.8967,56.0281,0 37.8311,56.0463,0 37.7619,56.0595,0 37.6902,56.0675,0 37.6173,56.0702,0 37.5444,56.0675,0 37.4727,56.0595,0 37.4035,56.0463,0 37.3379,56.0281,0 37.2772,56.0052,0 37.2222,55.9781,0 37.174,55.9472,0 37.1334,55.913,0 37.1011,55.8761,0 37.0776,55.8372,0 37.0634,55.7968,0 37.0586,55.7558,0 37.0634,55.7148,0 37.0776,55.6744,0 37.1011,55.6355,0 37.1334,55.5986,0 37.174,55.5644,0 37.2222,55.5335,0 37.2772,55.5064,0 37.3379,55.4835,0 37.4035,55.4653,0 37.4727,55.4521,0 37.5444,55.4441,0 37.6173,55.4414,0 37.6902,55.4441,0 37.7619,55.4521,0 37.8311,55.4653,0 37.8967,55.4835,0 37.9574,55.5064,0 38.0124,55.5335,0 38.0606,55.5644,0 38.1012,55.5986,0 38.1335,55.6355,0 38.157,55.6744,0 38.1712,55.7148,0 38.176,55.7558,0</coordinates></LineString></Placemark>
<Placemark><styleUrl>#ring_1</styleUrl><LineString><tessellate>1</tessellate><altitudeMode>relativeToGround</altitudeMode><coordinates>38.7348,55.7558,0 38.7252,55.8379,0 38.6967,55.9186,0 38.6497,55.9964,0 38.585,56.0702,0 38.5038,56.1386,0 38.4075,56.2004,0 38.2976,56.2547,0 38.176,56.3004,0 38.0449,56.3368,0 37.9065,56.3632,0 37.7632,56.3792,0 37.6173,56.3846,0 37.4714,56.3792,0 37.3281,56.3632,0 37.1897,56.3368,0 37.0586,56.3004,0 36.937,56.2547,0 36.8271,56.2004,0 36.7308,56.1386,0 36.6496,56.0702,0 36.5849,55.9964,0 36.5379,55.9186,0 36.5094,55.8379,0 36.4998,55.7558,0 36.5094,55.6737,0 36.5379,55.593,0 36.5849,55.5152,0 36.6496,55.4414,0 36.7308,55.373,0 36.8271,55.3112,0 36.937,55.2569,0 37.0586,55.2112,0 37.1897,55.1748,0 37.3281,55.1484,0 37.4714,55.1324,0 37.6173,55.127,0 37.7632,55.1324,0 37.9065,55.1484,0 38.0449,55.1748,0 38.176,55.2112,0 38.2976,55.2569,0 38.4075,55.3112,0 38.5038,55.373,0 38.585,55.4414,0 38.6497,55.5152,0 38.6967,55.593,0 38.7252,55.6737,0 38.7348,55.7558,0</coordinates></LineString></Placemark>
<Placemark><styleUrl>#ring_1</styleUrl><LineString><tessellate>1</tessellate><altitudeMode>relativeToGround</altitudeMode><coordinates>39.2935,55.7558,0 39.2791,55.8789,0 39.2364,55.9999,0 39.1659,56.1168,0 39.0689,56.2274,0 38.9471,56.33,0 38.8025,56.4228,0 38.6377,56.5041,0 38.4554,56.5727,0 38.2587,56.6272,0 38.0511,56.6669,0 37.8361,56.691,0 37.6173,56.699,0 37.3985,56.691,0 37.1835,56.6669,0 36.9759,56.6272,0 36.7792,56.5727,0 36.5969,56.5041,0 36.4321,56.4228,0 36.2875,56.33,0 36.1657,56.2274,0 36.0687,56.1168,0 35.9982,55.9999,0 35.9555,55.8789,0 35.9411,55.7558,0 35.9555,55.6327,0 35.9982,55.5117,0 36.0687,55.3948,0 36.1657,55.2842,0 36.2875,55.1816,0 36.4321,55.0888,0 36.5969,55.0075,0 36.7792,54.9389,0 36.9759,54.8844,0 37.1835,54.8447,0 37.3985,54.8206,0 37.6173,54.8126,0 37.8361,54.8206,0 38.0511,54.8447,0 38.2587,54.8844,0 38.4554,54.9389,0 38.6377,55.0075,0 38.8025,55.0888,0 38.9471,55.1816,0 39.0689,55.2842,0 39.1659,55.3948,0 39.2364,55.5117,0 39.2791,55.6327,0 39.2935,55.7558,0</coordinates></LineString></Placemark>
<Placemark><styleUrl>#burst_2</styleUrl><LineString><tessellate>1</tessellate><altitudeMode>relativeToGround</altitudeMode><coordinates>37.6173,55.7558,0 38.5751,55.7558,0</coordinates></LineString></Placemark>
<Placemark><styleUrl>#burst_2</styleUrl><LineString><tessellate>1</tessellate><altitudeMode>relativeToGround</altitudeMode><coordinates>37.6173,55.7558,0 38.2946,56.1369,0</coordinates></LineString></Placemark>
<Placemark><styleUrl>#burst_2</styleUrl><LineString><tessellate>1</tessellate><altitudeMode>relativeToGround</altitudeMode><coordinates>37.6173,55.7558,0 37.6173,56.2948,0</coordinates></LineString></Placemark>
<Placemark><styleUrl>#burst_2</styleUrl><LineString><tessellate>1</tessellate><altitudeMode>relativeToGround</altitudeMode><coordinates>37.6173,55.7558,0 36.94,56.1369,0</coordinates></LineString></Placemark>
<Placemark><styleUrl>#burst_2</styleUrl><LineString><tessellate>1</tessellate><altitudeMode>relativeToGround</altitudeMode><coordinates>37.6173,55.7558,0 36.6595,55.7558,0</coordinates></LineString></Placemark>
<Placemark><styleUrl>#burst_2</styleUrl><LineString><tessellate>1</tessellate><altitudeMode>relativeToGround</altitudeMode><coordinates>37.6173,55.7558,0 36.94,55.3747,0</coordinates></LineString></Placemark>
<Placemark><styleUrl>#burst_2</styleUrl><LineString><tessellate>1</tessellate><altitudeMode>relativeToGround</altitudeMode><coordinates>37.6173,55.7558,0 37.6173,55.2168,0</coordinates></LineString></Placemark>
<Placemark><styleUrl>#burst_2</styleUrl><LineString><tessellate>1</tessellate><altitudeMode>relativeToGround</altitudeMode><coordinates>37.6173,55.7558,0 38.2946,55.3747,0</coordinates></LineString></Placemark>
<Placemark><styleUrl>#spire_3</styleUrl><LineString><altitudeMode>relativeToGround</altitudeMode><coordinates>37.6173,55.7558,0 37.6173,55.7558,6000</coordinates></LineString></Placemark>
<Placemark><styleUrl>#spire_3</styleUrl><LineString><altitudeMode>relativeToGround</altitudeMode><coordinates>37.6173,55.7558,0 37.6173,55.7558,13000</coordinates></LineString></Placemark>
<Placemark><styleUrl>#spire_3</styleUrl><LineString><altitudeMode>relativeToGround</altitudeMode><coordinates>37.6173,55.7558,0 37.6173,55.7558,20000</coordinates></LineString></Placemark>
<Placemark><styleUrl>#icon_4</styleUrl><Point><altitudeMode>relativeToGround</altitudeMode><coordinates>37.6173,55.7558,21000</coordinates></Point></Placemark>
</Document></kml>
