<?xml version="1.0" encoding="UTF-8"?>
<kml xmlns="http://www.opengis.net/kml/2.2" xmlns:gx="http://www.google.com/kml/ext/2.2" xmlns:kml="http://www.opengis.net/kml/2.2">
<Document><name>Strait of Hormuz</name>
<LookAt><longitude>56.25</longitude><latitude>26.57</latitude><range>500000</range><tilt>50</tilt><heading>0</heading><altitudeMode>relativeToGround</altitudeMode></LookAt>
<Style id="ring_0"><LineStyle><color>ff303bff</color><width>4</width></LineStyle></Style>
<Style id="icon_1"><IconStyle><scale>1.2</scale><Icon><href>http://lg1:81/kml/icons/circle-orange.png</href></Icon></IconStyle></Style>
<Style id="icon_2"><IconStyle><scale>1.2</scale><Icon><href>http://lg1:81/kml/icons/circle-orange.png</href></Icon></IconStyle></Style>
<Style id="line_3"><LineStyle><color>ffff840a</color><width>4</width></LineStyle></Style>
<Style id="poly_4"><PolyStyle><color>33ff840a</color></PolyStyle></Style>
<Style id="dot_5"><IconStyle><scale>0.6</scale><Icon><href>http://lg1:81/kml/icons/circle-blue.png</href></Icon></IconStyle></Style>
<Style id="ring_6"><LineStyle><color>55ff840a</color><width>3</width></LineStyle></Style>
<Style id="ring_7"><LineStyle><color>3cff840a</color><width>3</width></LineStyle></Style>
<Style id="ring_8"><LineStyle><color>28ff840a</color><width>3</width></LineStyle></Style>
<Placemark><styleUrl>#ring_0</styleUrl><LineString><tessellate>1</tessellate><altitudeMode>relativeToGround</altitudeMode><coordinates>56.6518,26.57,0 56.6483,26.6169,0 56.6381,26.663,0 56.6212,26.7075,0 56.5979,26.7497,0 56.5687,26.7887,0 56.5341,26.8241,0 56.4946,26.8551,0 56.4509,26.8812,0 56.4037,26.902,0 56.354,26.9171,0 56.3024,26.9263,0 56.25,26.9293,0 56.1976,26.9263,0 56.146,26.9171,0 56.0963,26.902,0 56.0491,26.8812,0 56.0054,26.8551,0 55.9659,26.8241,0 55.9313,26.7887,0 55.9021,26.7497,0 55.8788,26.7075,0 55.8619,26.663,0 55.8517,26.6169,0 55.8482,26.57,0 55.8517,26.5231,0 55.8619,26.477,0 55.8788,26.4325,0 55.9021,26.3903,0 55.9313,26.3513,0 55.9659,26.3159,0 56.0054,26.2849,0 56.0491,26.2588,0 56.0963,26.238,0 56.146,26.2229,0 56.1976,26.2137,0 56.25,26.2107,0 56.3024,26.2137,0 56.354,26.2229,0 56.4037,26.238,0 56.4509,26.2588,0 56.4946,26.2849,0 56.5341,26.3159,0 56.5687,26.3513,0 56.5979,26.3903,0 56.6212,26.4325,0 56.6381,26.477,0 56.6483,26.5231,0 56.6518,26.57,0</coordinates></LineString></Placemark>
<Placemark><styleUrl>#ring_0</styleUrl><LineString><tessellate>1</tessellate><altitudeMode>relativeToGround</altitudeMode><coordinates>57.0535,26.57,0 57.0466,26.6638,0 57.0261,26.756,0 56.9923,26.845,0 56.9459,26.9293,0 56.8875,27.0075,0 56.8182,27.0782,0 56.7391,27.1401,0 56.6518,27.1924,0 56.5575,27.2339,0 56.458,27.2642,0 56.3549,27.2825,0 56.25,27.2886,0 56.1451,27.2825,0 56.042,27.2642,0 55.9425,27.2339,0 55.8482,27.1924,0 55.7609,27.1401,0 55.6818,27.0782,0 55.6125,27.0075,0 55.5541,26.9293,0 55.5077,26.845,0 55.4739,26.756,0 55.4534,26.6638,0 55.4465,26.57,0 55.4534,26.4762,0 55.4739,26.384,0 55.5077,26.295,0 55.5541,26.2107,0 55.6125,26.1325,0 55.6818,26.0618,0 55.7609,25.9999,0 55.8482,25.9476,0 55.9425,25.9061,0 56.042,25.8758,0 56.1451,25.8575,0 56.25,25.8514,0 56.3549,25.8575,0 56.458,25.8758,0 56.5575,25.9061,0 56.6518,25.9476,0 56.7391,25.9999,0 56.8182,26.0618,0 56.8875,26.1325,0 56.9459,26.2107,0 56.9923,26.295,0 57.0261,26.384,0 57.0466,26.4762,0 57.0535,26.57,0</coordinates></LineString></Placemark>
<Placemark><styleUrl>#ring_0</styleUrl><LineString><tessellate>1</tessellate><altitudeMode>relativeToGround</altitudeMode><coordinates>57.4553,26.57,0 57.445,26.7107,0 57.4142,26.849,0 57.3635,26.9825,0 57.2938,27.109,0 57.2062,27.2262,0 57.1022,27.3322,0 56.9837,27.4252,0 56.8526,27.5036,0 56.7112,27.5659,0 56.5619,27.6112,0 56.4073,27.6388,0 56.25,27.648,0 56.0927,27.6388,0 55.9381,27.6112,0 55.7888,27.5659,0 55.6474,27.5036,0 55.5163,27.4252,0 55.3978,27.3322,0 55.2938,27.2262,0 55.2062,27.109,0 55.1365,26.9825,0 55.0858,26.849,0 55.055,26.7107,0 55.0447,26.57,0 55.055,26.4293,0 55.0858,26.291,0 55.1365,26.1575,0 55.2062,26.031,0 55.2938,25.9138,0 55.3978,25.8078,0 55.5163,25.7148,0 55.6474,25.6364,0 55.7888,25.5741,0 55.9381,25.5288,0 56.0927,25.5012,0 56.25,25.492,0 56.4073,25.5012,0 56.5619,25.5288,0 56.7112,25.5741,0 56.8526,25.6364,0 56.9837,25.7148,0 57.1022,25.8078,0 57.2062,25.9138,0 57.2938,26.031,0 57.3635,26.1575,0 57.4142,26.291,0 57.445,26.4293,0 57.4553,26.57,0</coordinates></LineString></Placemark>
<Placemark><styleUrl>#icon_1</styleUrl><Point><altitudeMode>relativeToGround</altitudeMode><coordinates>56.3,26.5,0</coordinates></Point></Placemark>
<Placemark><styleUrl>#icon_2</styleUrl><Point><altitudeMode>relativeToGround</altitudeMode><coordinates>56.2,26.65,0</coordinates></Point></Placemark>
<Placemark><styleUrl>#line_3</styleUrl><LineString><tessellate>1</tessellate><altitudeMode>relativeToGround</altitudeMode><coordinates>56.5,26.8,0 56.25,26.57,0 56.0,26.3,0</coordinates></LineString></Placemark>
<Placemark><styleUrl>#poly_4</styleUrl><Polygon><tessellate>1</tessellate><altitudeMode>relativeToGround</altitudeMode><outerBoundaryIs><LinearRing><coordinates>55.6,26.9,0 57.0,26.9,0 57.2,26.2,0 55.8,26.2,0 55.6,26.9,0</coordinates></LinearRing></outerBoundaryIs></Polygon></Placemark>
<Placemark><styleUrl>#dot_5</styleUrl><Point><altitudeMode>relativeToGround</altitudeMode><coordinates>56.1,26.4,0</coordinates></Point></Placemark>
<Placemark><styleUrl>#dot_5</styleUrl><Point><altitudeMode>relativeToGround</altitudeMode><coordinates>56.4,26.6,0</coordinates></Point></Placemark>
<Placemark><styleUrl>#dot_5</styleUrl><Point><altitudeMode>relativeToGround</altitudeMode><coordinates>56.2,26.7,0</coordinates></Point></Placemark>
<Placemark><styleUrl>#dot_5</styleUrl><Point><altitudeMode>relativeToGround</altitudeMode><coordinates>56.5,26.4,0</coordinates></Point></Placemark>
<Placemark><styleUrl>#ring_6</styleUrl><LineString><tessellate>1</tessellate><altitudeMode>relativeToGround</altitudeMode><coordinates>56.9129,26.57,0 56.9072,26.6474,0 56.8903,26.7235,0 56.8624,26.7969,0 56.8241,26.8664,0 56.7759,26.9309,0 56.7187,26.9892,0 56.6535,27.0404,0 56.5814,27.0835,0 56.5037,27.1178,0 56.4216,27.1427,0 56.3365,27.1578,0 56.25,27.1629,0 56.1635,27.1578,0 56.0784,27.1427,0 55.9963,27.1178,0 55.9186,27.0835,0 55.8465,27.0404,0 55.7813,26.9892,0 55.7241,26.9309,0 55.6759,26.8664,0 55.6376,26.7969,0 55.6097,26.7235,0 55.5928,26.6474,0 55.5871,26.57,0 55.5928,26.4926,0 55.6097,26.4165,0 55.6376,26.3431,0 55.6759,26.2736,0 55.7241,26.2091,0 55.7813,26.1508,0 55.8465,26.0996,0 55.9186,26.0565,0 55.9963,26.0222,0 56.0784,25.9973,0 56.1635,25.9822,0 56.25,25.9771,0 56.3365,25.9822,0 56.4216,25.9973,0 56.5037,26.0222,0 56.5814,26.0565,0 56.6535,26.0996,0 56.7187,26.1508,0 56.7759,26.2091,0 56.8241,26.2736,0 56.8624,26.3431,0 56.8903,26.4165,0 56.9072,26.4926,0 56.9129,26.57,0</coordinates></LineString></Placemark>
<Placemark><styleUrl>#ring_7</styleUrl><LineString><tessellate>1</tessellate><altitudeMode>relativeToGround</altitudeMode><coordinates>57.2745,26.57,0 57.2657,26.6896,0 57.2396,26.8072,0 57.1965,26.9206,0 57.1372,27.0281,0 57.0628,27.1278,0 56.9744,27.2179,0 56.8737,27.2969,0 56.7622,27.3635,0 56.642,27.4165,0 56.5152,27.4551,0 56.3837,27.4784,0 56.25,27.4863,0 56.1163,27.4784,0 55.9848,27.4551,0 55.858,27.4165,0 55.7378,27.3635,0 55.6263,27.2969,0 55.5256,27.2179,0 55.4372,27.1278,0 55.3628,27.0281,0 55.3035,26.9206,0 55.2604,26.8072,0 55.2343,26.6896,0 55.2255,26.57,0 55.2343,26.4504,0 55.2604,26.3328,0 55.3035,26.2194,0 55.3628,26.1119,0 55.4372,26.0122,0 55.5256,25.9221,0 55.6263,25.8431,0 55.7378,25.7765,0 55.858,25.7235,0 55.9848,25.6849,0 56.1163,25.6616,0 56.25,25.6537,0 56.3837,25.6616,0 56.5152,25.6849,0 56.642,25.7235,0 56.7622,25.7765,0 56.8737,25.8431,0 56.9744,25.9221,0 57.0628,26.0122,0 57.1372,26.1119,0 57.1965,26.2194,0 57.2396,26.3328,0 57.2657,26.4504,0 57.2745,26.57,0</coordinates></LineString></Placemark>
<Placemark><styleUrl>#ring_8</styleUrl><LineString><tessellate>1</tessellate><altitudeMode>relativeToGround</altitudeMode><coordinates>57.6361,26.57,0 57.6242,26.7318,0 57.5888,26.8909,0 57.5305,27.0444,0 57.4504,27.1898,0 57.3496,27.3247,0 57.2301,27.4466,0 57.0938,27.5535,0 56.943,27.6436,0 56.7804,27.7153,0 56.6087,27.7674,0 56.4309,27.7991,0 56.25,27.8097,0 56.0691,27.7991,0 55.8913,27.7674,0 55.7196,27.7153,0 55.557,27.6436,0 55.4062,27.5535,0 55.2699,27.4466,0 55.1504,27.3247,0 55.0496,27.1898,0 54.9695,27.0444,0 54.9112,26.8909,0 54.8758,26.7318,0 54.8639,26.57,0 54.8758,26.4082,0 54.9112,26.2491,0 54.9695,26.0956,0 55.0496,25.9502,0 55.1504,25.8153,0 55.2699,25.6934,0 55.4062,25.5865,0 55.557,25.4964,0 55.7196,25.4247,0 55.8913,25.3726,0 56.0691,25.3409,0 56.25,25.3303,0 56.4309,25.3409,0 56.6087,25.3726,0 56.7804,25.4247,0 56.943,25.4964,0 57.0938,25.5865,0 57.2301,25.6934,0 57.3496,25.8153,0 57.4504,25.9502,0 57.5305,26.0956,0 57.5888,26.2491,0 57.6242,26.4082,0 57.6361,26.57,0</coordinates></LineString></Placemark>
</Document></kml>
