<?xml version="1.0" encoding="UTF-8"?>
<kml xmlns="http://www.opengis.net/kml/2.2" xmlns:gx="http://www.google.com/kml/ext/2.2" xmlns:kml="http://www.opengis.net/kml/2.2">
<Document><name>South China Sea</name>
<LookAt><longitude>114.0</longitude><latitude>12.0</latitude><range>3000000</range><tilt>45</tilt><heading>0</heading><altitudeMode>relativeToGround</altitudeMode></LookAt>
<Style id="poly_0"><PolyStyle><color>2dc7b030</color></PolyStyle></Style>
<Style id="ring_1"><LineStyle><color>ffff840a</color><width>3</width></LineStyle></Style>
<Style id="icon_2"><IconStyle><scale>1.2</scale><Icon><href>http://lg1:81/kml/icons/circle-red.png</href></Icon></IconStyle></Style>
<Style id="icon_3"><IconStyle><scale>1.2</scale><Icon><href>http://lg1:81/kml/icons/circle-red.png</href></Icon></IconStyle></Style>
<Style id="line_4"><LineStyle><color>ffc7b030</color><width>3</width></LineStyle></Style>
<Style id="dot_5"><IconStyle><scale>0.7</scale><Icon><href>http://lg1:81/kml/icons/circle-white.png</href></Icon></IconStyle></Style>
<Placemark><styleUrl>#poly_0</styleUrl><Polygon><tessellate>1</tessellate><altitudeMode>relativeToGround</altitudeMode><outerBoundaryIs><LinearRing><coordinates>112.0,15.0,0 118.0,15.0,0 116.0,8.0,0 110.0,8.0,0 112.0,15.0,0</coordinates></LinearRing></outerBoundaryIs></Polygon></Placemark>
<Placemark><styleUrl>#ring_1</styleUrl><LineString><tessellate>1</tessellate><altitudeMode>relativeToGround</altitudeMode><coordinates>116.2959,12.0,0 116.2763,12.2931,0 116.2177,12.5813,0 116.1212,12.8594,0 115.9884,13.1229,0 115.8215,13.3671,0 115.6235,13.588,0 115.3977,13.7817,0 115.148,13.9449,0 114.8786,14.0748,0 114.5942,14.1693,0 114.2997,14.2266,0 114.0,14.2458,0 113.7003,14.2266,0 113.4058,14.1693,0 113.1214,14.0748,0 112.852,13.9449,0 112.6023,13.7817,0 112.3765,13.588,0 112.1785,13.3671,0 112.0116,13.1229,0 111.8788,12.8594,0 111.7823,12.5813,0 111.7237,12.2931,0 111.7041,12.0,0 111.7237,11.7069,0 111.7823,11.4187,0 111.8788,11.1406,0 112.0116,10.8771,0 112.1785,10.6329,0 112.3765,10.412,0 112.6023,10.2183,0 112.852,10.0551,0 113.1214,9.9252,0 113.4058,9.8307,0 113.7003,9.7734,0 114.0,9.7542,0 114.2997,9.7734,0 114.5942,9.8307,0 114.8786,9.9252,0 115.148,10.0551,0 115.3977,10.2183,0 115.6235,10.412,0 115.8215,10.6329,0 115.9884,10.8771,0 116.1212,11.1406,0 116.2177,11.4187,0 116.2763,11.7069,0 116.2959,12.0,0</coordinates></LineString></Placemark>
<Placemark><styleUrl>#ring_1</styleUrl><LineString><tessellate>1</tessellate><altitudeMode>relativeToGround</altitudeMode><coordinates>118.5919,12.0,0 118.5526,12.5863,0 118.4354,13.1625,0 118.2424,13.7188,0 117.9767,14.2458,0 117.643,14.7343,0 117.247,15.176,0 116.7954,15.5634,0 116.2959,15.8898,0 115.7572,16.1497,0 115.1885,16.3385,0 114.5994,16.4531,0 114.0,16.4916,0 113.4006,16.4531,0 112.8115,16.3385,0 112.2428,16.1497,0 111.7041,15.8898,0 111.2046,15.5634,0 110.753,15.176,0 110.357,14.7343,0 110.0233,14.2458,0 109.7576,13.7188,0 109.5646,13.1625,0 109.4474,12.5863,0 109.4081,12.0,0 109.4474,11.4137,0 109.5646,10.8375,0 109.7576,10.2812,0 110.0233,9.7542,0 110.357,9.2657,0 110.753,8.824,0 111.2046,8.4366,0 111.7041,8.1102,0 112.2428,7.8503,0 112.8115,7.6615,0 113.4006,7.5469,0 114.0,7.5084,0 114.5994,7.5469,0 115.1885,7.6615,0 115.7572,7.8503,0 116.2959,8.1102,0 116.7954,8.4366,0 117.247,8.824,0 117.643,9.2657,0 117.9767,9.7542,0 118.2424,10.2812,0 118.4354,10.8375,0 118.5526,11.4137,0 118.5919,12.0,0</coordinates></LineString></Placemark>
<Placemark><styleUrl>#icon_2</styleUrl><Point><altitudeMode>relativeToGround</altitudeMode><coordinates>114.0,11.5,0</coordinates></Point></Placemark>
<Placemark><styleUrl>#icon_3</styleUrl><Point><altitudeMode>relativeToGround</altitudeMode><coordinates>113.0,12.5,0</coordinates></Point></Placemark>
<Placemark><styleUrl>#line_4</styleUrl><LineString><tessellate>1</tessellate><altitudeMode>relativeToGround</altitudeMode><coordinates>108.0,16.0,0 114.0,12.0,0 120.0,10.0,0</coordinates></LineString></Placemark>
<Placemark><styleUrl>#dot_5</styleUrl><Point><altitudeMode>relativeToGround</altitudeMode><coordinates>113.0,11.0,0</coordinates></Point></Placemark>
<Placemark><styleUrl>#dot_5</styleUrl><Point><altitudeMode>relativeToGround</altitudeMode><coordinates>115.0,12.0,0</coordinates></Point></Placemark>
<Placemark><styleUrl>#dot_5</styleUrl><Point><altitudeMode>relativeToGround</altitudeMode><coordinates>112.0,13.0,0</coordinates></Point></Placemark>
<Placemark><styleUrl>#dot_5</styleUrl><Point><altitudeMode>relativeToGround</altitudeMode><coordinates>116.0,10.5,0</coordinates></Point></Placemark>
</Document></kml>
