<?xml version="1.0" encoding="UTF-8"?>
<kml xmlns="http://www.opengis.net/kml/2.2" xmlns:gx="http://www.google.com/kml/ext/2.2" xmlns:kml="http://www.opengis.net/kml/2.2">
<Document><name>DRC Faction Markers</name>
<LookAt><longitude>28.0</longitude><latitude>-1.5</latitude><range>1500000</range><tilt>45</tilt><heading>0</heading><altitudeMode>relativeToGround</altitudeMode></LookAt>
<Style id="icon_0"><IconStyle><scale>1.3</scale><Icon><href>http://lg1:81/kml/icons/circle-red.png</href></Icon></IconStyle></Style>
<Style id="icon_1"><IconStyle><scale>1.3</scale><Icon><href>http://lg1:81/kml/icons/circle-orange.png</href></Icon></IconStyle></Style>
<Style id="icon_2"><IconStyle><scale>1.3</scale><Icon><href>http://lg1:81/kml/icons/circle-yellow.png</href></Icon></IconStyle></Style>
<Style id="icon_3"><IconStyle><scale>1.3</scale><Icon><href>http://lg1:81/kml/icons/circle-green.png</href></Icon></IconStyle></Style>
<Style id="poly_4"><PolyStyle><color>2d0095ff</color></PolyStyle></Style>
<Style id="ring_5"><LineStyle><color>ff0095ff</color><width>2</width></LineStyle></Style>
<Style id="line_6"><LineStyle><color>ff303bff</color><width>3</width></LineStyle></Style>
<Placemark><styleUrl>#icon_0</styleUrl><Point><altitudeMode>relativeToGround</altitudeMode><coordinates>29.0,-0.5,0</coordinates></Point></Placemark>
<Placemark><styleUrl>#icon_1</styleUrl><Point><altitudeMode>relativeToGround</altitudeMode><coordinates>30.0,1.5,0</coordinates></Point></Placemark>
<Placemark><styleUrl>#icon_2</styleUrl><Point><altitudeMode>relativeToGround</altitudeMode><coordinates>28.5,-3.0,0</coordinates></Point></Placemark>
<Placemark><styleUrl>#icon_3</styleUrl><Point><altitudeMode>relativeToGround</altitudeMode><coordinates>27.0,-1.0,0</coordinates></Point></Placemark>
<Placemark><styleUrl>#poly_4</styleUrl><Polygon><tessellate>1</tessellate><altitudeMode>relativeToGround</altitudeMode><outerBoundaryIs><LinearRing><coordinates>26.0,2.0,0 30.0,2.0,0 29.0,-4.0,0 26.0,-4.0,0 26.0,2.0,0</coordinates></LinearRing></outerBoundaryIs></Polygon></Placemark>
<Placemark><styleUrl>#ring_5</styleUrl><LineString><tessellate>1</tessellate><altitudeMode>relativeToGround</altitudeMode><coordinates>29.7969,-1.0,0 29.7815,-0.7655,0 29.7357,-0.535,0 29.6601,-0.3125,0 29.5562,-0.1017,0 29.4256,0.0937,0 29.2706,0.2704,0 29.0939,0.4254,0 28.8984,0.5559,0 28.6876,0.6599,0 28.4651,0.7354,0 28.2345,0.7813,0 28.0,0.7966,0 27.7655,0.7813,0 27.5349,0.7354,0 27.3124,0.6599,0 27.1016,0.5559,0 26.9061,0.4254,0 26.7294,0.2704,0 26.5744,0.0937,0 26.4438,-0.1017,0 26.3399,-0.3125,0 26.2643,-0.535,0 26.2185,-0.7655,0 26.2031,-1.0,0 26.2185,-1.2345,0 26.2643,-1.465,0 26.3399,-1.6875,0 26.4438,-1.8983,0 26.5744,-2.0937,0 26.7294,-2.2704,0 26.9061,-2.4254,0 27.1016,-2.5559,0 27.3124,-2.6599,0 27.5349,-2.7354,0 27.7655,-2.7813,0 28.0,-2.7966,0 28.2345,-2.7813,0 28.4651,-2.7354,0 28.6876,-2.6599,0 28.8984,-2.5559,0 29.0939,-2.4254,0 29.2706,-2.2704,0 29.4256,-2.0937,0 29.5562,-1.8983,0 29.6601,-1.6875,0 29.7357,-1.465,0 29.7815,-1.2345,0 29.7969,-1.0,0</coordinates></LineString></Placemark>
<Placemark><styleUrl>#ring_5</styleUrl><LineString><tessellate>1</tessellate><altitudeMode>relativeToGround</altitudeMode><coordinates>31.5938,-1.0,0 31.563,-0.531,0 31.4713,-0.07,0 31.3202,0.3751,0 31.1123,0.7966,0 30.8511,1.1874,0 30.5412,1.5408,0 30.1878,1.8507,0 29.7969,2.1118,0 29.3753,2.3197,0 28.9301,2.4708,0 28.4691,2.5625,0 28.0,2.5932,0 27.5309,2.5625,0 27.0699,2.4708,0 26.6247,2.3197,0 26.2031,2.1118,0 25.8122,1.8507,0 25.4588,1.5408,0 25.1489,1.1874,0 24.8877,0.7966,0 24.6798,0.3751,0 24.5287,-0.07,0 24.437,-0.531,0 24.4062,-1.0,0 24.437,-1.469,0 24.5287,-1.93,0 24.6798,-2.3751,0 24.8877,-2.7966,0 25.1489,-3.1874,0 25.4588,-3.5408,0 25.8122,-3.8507,0 26.2031,-4.1118,0 26.6247,-4.3197,0 27.0699,-4.4708,0 27.5309,-4.5625,0 28.0,-4.5932,0 28.4691,-4.5625,0 28.9301,-4.4708,0 29.3753,-4.3197,0 29.7969,-4.1118,0 30.1878,-3.8507,0 30.5412,-3.5408,0 30.8511,-3.1874,0 31.1123,-2.7966,0 31.3202,-2.3751,0 31.4713,-1.93,0 31.563,-1.469,0 31.5938,-1.0,0</coordinates></LineString></Placemark>
<Placemark><styleUrl>#line_6</styleUrl><LineString><tessellate>1</tessellate><altitudeMode>relativeToGround</altitudeMode><coordinates>27.0,-1.0,0 28.0,-1.5,0 29.0,-0.5,0</coordinates></LineString></Placemark>
</Document></kml>
