<?xml version="1.0" encoding="UTF-8"?>
<kml xmlns="http://www.opengis.net/kml/2.2">
<Document><name>Ukraine Front Line</name>
<LookAt><longitude>37.0</longitude><latitude>48.5</latitude><range>1500000</range><tilt>45</tilt><heading>0</heading><altitudeMode>relativeToGround</altitudeMode></LookAt>
<Style id="line_0"><LineStyle><color>ff303bff</color><width>5</width></LineStyle></Style>
<Style id="ring_1"><LineStyle><color>ff0095ff</color><width>3</width></LineStyle></Style>
<Style id="burst_2"><LineStyle><color>ff303bff</color><width>2</width></LineStyle></Style>
<Style id="icon_3"><IconStyle><scale>1.2</scale><Icon><href>http://maps.google.com/mapfiles/kml/paddle/blue-circle.png</href></Icon></IconStyle></Style>
<Style id="poly_4"><PolyStyle><color>2d303bff</color></PolyStyle></Style>
<Style id="spire_5"><LineStyle><color>ff0095ff</color><width>3</width></LineStyle></Style>
<Style id="spike_6"><LineStyle><color>ff303bff</color><width>2</width></LineStyle></Style>
<Style id="ring_7"><LineStyle><color>55303bff</color><width>3</width></LineStyle></Style>
<Style id="ring_8"><LineStyle><color>3c303bff</color><width>3</width></LineStyle></Style>
<Style id="ring_9"><LineStyle><color>28303bff</color><width>3</width></LineStyle></Style>
<Placemark><styleUrl>#line_0</styleUrl><LineString><tessellate>1</tessellate><altitudeMode>relativeToGround</altitudeMode><coordinates>32.0,51.5,0 35.0,49.5,0 38.0,48.0,0 40.0,47.0,0</coordinates></LineString></Placemark>
<Placemark><styleUrl>#ring_1</styleUrl><LineString><tessellate>1</tessellate><altitudeMode>relativeToGround</altitudeMode><coordinates>38.815,48.6,0 38.8081,48.6704,0 38.7873,48.7395,0 38.753,48.8063,0 38.7058,48.8695,0 38.6466,48.9281,0 38.5763,48.9811,0 38.4962,49.0276,0 38.4075,49.0668,0 38.3119,49.098,0 38.2109,49.1206,0 38.1064,49.1344,0 38.0,49.139,0 37.8936,49.1344,0 37.7891,49.1206,0 37.6881,49.098,0 37.5925,49.0668,0 37.5038,49.0276,0 37.4237,48.9811,0 37.3534,48.9281,0 37.2942,48.8695,0 37.247,48.8063,0 37.2127,48.7395,0 37.1919,48.6704,0 37.185,48.6,0 37.1919,48.5296,0 37.2127,48.4605,0 37.247,48.3937,0 37.2942,48.3305,0 37.3534,48.2719,0 37.4237,48.2189,0 37.5038,48.1724,0 37.5925,48.1332,0 37.6881,48.102,0 37.7891,48.0794,0 37.8936,48.0656,0 38.0,48.061,0 38.1064,48.0656,0 38.2109,48.0794,0 38.3119,48.102,0 38.4075,48.1332,0 38.4962,48.1724,0 38.5763,48.2189,0 38.6466,48.2719,0 38.7058,48.3305,0 38.753,48.3937,0 38.7873,48.4605,0 38.8081,48.5296,0 38.815,48.6,0</coordinates></LineString></Placemark>
<Placemark><styleUrl>#ring_1</styleUrl><LineString><tessellate>1</tessellate><altitudeMode>relativeToGround</altitudeMode><coordinates>39.6301,48.6,0 39.6161,48.7407,0 39.5745,48.879,0 39.506,49.0125,0 39.4117,49.139,0 39.2932,49.2562,0 39.1526,49.3622,0 38.9923,49.4552,0 38.815,49.5336,0 38.6238,49.5959,0 38.4219,49.6412,0 38.2128,49.6688,0 38.0,49.678,0 37.7872,49.6688,0 37.5781,49.6412,0 37.3762,49.5959,0 37.185,49.5336,0 37.0077,49.4552,0 36.8474,49.3622,0 36.7068,49.2562,0 36.5883,49.139,0 36.494,49.0125,0 36.4255,48.879,0 36.3839,48.7407,0 36.3699,48.6,0 36.3839,48.4593,0 36.4255,48.321,0 36.494,48.1875,0 36.5883,48.061,0 36.7068,47.9438,0 36.8474,47.8378,0 37.0077,47.7448,0 37.185,47.6664,0 37.3762,47.6041,0 37.5781,47.5588,0 37.7872,47.5312,0 38.0,47.522,0 38.2128,47.5312,0 38.4219,47.5588,0 38.6238,47.6041,0 38.815,47.6664,0 38.9923,47.7448,0 39.1526,47.8378,0 39.2932,47.9438,0 39.4117,48.061,0 39.506,48.1875,0 39.5745,48.321,0 39.6161,48.4593,0 39.6301,48.6,0</coordinates></LineString></Placemark>
<Placemark><styleUrl>#burst_2</styleUrl><LineString><tessellate>1</tessellate><altitudeMode>relativeToGround</altitudeMode><coordinates>38.0,48.6,0 39.2225,48.6,0</coordinates></LineString></Placemark>
<Placemark><styleUrl>#burst_2</styleUrl><LineString><tessellate>1</tessellate><altitudeMode>relativeToGround</altitudeMode><coordinates>38.0,48.6,0 38.6113,49.3002,0</coordinates></LineString></Placemark>
<Placemark><styleUrl>#burst_2</styleUrl><LineString><tessellate>1</tessellate><altitudeMode>relativeToGround</altitudeMode><coordinates>38.0,48.6,0 37.3887,49.3002,0</coordinates></LineString></Placemark>
<Placemark><styleUrl>#burst_2</styleUrl><LineString><tessellate>1</tessellate><altitudeMode>relativeToGround</altitudeMode><coordinates>38.0,48.6,0 36.7775,48.6,0</coordinates></LineString></Placemark>
<Placemark><styleUrl>#burst_2</styleUrl><LineString><tessellate>1</tessellate><altitudeMode>relativeToGround</altitudeMode><coordinates>38.0,48.6,0 37.3887,47.8998,0</coordinates></LineString></Placemark>
<Placemark><styleUrl>#burst_2</styleUrl><LineString><tessellate>1</tessellate><altitudeMode>relativeToGround</altitudeMode><coordinates>38.0,48.6,0 38.6113,47.8998,0</coordinates></LineString></Placemark>
<Placemark><styleUrl>#icon_3</styleUrl><Point><altitudeMode>relativeToGround</altitudeMode><coordinates>30.52,50.45,0</coordinates></Point></Placemark>
<Placemark><styleUrl>#poly_4</styleUrl><Polygon><tessellate>1</tessellate><altitudeMode>relativeToGround</altitudeMode><outerBoundaryIs><LinearRing><coordinates>36.0,49.0,0 40.0,49.0,0 39.0,46.5,0 36.0,46.5,0 36.0,49.0,0</coordinates></LinearRing></outerBoundaryIs></Polygon></Placemark>
<Placemark><styleUrl>#spire_5</styleUrl><LineString><altitudeMode>relativeToGround</altitudeMode><coordinates>38.0,48.6,0 38.0,48.6,12000</coordinates></LineString></Placemark>
<Placemark><styleUrl>#spire_5</styleUrl><LineString><altitudeMode>relativeToGround</altitudeMode><coordinates>38.0,48.6,0 38.0,48.6,22000</coordinates></LineString></Placemark>
<Placemark><styleUrl>#spike_6</styleUrl><LineString><tessellate>1</tessellate><altitudeMode>relativeToGround</altitudeMode><coordinates>38.165,48.6,0 39.2225,48.6,0</coordinates></LineString></Placemark>
<Placemark><styleUrl>#spike_6</styleUrl><LineString><tessellate>1</tessellate><altitudeMode>relativeToGround</altitudeMode><coordinates>38.0847,48.6232,0 39.1295,48.9094,0</coordinates></LineString></Placemark>
<Placemark><styleUrl>#spike_6</styleUrl><LineString><tessellate>1</tessellate><altitudeMode>relativeToGround</altitudeMode><coordinates>38.1167,48.6772,0 38.8645,49.1717,0</coordinates></LineString></Placemark>
<Placemark><styleUrl>#spike_6</styleUrl><LineString><tessellate>1</tessellate><altitudeMode>relativeToGround</altitudeMode><coordinates>38.0351,48.656,0 38.4678,49.3469,0</coordinates></LineString></Placemark>
<Placemark><styleUrl>#spike_6</styleUrl><LineString><tessellate>1</tessellate><altitudeMode>relativeToGround</altitudeMode><coordinates>38.0,48.7091,0 38.0,49.4085,0</coordinates></LineString></Placemark>
<Placemark><styleUrl>#spike_6</styleUrl><LineString><tessellate>1</tessellate><altitudeMode>relativeToGround</altitudeMode><coordinates>37.9649,48.656,0 37.5322,49.3469,0</coordinates></LineString></Placemark>
<Placemark><styleUrl>#spike_6</styleUrl><LineString><tessellate>1</tessellate><altitudeMode>relativeToGround</altitudeMode><coordinates>37.8833,48.6772,0 37.1355,49.1717,0</coordinates></LineString></Placemark>
<Placemark><styleUrl>#spike_6</styleUrl><LineString><tessellate>1</tessellate><altitudeMode>relativeToGround</altitudeMode><coordinates>37.9153,48.6232,0 36.8705,48.9094,0</coordinates></LineString></Placemark>
<Placemark><styleUrl>#spike_6</styleUrl><LineString><tessellate>1</tessellate><altitudeMode>relativeToGround</altitudeMode><coordinates>37.835,48.6,0 36.7775,48.6,0</coordinates></LineString></Placemark>
<Placemark><styleUrl>#spike_6</styleUrl><LineString><tessellate>1</tessellate><altitudeMode>relativeToGround</altitudeMode><coordinates>37.9153,48.5768,0 36.8705,48.2906,0</coordinates></LineString></Placemark>
<Placemark><styleUrl>#spike_6</styleUrl><LineString><tessellate>1</tessellate><altitudeMode>relativeToGround</altitudeMode><coordinates>37.8833,48.5228,0 37.1355,48.0283,0</coordinates></LineString></Placemark>
<Placemark><styleUrl>#spike_6</styleUrl><LineString><tessellate>1</tessellate><altitudeMode>relativeToGround</altitudeMode><coordinates>37.9649,48.544,0 37.5322,47.8531,0</coordinates></LineString></Placemark>
<Placemark><styleUrl>#spike_6</styleUrl><LineString><tessellate>1</tessellate><altitudeMode>relativeToGround</altitudeMode><coordinates>38.0,48.4909,0 38.0,47.7915,0</coordinates></LineString></Placemark>
<Placemark><styleUrl>#spike_6</styleUrl><LineString><tessellate>1</tessellate><altitudeMode>relativeToGround</altitudeMode><coordinates>38.0351,48.544,0 38.4678,47.8531,0</coordinates></LineString></Placemark>
<Placemark><styleUrl>#spike_6</styleUrl><LineString><tessellate>1</tessellate><altitudeMode>relativeToGround</altitudeMode><coordinates>38.1167,48.5228,0 38.8645,48.0283,0</coordinates></LineString></Placemark>
<Placemark><styleUrl>#spike_6</styleUrl><LineString><tessellate>1</tessellate><altitudeMode>relativeToGround</altitudeMode><coordinates>38.0847,48.5768,0 39.1295,48.2906,0</coordinates></LineString></Placemark>
<Placemark><styleUrl>#ring_7</styleUrl><LineString><tessellate>1</tessellate><altitudeMode>relativeToGround</altitudeMode><coordinates>37.8948,48.5,0 37.8871,48.5774,0 37.8643,48.6535,0 37.8266,48.7269,0 37.7749,48.7964,0 37.7099,48.8609,0 37.6327,48.9192,0 37.5447,48.9704,0 37.4474,49.0135,0 37.3424,49.0478,0 37.2316,49.0727,0 37.1168,49.0878,0 37.0,49.0929,0 36.8832,49.0878,0 36.7684,49.0727,0 36.6576,49.0478,0 36.5526,49.0135,0 36.4553,48.9704,0 36.3673,48.9192,0 36.2901,48.8609,0 36.2251,48.7964,0 36.1734,48.7269,0 36.1357,48.6535,0 36.1129,48.5774,0 36.1052,48.5,0 36.1129,48.4226,0 36.1357,48.3465,0 36.1734,48.2731,0 36.2251,48.2036,0 36.2901,48.1391,0 36.3673,48.0808,0 36.4553,48.0296,0 36.5526,47.9865,0 36.6576,47.9522,0 36.7684,47.9273,0 36.8832,47.9122,0 37.0,47.9071,0 37.1168,47.9122,0 37.2316,47.9273,0 37.3424,47.9522,0 37.4474,47.9865,0 37.5447,48.0296,0 37.6327,48.0808,0 37.7099,48.1391,0 37.7749,48.2036,0 37.8266,48.2731,0 37.8643,48.3465,0 37.8871,48.4226,0 37.8948,48.5,0</coordinates></LineString></Placemark>
<Placemark><styleUrl>#ring_8</styleUrl><LineString><tessellate>1</tessellate><altitudeMode>relativeToGround</altitudeMode><coordinates>38.3828,48.5,0 38.371,48.6196,0 38.3357,48.7372,0 38.2775,48.8506,0 38.1975,48.9581,0 38.0971,49.0578,0 37.9778,49.1479,0 37.8418,49.2269,0 37.6914,49.2935,0 37.5292,49.3465,0 37.3579,49.3851,0 37.1805,49.4084,0 37.0,49.4163,0 36.8195,49.4084,0 36.6421,49.3851,0 36.4708,49.3465,0 36.3086,49.2935,0 36.1582,49.2269,0 36.0222,49.1479,0 35.9029,49.0578,0 35.8025,48.9581,0 35.7225,48.8506,0 35.6643,48.7372,0 35.629,48.6196,0 35.6172,48.5,0 35.629,48.3804,0 35.6643,48.2628,0 35.7225,48.1494,0 35.8025,48.0419,0 35.9029,47.9422,0 36.0222,47.8521,0 36.1582,47.7731,0 36.3086,47.7065,0 36.4708,47.6535,0 36.6421,47.6149,0 36.8195,47.5916,0 37.0,47.5837,0 37.1805,47.5916,0 37.3579,47.6149,0 37.5292,47.6535,0 37.6914,47.7065,0 37.8418,47.7731,0 37.9778,47.8521,0 38.0971,47.9422,0 38.1975,48.0419,0 38.2775,48.1494,0 38.3357,48.2628,0 38.371,48.3804,0 38.3828,48.5,0</coordinates></LineString></Placemark>
<Placemark><styleUrl>#ring_9</styleUrl><LineString><tessellate>1</tessellate><altitudeMode>relativeToGround</altitudeMode><coordinates>38.8709,48.5,0 38.8549,48.6618,0 38.8071,48.8209,0 38.7284,48.9744,0 38.6202,49.1198,0 38.4843,49.2547,0 38.3229,49.3766,0 38.1389,49.4835,0 37.9354,49.5736,0 37.7159,49.6453,0 37.4842,49.6974,0 37.2442,49.7291,0 37.0,49.7397,0 36.7558,49.7291,0 36.5158,49.6974,0 36.2841,49.6453,0 36.0646,49.5736,0 35.8611,49.4835,0 35.6771,49.3766,0 35.5157,49.2547,0 35.3798,49.1198,0 35.2716,48.9744,0 35.1929,48.8209,0 35.1451,48.6618,0 35.1291,48.5,0 35.1451,48.3382,0 35.1929,48.1791,0 35.2716,48.0256,0 35.3798,47.8802,0 35.5157,47.7453,0 35.6771,47.6234,0 35.8611,47.5165,0 36.0646,47.4264,0 36.2841,47.3547,0 36.5158,47.3026,0 36.7558,47.2709,0 37.0,47.2603,0 37.2442,47.2709,0 37.4842,47.3026,0 37.7159,47.3547,0 37.9354,47.4264,0 38.1389,47.5165,0 38.3229,47.6234,0 38.4843,47.7453,0 38.6202,47.8802,0 38.7284,48.0256,0 38.8071,48.1791,0 38.8549,48.3382,0 38.8709,48.5,0</coordinates></LineString></Placemark>
</Document></kml>
