<?xml version="1.0" encoding="UTF-8"?>
<kml xmlns="http://www.opengis.net/kml/2.2" xmlns:gx="http://www.google.com/kml/ext/2.2" xmlns:kml="http://www.opengis.net/kml/2.2">
<Document><name>Arctic Tern Epic Route</name>
<LookAt><longitude>-30.0</longitude><latitude>20.0</latitude><range>14000000</range><tilt>30</tilt><heading>0</heading><altitudeMode>relativeToGround</altitudeMode></LookAt>
<Style id="line_0"><LineStyle><color>ffc7b030</color><width>3</width></LineStyle></Style>
<Style id="icon_1"><IconStyle><scale>1.2</scale><Icon><href>http://lg1:81/kml/icons/circle-blue.png</href></Icon></IconStyle></Style>
<Style id="icon_2"><IconStyle><scale>1.1</scale><Icon><href>http://lg1:81/kml/icons/circle-green.png</href></Icon></IconStyle></Style>
<Style id="icon_3"><IconStyle><scale>1.2</scale><Icon><href>http://lg1:81/kml/icons/circle-white.png</href></Icon></IconStyle></Style>
<Style id="ring_4"><LineStyle><color>ffc7b030</color><width>2</width></LineStyle></Style>
<Style id="dot_5"><IconStyle><scale>0.7</scale><Icon><href>http://lg1:81/kml/icons/circle-blue.png</href></Icon></IconStyle></Style>
<Placemark><styleUrl>#line_0</styleUrl><LineString><tessellate>1</tessellate><altitudeMode>relativeToGround</altitudeMode><coordinates>-20.0,70.0,0 -30.0,40.0,0 -20.0,0.0,0 0.0,-40.0,0 20.0,-70.0,0</coordinates></LineString></Placemark>
<Placemark><styleUrl>#icon_1</styleUrl><Point><altitudeMode>relativeToGround</altitudeMode><coordinates>-20.0,70.0,0</coordinates></Point></Placemark>
<Placemark><styleUrl>#icon_2</styleUrl><Point><altitudeMode>relativeToGround</altitudeMode><coordinates>-20.0,0.0,0</coordinates></Point></Placemark>
<Placemark><styleUrl>#icon_3</styleUrl><Point><altitudeMode>relativeToGround</altitudeMode><coordinates>20.0,-70.0,0</coordinates></Point></Placemark>
<Placemark><styleUrl>#ring_4</styleUrl><LineString><tessellate>1</tessellate><altitudeMode>relativeToGround</altitudeMode><coordinates>-14.6101,0.0,0 -14.6562,0.7035,0 -14.7938,1.395,0 -15.0204,2.0626,0 -15.3322,2.6949,0 -15.7239,3.2811,0 -16.1888,3.8112,0 -16.7189,4.2761,0 -17.3051,4.6678,0 -17.9374,4.9796,0 -18.605,5.2062,0 -19.2965,5.3438,0 -20.0,5.3899,0 -20.7035,5.3438,0 -21.395,5.2062,0 -22.0626,4.9796,0 -22.6949,4.6678,0 -23.2811,4.2761,0 -23.8112,3.8112,0 -24.2761,3.2811,0 -24.6678,2.6949,0 -24.9796,2.0626,0 -25.2062,1.395,0 -25.3438,0.7035,0 -25.3899,0.0,0 -25.3438,-0.7035,0 -25.2062,-1.395,0 -24.9796,-2.0626,0 -24.6678,-2.6949,0 -24.2761,-3.2811,0 -23.8112,-3.8112,0 -23.2811,-4.2761,0 -22.6949,-4.6678,0 -22.0626,-4.9796,0 -21.395,-5.2062,0 -20.7035,-5.3438,0 -20.0,-5.3899,0 -19.2965,-5.3438,0 -18.605,-5.2062,0 -17.9374,-4.9796,0 -17.3051,-4.6678,0 -16.7189,-4.2761,0 -16.1888,-3.8112,0 -15.7239,-3.2811,0 -15.3322,-2.6949,0 -15.0204,-2.0626,0 -14.7938,-1.395,0 -14.6562,-0.7035,0 -14.6101,-0.0,0</coordinates></LineString></Placemark>
<Placemark><styleUrl>#ring_4</styleUrl><LineString><tessellate>1</tessellate><altitudeMode>relativeToGround</altitudeMode><coordinates>-9.2203,0.0,0 -9.3125,1.407,0 -9.5876,2.79,0 -10.0408,4.1252,0 -10.6645,5.3899,0 -11.4479,6.5623,0 -12.3776,7.6224,0 -13.4377,8.5521,0 -14.6101,9.3355,0 -15.8748,9.9592,0 -17.21,10.4124,0 -18.593,10.6875,0 -20.0,10.7797,0 -21.407,10.6875,0 -22.79,10.4124,0 -24.1252,9.9592,0 -25.3899,9.3355,0 -26.5623,8.5521,0 -27.6224,7.6224,0 -28.5521,6.5623,0 -29.3355,5.3899,0 -29.9592,4.1252,0 -30.4124,2.79,0 -30.6875,1.407,0 -30.7797,0.0,0 -30.6875,-1.407,0 -30.4124,-2.79,0 -29.9592,-4.1252,0 -29.3355,-5.3899,0 -28.5521,-6.5623,0 -27.6224,-7.6224,0 -26.5623,-8.5521,0 -25.3899,-9.3355,0 -24.1252,-9.9592,0 -22.79,-10.4124,0 -21.407,-10.6875,0 -20.0,-10.7797,0 -18.593,-10.6875,0 -17.21,-10.4124,0 -15.8748,-9.9592,0 -14.6101,-9.3355,0 -13.4377,-8.5521,0 -12.3776,-7.6224,0 -11.4479,-6.5623,0 -10.6645,-5.3899,0 -10.0408,-4.1252,0 -9.5876,-2.79,0 -9.3125,-1.407,0 -9.2203,-0.0,0</coordinates></LineString></Placemark>
<Placemark><styleUrl>#dot_5</styleUrl><Point><altitudeMode>relativeToGround</altitudeMode><coordinates>-25.0,55.0,0</coordinates></Point></Placemark>
<Placemark><styleUrl>#dot_5</styleUrl><Point><altitudeMode>relativeToGround</altitudeMode><coordinates>-28.0,25.0,0</coordinates></Point></Placemark>
<Placemark><styleUrl>#dot_5</styleUrl><Point><altitudeMode>relativeToGround</altitudeMode><coordinates>-15.0,-20.0,0</coordinates></Point></Placemark>
<Placemark><styleUrl>#dot_5</styleUrl><Point><altitudeMode>relativeToGround</altitudeMode><coordinates>10.0,-55.0,0</coordinates></Point></Placemark>
</Document></kml>
