<?xml version="1.0" encoding="UTF-8"?>
<kml xmlns="http://www.opengis.net/kml/2.2" xmlns:gx="http://www.google.com/kml/ext/2.2" xmlns:kml="http://www.opengis.net/kml/2.2">
<Document><name>Serengeti Wildebeest</name>
<LookAt><longitude>34.8</longitude><latitude>-2.3</latitude><range>600000</range><tilt>50</tilt><heading>0</heading><altitudeMode>relativeToGround</altitudeMode></LookAt>
<Style id="poly_0"><PolyStyle><color>3359c734</color></PolyStyle></Style>
<Style id="line_1"><LineStyle><color>ff59c734</color><width>4</width></LineStyle></Style>
<Style id="burst_2"><LineStyle><color>ff0095ff</color><width>2</width></LineStyle></Style>
<Style id="dot_3"><IconStyle><scale>0.8</scale><Icon><href>http://lg1:81/kml/icons/circle-green.png</href></Icon></IconStyle></Style>
<Style id="ring_4"><LineStyle><color>ff59c734</color><width>2</width></LineStyle></Style>
<Placemark><styleUrl>#poly_0</styleUrl><Polygon><tessellate>1</tessellate><altitudeMode>relativeToGround</altitudeMode><outerBoundaryIs><LinearRing><coordinates>34.0,-1.5,0 36.0,-1.5,0 35.5,-3.5,0 34.0,-3.5,0 34.0,-1.5,0</coordinates></LinearRing></outerBoundaryIs></Polygon></Placemark>
<Placemark><styleUrl>#line_1</styleUrl><LineString><tessellate>1</tessellate><altitudeMode>relativeToGround</altitudeMode><coordinates>34.5,-1.8,0 35.0,-2.3,0 35.3,-3.0,0</coordinates></LineString></Placemark>
<Placemark><styleUrl>#burst_2</styleUrl><LineString><tessellate>1</tessellate><altitudeMode>relativeToGround</altitudeMode><coordinates>34.8,-2.3,0 35.3394,-2.3,0</coordinates></LineString></Placemark>
<Placemark><styleUrl>#burst_2</styleUrl><LineString><tessellate>1</tessellate><altitudeMode>relativeToGround</altitudeMode><coordinates>34.8,-2.3,0 35.0697,-1.8332,0</coordinates></LineString></Placemark>
<Placemark><styleUrl>#burst_2</styleUrl><LineString><tessellate>1</tessellate><altitudeMode>relativeToGround</altitudeMode><coordinates>34.8,-2.3,0 34.5303,-1.8332,0</coordinates></LineString></Placemark>
<Placemark><styleUrl>#burst_2</styleUrl><LineString><tessellate>1</tessellate><altitudeMode>relativeToGround</altitudeMode><coordinates>34.8,-2.3,0 34.2606,-2.3,0</coordinates></LineString></Placemark>
<Placemark><styleUrl>#burst_2</styleUrl><LineString><tessellate>1</tessellate><altitudeMode>relativeToGround</altitudeMode><coordinates>34.8,-2.3,0 34.5303,-2.7668,0</coordinates></LineString></Placemark>
<Placemark><styleUrl>#burst_2</styleUrl><LineString><tessellate>1</tessellate><altitudeMode>relativeToGround</altitudeMode><coordinates>34.8,-2.3,0 35.0697,-2.7668,0</coordinates></LineString></Placemark>
<Placemark><styleUrl>#dot_3</styleUrl><Point><altitudeMode>relativeToGround</altitudeMode><coordinates>34.6,-2.0,0</coordinates></Point></Placemark>
<Placemark><styleUrl>#dot_3</styleUrl><Point><altitudeMode>relativeToGround</altitudeMode><coordinates>34.9,-2.4,0</coordinates></Point></Placemark>
<Placemark><styleUrl>#dot_3</styleUrl><Point><altitudeMode>relativeToGround</altitudeMode><coordinates>35.1,-2.8,0</coordinates></Point></Placemark>
<Placemark><styleUrl>#dot_3</styleUrl><Point><altitudeMode>relativeToGround</altitudeMode><coordinates>34.7,-2.6,0</coordinates></Point></Placemark>
<Placemark><styleUrl>#ring_4</styleUrl><LineString><tessellate>1</tessellate><altitudeMode>relativeToGround</altitudeMode><coordinates>35.5192,-2.3,0 35.5131,-2.2062,0 35.4947,-2.114,0 35.4645,-2.025,0 35.4229,-1.9407,0 35.3706,-1.8625,0 35.3086,-1.7918,0 35.2378,-1.7299,0 35.1596,-1.6776,0 35.0752,-1.6361,0 34.9861,-1.6058,0 34.8939,-1.5875,0 34.8,-1.5814,0 34.7061,-1.5875,0 34.6139,-1.6058,0 34.5248,-1.6361,0 34.4404,-1.6776,0 34.3622,-1.7299,0 34.2914,-1.7918,0 34.2294,-1.8625,0 34.1771,-1.9407,0 34.1355,-2.025,0 34.1053,-2.114,0 34.0869,-2.2062,0 34.0808,-2.3,0 34.0869,-2.3938,0 34.1053,-2.486,0 34.1355,-2.575,0 34.1771,-2.6593,0 34.2294,-2.7375,0 34.2914,-2.8082,0 34.3622,-2.8701,0 34.4404,-2.9224,0 34.5248,-2.9639,0 34.6139,-2.9942,0 34.7061,-3.0125,0 34.8,-3.0186,0 34.8939,-3.0125,0 34.9861,-2.9942,0 35.0752,-2.9639,0 35.1596,-2.9224,0 35.2378,-2.8701,0 35.3086,-2.8082,0 35.3706,-2.7375,0 35.4229,-2.6593,0 35.4645,-2.575,0 35.4947,-2.486,0 35.5131,-2.3938,0 35.5192,-2.3,0</coordinates></LineString></Placemark>
<Placemark><styleUrl>#ring_4</styleUrl><LineString><tessellate>1</tessellate><altitudeMode>relativeToGround</altitudeMode><coordinates>36.2385,-2.3,0 36.2262,-2.1124,0 36.1894,-1.928,0 36.129,-1.75,0 36.0457,-1.5814,0 35.9412,-1.425,0 35.8171,-1.2837,0 35.6757,-1.1597,0 35.5192,-1.0553,0 35.3505,-0.9721,0 35.1723,-0.9117,0 34.9878,-0.875,0 34.8,-0.8627,0 34.6122,-0.875,0 34.4277,-0.9117,0 34.2495,-0.9721,0 34.0808,-1.0553,0 33.9243,-1.1597,0 33.7829,-1.2837,0 33.6588,-1.425,0 33.5543,-1.5814,0 33.471,-1.75,0 33.4106,-1.928,0 33.3738,-2.1124,0 33.3615,-2.3,0 33.3738,-2.4876,0 33.4106,-2.672,0 33.471,-2.85,0 33.5543,-3.0186,0 33.6588,-3.175,0 33.7829,-3.3163,0 33.9243,-3.4403,0 34.0808,-3.5447,0 34.2495,-3.6279,0 34.4277,-3.6883,0 34.6122,-3.725,0 34.8,-3.7373,0 34.9878,-3.725,0 35.1723,-3.6883,0 35.3505,-3.6279,0 35.5192,-3.5447,0 35.6757,-3.4403,0 35.8171,-3.3163,0 35.9412,-3.175,0 36.0457,-3.0186,0 36.129,-2.85,0 36.1894,-2.672,0 36.2262,-2.4876,0 36.2385,-2.3,0</coordinates></LineString></Placemark>
</Document></kml>
