<?xml version="1.0" encoding="UTF-8"?>
<kml xmlns="http://www.opengis.net/kml/2.2" xmlns:gx="http://www.google.com/kml/ext/2.2" xmlns:kml="http://www.opengis.net/kml/2.2">
<Document><name>Global Equity Heatmap</name>
<LookAt><longitude>0.0</longitude><latitude>25.0</latitude><range>9000000</range><tilt>40</tilt><heading>0</heading><altitudeMode>relativeToGround</altitudeMode></LookAt>
<Style id="col_0"><LineStyle><color>ff59c734</color><width>1</width></LineStyle><PolyStyle><color>ff59c734</color></PolyStyle></Style>
<Style id="col_1"><LineStyle><color>ff59c734</color><width>1</width></LineStyle><PolyStyle><color>ff59c734</color></PolyStyle></Style>
<Style id="col_2"><LineStyle><color>ff303bff</color><width>1</width></LineStyle><PolyStyle><color>ff303bff</color></PolyStyle></Style>
<Style id="col_3"><LineStyle><color>ff59c734</color><width>1</width></LineStyle><PolyStyle><color>ff59c734</color></PolyStyle></Style>
<Style id="poly_4"><PolyStyle><color>2259c734</color></PolyStyle></Style>
<Style id="line_5"><LineStyle><color>ff0ad6ff</color><width>3</width></LineStyle></Style>
<Style id="ring_6"><LineStyle><color>ff938e8e</color><width>1</width></LineStyle></Style>
<Placemark><styleUrl>#col_0</styleUrl><Polygon><extrude>1</extrude><tessellate>1</tessellate><altitudeMode>relativeToGround</altitudeMode><outerBoundaryIs><LinearRing><coordinates>-95.3,39.7,30000 -94.7,39.7,30000 -94.7,40.3,30000 -95.3,40.3,30000 -95.3,39.7,30000</coordinates></LinearRing></outerBoundaryIs></Polygon></Placemark>
<Placemark><styleUrl>#col_1</styleUrl><Polygon><extrude>1</extrude><tessellate>1</tessellate><altitudeMode>relativeToGround</altitudeMode><outerBoundaryIs><LinearRing><coordinates>9.75,49.75,18000 10.25,49.75,18000 10.25,50.25,18000 9.75,50.25,18000 9.75,49.75,18000</coordinates></LinearRing></outerBoundaryIs></Polygon></Placemark>
<Placemark><styleUrl>#col_2</styleUrl><Polygon><extrude>1</extrude><tessellate>1</tessellate><altitudeMode>relativeToGround</altitudeMode><outerBoundaryIs><LinearRing><coordinates>137.75,34.75,12000 138.25,34.75,12000 138.25,35.25,12000 137.75,35.25,12000 137.75,34.75,12000</coordinates></LinearRing></outerBoundaryIs></Polygon></Placemark>
<Placemark><styleUrl>#col_3</styleUrl><Polygon><extrude>1</extrude><tessellate>1</tessellate><altitudeMode>relativeToGround</altitudeMode><outerBoundaryIs><LinearRing><coordinates>76.75,19.75,22000 77.25,19.75,22000 77.25,20.25,22000 76.75,20.25,22000 76.75,19.75,22000</coordinates></LinearRing></outerBoundaryIs></Polygon></Placemark>
<Placemark><styleUrl>#poly_4</styleUrl><Polygon><tessellate>1</tessellate><altitudeMode>relativeToGround</altitudeMode><outerBoundaryIs><LinearRing><coordinates>-125.0,25.0,0 -65.0,25.0,0 -70.0,50.0,0 -130.0,50.0,0 -125.0,25.0,0</coordinates></LinearRing></outerBoundaryIs></Polygon></Placemark>
<Placemark><styleUrl>#line_5</styleUrl><LineString><tessellate>1</tessellate><altitudeMode>relativeToGround</altitudeMode><coordinates>-95.0,40.0,0 10.0,50.0,0 77.0,20.0,0 138.0,35.0,0</coordinates></LineString></Placemark>
<Placemark><styleUrl>#ring_6</styleUrl><LineString><tessellate>1</tessellate><altitudeMode>relativeToGround</altitudeMode><coordinates>19.8235,25.0,0 19.6539,27.3451,0 19.1481,29.65,0 18.3146,31.8754,0 17.1677,33.9831,0 15.7271,35.9371,0 14.0174,37.704,0 12.0678,39.2536,0 9.9118,40.5592,0 7.5861,41.5986,0 5.1307,42.354,0 2.5875,42.8125,0 0.0,42.9662,0 -2.5875,42.8125,0 -5.1307,42.354,0 -7.5861,41.5986,0 -9.9118,40.5592,0 -12.0678,39.2536,0 -14.0174,37.704,0 -15.7271,35.9371,0 -17.1677,33.9831,0 -18.3146,31.8754,0 -19.1481,29.65,0 -19.6539,27.3451,0 -19.8235,25.0,0 -19.6539,22.6549,0 -19.1481,20.35,0 -18.3146,18.1246,0 -17.1677,16.0169,0 -15.7271,14.0629,0 -14.0174,12.296,0 -12.0678,10.7464,0 -9.9118,9.4408,0 -7.5861,8.4014,0 -5.1307,7.646,0 -2.5875,7.1875,0 -0.0,7.0338,0 2.5875,7.1875,0 5.1307,7.646,0 7.5861,8.4014,0 9.9118,9.4408,0 12.0678,10.7464,0 14.0174,12.296,0 15.7271,14.0629,0 17.1677,16.0169,0 18.3146,18.1246,0 19.1481,20.35,0 19.6539,22.6549,0 19.8235,25.0,0</coordinates></LineString></Placemark>
<Placemark><styleUrl>#ring_6</styleUrl><LineString><tessellate>1</tessellate><altitudeMode>relativeToGround</altitudeMode><coordinates>39.6471,25.0,0 39.3079,29.6901,0 38.2961,34.3,0 36.6291,38.7508,0 34.3354,42.9662,0 31.4541,46.8743,0 28.0347,50.4081,0 24.1356,53.5071,0 19.8235,56.1184,0 15.1723,58.1973,0 10.2614,59.7081,0 5.175,60.625,0 0.0,60.9324,0 -5.175,60.625,0 -10.2614,59.7081,0 -15.1723,58.1973,0 -19.8235,56.1184,0 -24.1356,53.5071,0 -28.0347,50.4081,0 -31.4541,46.8743,0 -34.3354,42.9662,0 -36.6291,38.7508,0 -38.2961,34.3,0 -39.3079,29.6901,0 -39.6471,25.0,0 -39.3079,20.3099,0 -38.2961,15.7,0 -36.6291,11.2492,0 -34.3354,7.0338,0 -31.4541,3.1257,0 -28.0347,-0.4081,0 -24.1356,-3.5071,0 -19.8235,-6.1184,0 -15.1723,-8.1973,0 -10.2614,-9.7081,0 -5.175,-10.625,0 -0.0,-10.9324,0 5.175,-10.625,0 10.2614,-9.7081,0 15.1723,-8.1973,0 19.8235,-6.1184,0 24.1356,-3.5071,0 28.0347,-0.4081,0 31.4541,3.1257,0 34.3354,7.0338,0 36.6291,11.2492,0 38.2961,15.7,0 39.3079,20.3099,0 39.6471,25.0,0</coordinates></LineString></Placemark>
</Document></kml>
