<?xml version="1.0" encoding="UTF-8"?>
<kml xmlns="http://www.opengis.net/kml/2.2">
<Document><name>US Yield Curve</name>
<LookAt><longitude>-95.0</longitude><latitude>39.0</latitude><range>6000000</range><tilt>50</tilt><heading>0</heading><altitudeMode>relativeToGround</altitudeMode></LookAt>
<Style id="ter_0"><LineStyle><color>ff0ad6ff</color><width>1</width></LineStyle><PolyStyle><color>ff0ad6ff</color></PolyStyle></Style>
<Style id="col_1"><LineStyle><color>ff0ad6ff</color><width>1</width></LineStyle><PolyStyle><color>ff0ad6ff</color></PolyStyle></Style>
<Style id="col_2"><LineStyle><color>ff0ad6ff</color><width>1</width></LineStyle><PolyStyle><color>ff0ad6ff</color></PolyStyle></Style>
<Style id="line_3"><LineStyle><color>ff0ad6ff</color><width>3</width></LineStyle></Style>
<Style id="ring_4"><LineStyle><color>ff0ad6ff</color><width>2</width></LineStyle></Style>
<Style id="arc_5"><LineStyle><color>ff938e8e</color><width>2</width></LineStyle></Style>
<Style id="ring_6"><LineStyle><color>550ad6ff</color><width>3</width></LineStyle></Style>
<Style id="ring_7"><LineStyle><color>3c0ad6ff</color><width>3</width></LineStyle></Style>
<Style id="ring_8"><LineStyle><color>280ad6ff</color><width>3</width></LineStyle></Style>
<Placemark><styleUrl>#ter_0</styleUrl><Polygon><extrude>1</extrude><tessellate>1</tessellate><altitudeMode>relativeToGround</altitudeMode><outerBoundaryIs><LinearRing><coordinates>-95.5,38.5,20000.0 -94.5,38.5,20000.0 -94.5,39.5,20000.0 -95.5,39.5,20000.0 -95.5,38.5,20000.0</coordinates></LinearRing></outerBoundaryIs></Polygon></Placemark>
<Placemark><styleUrl>#ter_0</styleUrl><Polygon><extrude>1</extrude><tessellate>1</tessellate><altitudeMode>relativeToGround</altitudeMode><outerBoundaryIs><LinearRing><coordinates>-95.44,38.56,38000.0 -94.56,38.56,38000.0 -94.56,39.44,38000.0 -95.44,39.44,38000.0 -95.44,38.56,38000.0</coordinates></LinearRing></outerBoundaryIs></Polygon></Placemark>
<Placemark><styleUrl>#ter_0</styleUrl><Polygon><extrude>1</extrude><tessellate>1</tessellate><altitudeMode>relativeToGround</altitudeMode><outerBoundaryIs><LinearRing><coordinates>-95.38,38.62,54000.0 -94.62,38.62,54000.0 -94.62,39.38,54000.0 -95.38,39.38,54000.0 -95.38,38.62,54000.0</coordinates></LinearRing></outerBoundaryIs></Polygon></Placemark>
<Placemark><styleUrl>#ter_0</styleUrl><Polygon><extrude>1</extrude><tessellate>1</tessellate><altitudeMode>relativeToGround</altitudeMode><outerBoundaryIs><LinearRing><coordinates>-95.32,38.68,76000.0 -94.68,38.68,76000.0 -94.68,39.32,76000.0 -95.32,39.32,76000.0 -95.32,38.68,76000.0</coordinates></LinearRing></outerBoundaryIs></Polygon></Placemark>
<Placemark><styleUrl>#col_1</styleUrl><Polygon><extrude>1</extrude><tessellate>1</tessellate><altitudeMode>relativeToGround</altitudeMode><outerBoundaryIs><LinearRing><coordinates>-74.2,39.8,26000 -73.8,39.8,26000 -73.8,40.2,26000 -74.2,40.2,26000 -74.2,39.8,26000</coordinates></LinearRing></outerBoundaryIs></Polygon></Placemark>
<Placemark><styleUrl>#col_2</styleUrl><Polygon><extrude>1</extrude><tessellate>1</tessellate><altitudeMode>relativeToGround</altitudeMode><outerBoundaryIs><LinearRing><coordinates>-122.2,36.8,20000 -121.8,36.8,20000 -121.8,37.2,20000 -122.2,37.2,20000 -122.2,36.8,20000</coordinates></LinearRing></outerBoundaryIs></Polygon></Placemark>
<Placemark><styleUrl>#line_3</styleUrl><LineString><tessellate>1</tessellate><altitudeMode>relativeToGround</altitudeMode><coordinates>-122.0,37.0,0 -95.0,39.0,0 -74.0,40.0,0</coordinates></LineString></Placemark>
<Placemark><styleUrl>#ring_4</styleUrl><LineString><tessellate>1</tessellate><altitudeMode>relativeToGround</altitudeMode><coordinates>-91.5323,39.0,0 -91.5619,39.3518,0 -91.6504,39.6975,0 -91.7962,40.0313,0 -91.9969,40.3475,0 -92.2489,40.6406,0 -92.5479,40.9056,0 -92.889,41.138,0 -93.2661,41.3339,0 -93.673,41.4898,0 -94.1025,41.6031,0 -94.5474,41.6719,0 -95.0,41.6949,0 -95.4526,41.6719,0 -95.8975,41.6031,0 -96.327,41.4898,0 -96.7339,41.3339,0 -97.111,41.138,0 -97.4521,40.9056,0 -97.7511,40.6406,0 -98.0031,40.3475,0 -98.2038,40.0313,0 -98.3496,39.6975,0 -98.4381,39.3518,0 -98.4677,39.0,0 -98.4381,38.6482,0 -98.3496,38.3025,0 -98.2038,37.9687,0 -98.0031,37.6525,0 -97.7511,37.3594,0 -97.4521,37.0944,0 -97.111,36.862,0 -96.7339,36.6661,0 -96.327,36.5102,0 -95.8975,36.3969,0 -95.4526,36.3281,0 -95.0,36.3051,0 -94.5474,36.3281,0 -94.1025,36.3969,0 -93.673,36.5102,0 -93.2661,36.6661,0 -92.889,36.862,0 -92.5479,37.0944,0 -92.2489,37.3594,0 -91.9969,37.6525,0 -91.7962,37.9687,0 -91.6504,38.3025,0 -91.5619,38.6482,0 -91.5323,39.0,0</coordinates></LineString></Placemark>
<Placemark><styleUrl>#ring_4</styleUrl><LineString><tessellate>1</tessellate><altitudeMode>relativeToGround</altitudeMode><coordinates>-88.0645,39.0,0 -88.1239,39.7035,0 -88.3009,40.395,0 -88.5925,41.0626,0 -88.9937,41.6949,0 -89.4977,42.2811,0 -90.0959,42.8112,0 -90.778,43.2761,0 -91.5323,43.6678,0 -92.3459,43.9796,0 -93.205,44.2062,0 -94.0947,44.3438,0 -95.0,44.3899,0 -95.9053,44.3438,0 -96.795,44.2062,0 -97.6541,43.9796,0 -98.4677,43.6678,0 -99.222,43.2761,0 -99.9041,42.8112,0 -100.5023,42.2811,0 -101.0063,41.6949,0 -101.4075,41.0626,0 -101.6991,40.395,0 -101.8761,39.7035,0 -101.9355,39.0,0 -101.8761,38.2965,0 -101.6991,37.605,0 -101.4075,36.9374,0 -101.0063,36.3051,0 -100.5023,35.7189,0 -99.9041,35.1888,0 -99.222,34.7239,0 -98.4677,34.3322,0 -97.6541,34.0204,0 -96.795,33.7938,0 -95.9053,33.6562,0 -95.0,33.6101,0 -94.0947,33.6562,0 -93.205,33.7938,0 -92.3459,34.0204,0 -91.5323,34.3322,0 -90.778,34.7239,0 -90.0959,35.1888,0 -89.4977,35.7189,0 -88.9937,36.3051,0 -88.5925,36.9374,0 -88.3009,37.605,0 -88.1239,38.2965,0 -88.0645,39.0,0</coordinates></LineString></Placemark>
<Placemark><styleUrl>#arc_5</styleUrl><LineString><tessellate>1</tessellate><altitudeMode>relativeToGround</altitudeMode><coordinates>-99.3448,37.771,0 -99.2219,37.5349,0 -99.0777,37.3062,0 -98.913,37.0859,0 -98.7287,36.8753,0 -98.5257,36.6753,0 -98.3049,36.4871,0 -98.0675,36.3114,0 -97.8147,36.1493,0 -97.5478,36.0015,0 -97.268,35.8687,0 -96.9769,35.7517,0 -96.6758,35.6511,0 -96.3663,35.5672,0 -96.0499,35.5006,0 -95.7283,35.4516,0 -95.403,35.4204,0 -95.0757,35.4072,0 -94.7479,35.4121,0 -94.4215,35.435,0 -94.098,35.4758,0 -93.779,35.5343,0 -93.4661,35.6102,0 -93.161,35.7032,0 -92.865,35.8128,0 -92.5799,35.9383,0 -92.3068,36.0792,0 -92.0473,36.2349,0 -91.8027,36.4044,0 -91.5741,36.5869,0 -91.3627,36.7816,0 -91.1696,36.9874,0 -90.9958,37.2034,0</coordinates></LineString></Placemark>
<Placemark><styleUrl>#ring_6</styleUrl><LineString><tessellate>1</tessellate><altitudeMode>relativeToGround</altitudeMode><coordinates>-94.2371,39.0,0 -94.2436,39.0774,0 -94.2631,39.1535,0 -94.2952,39.2269,0 -94.3393,39.2964,0 -94.3948,39.3609,0 -94.4605,39.4192,0 -94.5356,39.4704,0 -94.6185,39.5135,0 -94.7081,39.5478,0 -94.8025,39.5727,0 -94.9004,39.5878,0 -95.0,39.5929,0 -95.0996,39.5878,0 -95.1975,39.5727,0 -95.2919,39.5478,0 -95.3815,39.5135,0 -95.4644,39.4704,0 -95.5395,39.4192,0 -95.6052,39.3609,0 -95.6607,39.2964,0 -95.7048,39.2269,0 -95.7369,39.1535,0 -95.7564,39.0774,0 -95.7629,39.0,0 -95.7564,38.9226,0 -95.7369,38.8465,0 -95.7048,38.7731,0 -95.6607,38.7036,0 -95.6052,38.6391,0 -95.5395,38.5808,0 -95.4644,38.5296,0 -95.3815,38.4865,0 -95.2919,38.4522,0 -95.1975,38.4273,0 -95.0996,38.4122,0 -95.0,38.4071,0 -94.9004,38.4122,0 -94.8025,38.4273,0 -94.7081,38.4522,0 -94.6185,38.4865,0 -94.5356,38.5296,0 -94.4605,38.5808,0 -94.3948,38.6391,0 -94.3393,38.7036,0 -94.2952,38.7731,0 -94.2631,38.8465,0 -94.2436,38.9226,0 -94.2371,39.0,0</coordinates></LineString></Placemark>
<Placemark><styleUrl>#ring_7</styleUrl><LineString><tessellate>1</tessellate><altitudeMode>relativeToGround</altitudeMode><coordinates>-93.821,39.0,0 -93.8311,39.1196,0 -93.8611,39.2372,0 -93.9107,39.3506,0 -93.9789,39.4581,0 -94.0646,39.5578,0 -94.1663,39.6479,0 -94.2823,39.7269,0 -94.4105,39.7935,0 -94.5488,39.8465,0 -94.6948,39.8851,0 -94.8461,39.9084,0 -95.0,39.9163,0 -95.1539,39.9084,0 -95.3052,39.8851,0 -95.4512,39.8465,0 -95.5895,39.7935,0 -95.7177,39.7269,0 -95.8337,39.6479,0 -95.9354,39.5578,0 -96.0211,39.4581,0 -96.0893,39.3506,0 -96.1389,39.2372,0 -96.1689,39.1196,0 -96.179,39.0,0 -96.1689,38.8804,0 -96.1389,38.7628,0 -96.0893,38.6494,0 -96.0211,38.5419,0 -95.9354,38.4422,0 -95.8337,38.3521,0 -95.7177,38.2731,0 -95.5895,38.2065,0 -95.4512,38.1535,0 -95.3052,38.1149,0 -95.1539,38.0916,0 -95.0,38.0837,0 -94.8461,38.0916,0 -94.6948,38.1149,0 -94.5488,38.1535,0 -94.4105,38.2065,0 -94.2823,38.2731,0 -94.1663,38.3521,0 -94.0646,38.4422,0 -93.9789,38.5419,0 -93.9107,38.6494,0 -93.8611,38.7628,0 -93.8311,38.8804,0 -93.821,39.0,0</coordinates></LineString></Placemark>
<Placemark><styleUrl>#ring_8</styleUrl><LineString><tessellate>1</tessellate><altitudeMode>relativeToGround</altitudeMode><coordinates>-93.4048,39.0,0 -93.4185,39.1618,0 -93.4592,39.3209,0 -93.5263,39.4744,0 -93.6186,39.6198,0 -93.7345,39.7547,0 -93.8721,39.8766,0 -94.0289,39.9835,0 -94.2024,40.0736,0 -94.3896,40.1453,0 -94.5871,40.1974,0 -94.7918,40.2291,0 -95.0,40.2397,0 -95.2082,40.2291,0 -95.4129,40.1974,0 -95.6104,40.1453,0 -95.7976,40.0736,0 -95.9711,39.9835,0 -96.1279,39.8766,0 -96.2655,39.7547,0 -96.3814,39.6198,0 -96.4737,39.4744,0 -96.5408,39.3209,0 -96.5815,39.1618,0 -96.5952,39.0,0 -96.5815,38.8382,0 -96.5408,38.6791,0 -96.4737,38.5256,0 -96.3814,38.3802,0 -96.2655,38.2453,0 -96.1279,38.1234,0 -95.9711,38.0165,0 -95.7976,37.9264,0 -95.6104,37.8547,0 -95.4129,37.8026,0 -95.2082,37.7709,0 -95.0,37.7603,0 -94.7918,37.7709,0 -94.5871,37.8026,0 -94.3896,37.8547,0 -94.2024,37.9264,0 -94.0289,38.0165,0 -93.8721,38.1234,0 -93.7345,38.2453,0 -93.6186,38.3802,0 -93.5263,38.5256,0 -93.4592,38.6791,0 -93.4185,38.8382,0 -93.4048,39.0,0</coordinates></LineString></Placemark>
</Document></kml>
