<?xml version="1.0" encoding="UTF-8"?>
<kml xmlns="http://www.opengis.net/kml/2.2" xmlns:gx="http://www.google.com/kml/ext/2.2" xmlns:kml="http://www.opengis.net/kml/2.2">
<Document><name>Alexander vs Persia</name>
<LookAt><longitude>35.0</longitude><latitude>38.0</latitude><range>6000000</range><tilt>40</tilt><heading>0</heading><altitudeMode>relativeToGround</altitudeMode></LookAt>
<Style id="line_0"><LineStyle><color>ff0ad6ff</color><width>4</width></LineStyle></Style>
<Style id="icon_1"><IconStyle><scale>1.3</scale><Icon><href>http://lg1:81/kml/icons/circle-yellow.png</href></Icon></IconStyle></Style>
<Style id="icon_2"><IconStyle><scale>1.3</scale><Icon><href>http://lg1:81/kml/icons/circle-red.png</href></Icon></IconStyle></Style>
<Style id="icon_3"><IconStyle><scale>1.3</scale><Icon><href>http://lg1:81/kml/icons/circle-yellow.png</href></Icon></IconStyle></Style>
<Style id="ring_4"><LineStyle><color>ff0ad6ff</color><width>2</width></LineStyle></Style>
<Style id="poly_5"><PolyStyle><color>2d0ad6ff</color></PolyStyle></Style>
<Style id="spire_6"><LineStyle><color>ff0ad6ff</color><width>2</width></LineStyle></Style>
<Placemark><styleUrl>#line_0</styleUrl><LineString><tessellate>1</tessellate><altitudeMode>relativeToGround</altitudeMode><coordinates>22.9,40.6,0 26.0,40.0,0 30.0,36.0,0 36.0,33.0,0 44.0,33.0,0 52.0,30.0,0 66.0,28.0,0 72.0,31.0,0</coordinates></LineString></Placemark>
<Placemark><styleUrl>#icon_1</styleUrl><Point><altitudeMode>relativeToGround</altitudeMode><coordinates>22.9,40.6,0</coordinates></Point></Placemark>
<Placemark><styleUrl>#icon_2</styleUrl><Point><altitudeMode>relativeToGround</altitudeMode><coordinates>36.0,33.0,0</coordinates></Point></Placemark>
<Placemark><styleUrl>#icon_3</styleUrl><Point><altitudeMode>relativeToGround</altitudeMode><coordinates>72.0,31.0,0</coordinates></Point></Placemark>
<Placemark><styleUrl>#ring_4</styleUrl><LineString><tessellate>1</tessellate><altitudeMode>relativeToGround</altitudeMode><coordinates>37.6067,33.0,0 37.5929,33.1759,0 37.5519,33.3488,0 37.4844,33.5157,0 37.3914,33.6737,0 37.2747,33.8203,0 37.1361,33.9528,0 36.9781,34.069,0 36.8033,34.1669,0 36.6148,34.2449,0 36.4158,34.3016,0 36.2097,34.3359,0 36.0,34.3475,0 35.7903,34.3359,0 35.5842,34.3016,0 35.3852,34.2449,0 35.1967,34.1669,0 35.0219,34.069,0 34.8639,33.9528,0 34.7253,33.8203,0 34.6086,33.6737,0 34.5156,33.5157,0 34.4481,33.3488,0 34.4071,33.1759,0 34.3933,33.0,0 34.4071,32.8241,0 34.4481,32.6512,0 34.5156,32.4843,0 34.6086,32.3263,0 34.7253,32.1797,0 34.8639,32.0472,0 35.0219,31.931,0 35.1967,31.8331,0 35.3852,31.7551,0 35.5842,31.6984,0 35.7903,31.6641,0 36.0,31.6525,0 36.2097,31.6641,0 36.4158,31.6984,0 36.6148,31.7551,0 36.8033,31.8331,0 36.9781,31.931,0 37.1361,32.0472,0 37.2747,32.1797,0 37.3914,32.3263,0 37.4844,32.4843,0 37.5519,32.6512,0 37.5929,32.8241,0 37.6067,33.0,0</coordinates></LineString></Placemark>
<Placemark><styleUrl>#ring_4</styleUrl><LineString><tessellate>1</tessellate><altitudeMode>relativeToGround</altitudeMode><coordinates>39.2133,33.0,0 39.1858,33.3518,0 39.1038,33.6975,0 38.9687,34.0313,0 38.7828,34.3475,0 38.5493,34.6406,0 38.2722,34.9056,0 37.9562,35.138,0 37.6067,35.3339,0 37.2297,35.4898,0 36.8317,35.6031,0 36.4194,35.6719,0 36.0,35.6949,0 35.5806,35.6719,0 35.1683,35.6031,0 34.7703,35.4898,0 34.3933,35.3339,0 34.0438,35.138,0 33.7278,34.9056,0 33.4507,34.6406,0 33.2172,34.3475,0 33.0313,34.0313,0 32.8962,33.6975,0 32.8142,33.3518,0 32.7867,33.0,0 32.8142,32.6482,0 32.8962,32.3025,0 33.0313,31.9687,0 33.2172,31.6525,0 33.4507,31.3594,0 33.7278,31.0944,0 34.0438,30.862,0 34.3933,30.6661,0 34.7703,30.5102,0 35.1683,30.3969,0 35.5806,30.3281,0 36.0,30.3051,0 36.4194,30.3281,0 36.8317,30.3969,0 37.2297,30.5102,0 37.6067,30.6661,0 37.9562,30.862,0 38.2722,31.0944,0 38.5493,31.3594,0 38.7828,31.6525,0 38.9687,31.9687,0 39.1038,32.3025,0 39.1858,32.6482,0 39.2133,33.0,0</coordinates></LineString></Placemark>
<Placemark><styleUrl>#poly_5</styleUrl><Polygon><tessellate>1</tessellate><altitudeMode>relativeToGround</altitudeMode><outerBoundaryIs><LinearRing><coordinates>20.0,42.0,0 28.0,42.0,0 26.0,36.0,0 18.0,36.0,0 20.0,42.0,0</coordinates></LinearRing></outerBoundaryIs></Polygon></Placemark>
<Placemark><styleUrl>#spire_6</styleUrl><LineString><altitudeMode>relativeToGround</altitudeMode><coordinates>36.0,33.0,0 36.0,33.0,12000</coordinates></LineString></Placemark>
<Placemark><styleUrl>#spire_6</styleUrl><LineString><altitudeMode>relativeToGround</altitudeMode><coordinates>36.0,33.0,0 36.0,33.0,22000</coordinates></LineString></Placemark>
</Document></kml>
