<?xml version="1.0" encoding="UTF-8"?>
<kml xmlns="http://www.opengis.net/kml/2.2" xmlns:gx="http://www.google.com/kml/ext/2.2" xmlns:kml="http://www.opengis.net/kml/2.2">
<Document><name>Mongol Conquests</name>
<LookAt><longitude>90.0</longitude><latitude>45.0</latitude><range>9000000</range><tilt>40</tilt><heading>0</heading><altitudeMode>relativeToGround</altitudeMode></LookAt>
<Style id="poly_0"><PolyStyle><color>44303bff</color></PolyStyle></Style>
<Style id="line_1"><LineStyle><color>ff303bff</color><width>4</width></LineStyle></Style>
<Style id="line_2"><LineStyle><color>ff0095ff</color><width>3</width></LineStyle></Style>
<Style id="burst_3"><LineStyle><color>ff303bff</color><width>2</width></LineStyle></Style>
<Style id="icon_4"><IconStyle><scale>1.4</scale><Icon><href>http://lg1:81/kml/icons/circle-red.png</href></Icon></IconStyle></Style>
<Style id="ring_5"><LineStyle><color>ff303bff</color><width>2</width></LineStyle></Style>
<Placemark><styleUrl>#poly_0</styleUrl><Polygon><tessellate>1</tessellate><altitudeMode>relativeToGround</altitudeMode><outerBoundaryIs><LinearRing><coordinates>60.0,50.0,0 110.0,55.0,0 120.0,35.0,0 80.0,30.0,0 50.0,40.0,0 60.0,50.0,0</coordinates></LinearRing></outerBoundaryIs></Polygon></Placemark>
<Placemark><styleUrl>#line_1</styleUrl><LineString><tessellate>1</tessellate><altitudeMode>relativeToGround</altitudeMode><coordinates>105.0,47.0,0 90.0,45.0,0 70.0,40.0,0 50.0,35.0,0</coordinates></LineString></Placemark>
<Placemark><styleUrl>#line_2</styleUrl><LineString><tessellate>1</tessellate><altitudeMode>relativeToGround</altitudeMode><coordinates>105.0,47.0,0 110.0,40.0,0 120.0,32.0,0</coordinates></LineString></Placemark>
<Placemark><styleUrl>#burst_3</styleUrl><LineString><tessellate>1</tessellate><altitudeMode>relativeToGround</altitudeMode><coordinates>105.0,47.0,0 110.2687,47.0,0</coordinates></LineString></Placemark>
<Placemark><styleUrl>#burst_3</styleUrl><LineString><tessellate>1</tessellate><altitudeMode>relativeToGround</altitudeMode><coordinates>105.0,47.0,0 108.7255,49.5408,0</coordinates></LineString></Placemark>
<Placemark><styleUrl>#burst_3</styleUrl><LineString><tessellate>1</tessellate><altitudeMode>relativeToGround</altitudeMode><coordinates>105.0,47.0,0 105.0,50.5932,0</coordinates></LineString></Placemark>
<Placemark><styleUrl>#burst_3</styleUrl><LineString><tessellate>1</tessellate><altitudeMode>relativeToGround</altitudeMode><coordinates>105.0,47.0,0 101.2745,49.5408,0</coordinates></LineString></Placemark>
<Placemark><styleUrl>#burst_3</styleUrl><LineString><tessellate>1</tessellate><altitudeMode>relativeToGround</altitudeMode><coordinates>105.0,47.0,0 99.7313,47.0,0</coordinates></LineString></Placemark>
<Placemark><styleUrl>#burst_3</styleUrl><LineString><tessellate>1</tessellate><altitudeMode>relativeToGround</altitudeMode><coordinates>105.0,47.0,0 101.2745,44.4592,0</coordinates></LineString></Placemark>
<Placemark><styleUrl>#burst_3</styleUrl><LineString><tessellate>1</tessellate><altitudeMode>relativeToGround</altitudeMode><coordinates>105.0,47.0,0 105.0,43.4068,0</coordinates></LineString></Placemark>
<Placemark><styleUrl>#burst_3</styleUrl><LineString><tessellate>1</tessellate><altitudeMode>relativeToGround</altitudeMode><coordinates>105.0,47.0,0 108.7255,44.4592,0</coordinates></LineString></Placemark>
<Placemark><styleUrl>#icon_4</styleUrl><Point><altitudeMode>relativeToGround</altitudeMode><coordinates>105.0,47.0,0</coordinates></Point></Placemark>
<Placemark><styleUrl>#ring_5</styleUrl><LineString><tessellate>1</tessellate><altitudeMode>relativeToGround</altitudeMode><coordinates>111.5859,47.0,0 111.5295,47.5863,0 111.3615,48.1625,0 111.0846,48.7188,0 110.7035,49.2458,0 110.2249,49.7343,0 109.6569,50.176,0 109.0092,50.5634,0 108.2929,50.8898,0 107.5203,51.1497,0 106.7045,51.3385,0 105.8596,51.4531,0 105.0,51.4916,0 104.1404,51.4531,0 103.2955,51.3385,0 102.4797,51.1497,0 101.7071,50.8898,0 100.9908,50.5634,0 100.3431,50.176,0 99.7751,49.7343,0 99.2965,49.2458,0 98.9154,48.7188,0 98.6385,48.1625,0 98.4705,47.5863,0 98.4141,47.0,0 98.4705,46.4137,0 98.6385,45.8375,0 98.9154,45.2812,0 99.2965,44.7542,0 99.7751,44.2657,0 100.3431,43.824,0 100.9908,43.4366,0 101.7071,43.1102,0 102.4797,42.8503,0 103.2955,42.6615,0 104.1404,42.5469,0 105.0,42.5084,0 105.8596,42.5469,0 106.7045,42.6615,0 107.5203,42.8503,0 108.2929,43.1102,0 109.0092,43.4366,0 109.6569,43.824,0 110.2249,44.2657,0 110.7035,44.7542,0 111.0846,45.2812,0 111.3615,45.8375,0 111.5295,46.4137,0 111.5859,47.0,0</coordinates></LineString></Placemark>
<Placemark><styleUrl>#ring_5</styleUrl><LineString><tessellate>1</tessellate><altitudeMode>relativeToGround</altitudeMode><coordinates>118.1717,47.0,0 118.0591,48.1725,0 117.7229,49.325,0 117.1691,50.4377,0 116.4071,51.4916,0 115.4499,52.4686,0 114.3138,53.352,0 113.0185,54.1268,0 111.5859,54.7796,0 110.0406,55.2993,0 108.4091,55.677,0 106.7193,55.9063,0 105.0,55.9831,0 103.2807,55.9063,0 101.5909,55.677,0 99.9594,55.2993,0 98.4141,54.7796,0 96.9815,54.1268,0 95.6862,53.352,0 94.5501,52.4686,0 93.5929,51.4916,0 92.8309,50.4377,0 92.2771,49.325,0 91.9409,48.1725,0 91.8283,47.0,0 91.9409,45.8275,0 92.2771,44.675,0 92.8309,43.5623,0 93.5929,42.5084,0 94.5501,41.5314,0 95.6862,40.648,0 96.9815,39.8732,0 98.4141,39.2204,0 99.9594,38.7007,0 101.5909,38.323,0 103.2807,38.0937,0 105.0,38.0169,0 106.7193,38.0937,0 108.4091,38.323,0 110.0406,38.7007,0 111.5859,39.2204,0 113.0185,39.8732,0 114.3138,40.648,0 115.4499,41.5314,0 116.4071,42.5084,0 117.1691,43.5623,0 117.7229,44.675,0 118.0591,45.8275,0 118.1717,47.0,0</coordinates></LineString></Placemark>
</Document></kml>
