<?xml version="1.0" encoding="UTF-8"?>
<kml xmlns="http://www.opengis.net/kml/2.2" xmlns:gx="http://www.google.com/kml/ext/2.2" xmlns:kml="http://www.opengis.net/kml/2.2">
<Document><name>Geopolitical Forecasts</name>
<LookAt><longitude>30.0</longitude><latitude>25.0</latitude><range>8000000</range><tilt>40</tilt><heading>0</heading><altitudeMode>relativeToGround</altitudeMode></LookAt>
<Style id="arc_0"><LineStyle><color>fff25abf</color><width>5</width></LineStyle></Style>
<Style id="ring_1"><LineStyle><color>ffffe500</color><width>2</width></LineStyle></Style>
<Style id="ring_2"><LineStyle><color>fff25abf</color><width>2</width></LineStyle></Style>
<Style id="ring_3"><LineStyle><color>ff5f37ff</color><width>2</width></LineStyle></Style>
<Style id="col_4"><LineStyle><color>fff25abf</color><width>1</width></LineStyle><PolyStyle><color>fff25abf</color></PolyStyle></Style>
<Style id="dot_5"><IconStyle><scale>0.8</scale><Icon><href>http://lg1:81/kml/icons/circle-purple.png</href></Icon></IconStyle></Style>
<Style id="ring_6"><LineStyle><color>55f25abf</color><width>3</width></LineStyle></Style>
<Style id="ring_7"><LineStyle><color>3cf25abf</color><width>3</width></LineStyle></Style>
<Style id="ring_8"><LineStyle><color>28f25abf</color><width>3</width></LineStyle></Style>
<Placemark><styleUrl>#arc_0</styleUrl><LineString><tessellate>1</tessellate><altitudeMode>relativeToGround</altitudeMode><coordinates>35.9471,25.0,0 35.9324,25.3782,0 35.8885,25.7545,0 35.8156,26.127,0 35.714,26.4941,0 35.5843,26.8537,0 35.427,27.2042,0 35.243,27.5439,0 35.0331,27.871,0 34.7985,28.184,0 34.5402,28.4813,0 34.2595,28.7614,0 33.9578,29.023,0 33.6366,29.2647,0 33.2975,29.4855,0 32.9421,29.6841,0 32.5723,29.8596,0 32.1897,30.0112,0 31.7964,30.1381,0 31.3942,30.2397,0 30.9851,30.3154,0 30.5712,30.3649,0 30.1545,30.388,0 29.737,30.3846,0 29.3208,30.3546,0 28.9079,30.2982,0 28.5005,30.2157,0 28.1004,30.1075,0 27.7097,29.9741,0 27.3302,29.8162,0 26.964,29.6346,0 26.6127,29.4301,0 26.2781,29.2038,0 25.9618,28.9568,0 25.6654,28.6903,0 25.3904,28.4055,0 25.1382,28.104,0 24.9098,27.7872,0 24.7066,27.4567,0 24.5295,27.114,0 24.3793,26.761,0 24.2568,26.3992,0 24.1627,26.0306,0 24.0973,25.6569,0</coordinates></LineString></Placemark>
<Placemark><styleUrl>#ring_1</styleUrl><LineString><tessellate>1</tessellate><altitudeMode>relativeToGround</altitudeMode><coordinates>34.4603,25.0,0 34.4221,25.5276,0 34.3083,26.0463,0 34.1208,26.547,0 33.8627,27.0212,0 33.5386,27.4609,0 33.1539,27.8584,0 32.7153,28.2071,0 32.2301,28.5008,0 31.7069,28.7347,0 31.1544,28.9047,0 30.5822,29.0078,0 30.0,29.0424,0 29.4178,29.0078,0 28.8456,28.9047,0 28.2931,28.7347,0 27.7699,28.5008,0 27.2847,28.2071,0 26.8461,27.8584,0 26.4614,27.4609,0 26.1373,27.0212,0 25.8792,26.547,0 25.6917,26.0463,0 25.5779,25.5276,0 25.5397,25.0,0 25.5779,24.4724,0 25.6917,23.9537,0 25.8792,23.453,0 26.1373,22.9788,0 26.4614,22.5391,0 26.8461,22.1416,0 27.2847,21.7929,0 27.7699,21.4992,0 28.2931,21.2653,0 28.8456,21.0953,0 29.4178,20.9922,0 30.0,20.9576,0 30.5822,20.9922,0 31.1544,21.0953,0 31.7069,21.2653,0 32.2301,21.4992,0 32.7153,21.7929,0 33.1539,22.1416,0 33.5386,22.5391,0 33.8627,22.9788,0 34.1208,23.453,0 34.3083,23.9537,0 34.4221,24.4724,0 34.4603,25.0,0</coordinates></LineString></Placemark>
<Placemark><styleUrl>#ring_1</styleUrl><LineString><tessellate>1</tessellate><altitudeMode>relativeToGround</altitudeMode><coordinates>37.9294,25.0,0 37.8616,25.938,0 37.6592,26.86,0 37.3258,27.7502,0 36.8671,28.5932,0 36.2908,29.3749,0 35.6069,30.0816,0 34.8271,30.7014,0 33.9647,31.2237,0 33.0345,31.6395,0 32.0523,31.9416,0 31.035,32.125,0 30.0,32.1865,0 28.965,32.125,0 27.9477,31.9416,0 26.9655,31.6395,0 26.0353,31.2237,0 25.1729,30.7014,0 24.3931,30.0816,0 23.7092,29.3749,0 23.1329,28.5932,0 22.6742,27.7502,0 22.3408,26.86,0 22.1384,25.938,0 22.0706,25.0,0 22.1384,24.062,0 22.3408,23.14,0 22.6742,22.2498,0 23.1329,21.4068,0 23.7092,20.6251,0 24.3931,19.9184,0 25.1729,19.2986,0 26.0353,18.7763,0 26.9655,18.3605,0 27.9477,18.0584,0 28.965,17.875,0 30.0,17.8135,0 31.035,17.875,0 32.0523,18.0584,0 33.0345,18.3605,0 33.9647,18.7763,0 34.8271,19.2986,0 35.6069,19.9184,0 36.2908,20.6251,0 36.8671,21.4068,0 37.3258,22.2498,0 37.6592,23.14,0 37.8616,24.062,0 37.9294,25.0,0</coordinates></LineString></Placemark>
<Placemark><styleUrl>#ring_2</styleUrl><LineString><tessellate>1</tessellate><altitudeMode>relativeToGround</altitudeMode><coordinates>13.8112,45.0,0 13.7786,45.3518,0 13.6813,45.6975,0 13.5211,46.0313,0 13.3006,46.3475,0 13.0236,46.6406,0 12.6949,46.9056,0 12.3201,47.138,0 11.9056,47.3339,0 11.4585,47.4898,0 10.9864,47.6031,0 10.4975,47.6719,0 10.0,47.6949,0 9.5025,47.6719,0 9.0136,47.6031,0 8.5415,47.4898,0 8.0944,47.3339,0 7.6799,47.138,0 7.3051,46.9056,0 6.9764,46.6406,0 6.6994,46.3475,0 6.4789,46.0313,0 6.3187,45.6975,0 6.2214,45.3518,0 6.1888,45.0,0 6.2214,44.6482,0 6.3187,44.3025,0 6.4789,43.9687,0 6.6994,43.6525,0 6.9764,43.3594,0 7.3051,43.0944,0 7.6799,42.862,0 8.0944,42.6661,0 8.5415,42.5102,0 9.0136,42.3969,0 9.5025,42.3281,0 10.0,42.3051,0 10.4975,42.3281,0 10.9864,42.3969,0 11.4585,42.5102,0 11.9056,42.6661,0 12.3201,42.862,0 12.6949,43.0944,0 13.0236,43.3594,0 13.3006,43.6525,0 13.5211,43.9687,0 13.6813,44.3025,0 13.7786,44.6482,0 13.8112,45.0,0</coordinates></LineString></Placemark>
<Placemark><styleUrl>#ring_2</styleUrl><LineString><tessellate>1</tessellate><altitudeMode>relativeToGround</altitudeMode><coordinates>17.6224,45.0,0 17.5572,45.7035,0 17.3627,46.395,0 17.0422,47.0626,0 16.6012,47.6949,0 16.0473,48.2811,0 15.3899,48.8112,0 14.6402,49.2761,0 13.8112,49.6678,0 12.917,49.9796,0 11.9728,50.2062,0 10.9949,50.3438,0 10.0,50.3899,0 9.0051,50.3438,0 8.0272,50.2062,0 7.083,49.9796,0 6.1888,49.6678,0 5.3598,49.2761,0 4.6101,48.8112,0 3.9527,48.2811,0 3.3988,47.6949,0 2.9578,47.0626,0 2.6373,46.395,0 2.4428,45.7035,0 2.3776,45.0,0 2.4428,44.2965,0 2.6373,43.605,0 2.9578,42.9374,0 3.3988,42.3051,0 3.9527,41.7189,0 4.6101,41.1888,0 5.3598,40.7239,0 6.1888,40.3322,0 7.083,40.0204,0 8.0272,39.7938,0 9.0051,39.6562,0 10.0,39.6101,0 10.9949,39.6562,0 11.9728,39.7938,0 12.917,40.0204,0 13.8112,40.3322,0 14.6402,40.7239,0 15.3899,41.1888,0 16.0473,41.7189,0 16.6012,42.3051,0 17.0422,42.9374,0 17.3627,43.605,0 17.5572,44.2965,0 17.6224,45.0,0</coordinates></LineString></Placemark>
<Placemark><styleUrl>#ring_3</styleUrl><LineString><tessellate>1</tessellate><altitudeMode>relativeToGround</altitudeMode><coordinates>123.72,15.0,0 123.6882,15.469,0 123.5932,15.93,0 123.4368,16.3751,0 123.2216,16.7966,0 122.9513,17.1874,0 122.6304,17.5408,0 122.2646,17.8507,0 121.86,18.1118,0 121.4236,18.3197,0 120.9628,18.4708,0 120.4856,18.5625,0 120.0,18.5932,0 119.5144,18.5625,0 119.0372,18.4708,0 118.5764,18.3197,0 118.14,18.1118,0 117.7354,17.8507,0 117.3696,17.5408,0 117.0487,17.1874,0 116.7784,16.7966,0 116.5632,16.3751,0 116.4068,15.93,0 116.3118,15.469,0 116.28,15.0,0 116.3118,14.531,0 116.4068,14.07,0 116.5632,13.6249,0 116.7784,13.2034,0 117.0487,12.8126,0 117.3696,12.4592,0 117.7354,12.1493,0 118.14,11.8882,0 118.5764,11.6803,0 119.0372,11.5292,0 119.5144,11.4375,0 120.0,11.4068,0 120.4856,11.4375,0 120.9628,11.5292,0 121.4236,11.6803,0 121.86,11.8882,0 122.2646,12.1493,0 122.6304,12.4592,0 122.9513,12.8126,0 123.2216,13.2034,0 123.4368,13.6249,0 123.5932,14.07,0 123.6882,14.531,0 123.72,15.0,0</coordinates></LineString></Placemark>
<Placemark><styleUrl>#ring_3</styleUrl><LineString><tessellate>1</tessellate><altitudeMode>relativeToGround</altitudeMode><coordinates>126.51,15.0,0 126.4543,15.8208,0 126.2882,16.6275,0 126.0145,17.4064,0 125.6378,18.1441,0 125.1647,18.828,0 124.6033,19.4464,0 123.963,19.9887,0 123.255,20.4457,0 122.4913,20.8095,0 121.6849,21.0739,0 120.8497,21.2344,0 120.0,21.2882,0 119.1503,21.2344,0 118.3151,21.0739,0 117.5087,20.8095,0 116.745,20.4457,0 116.037,19.9887,0 115.3967,19.4464,0 114.8353,18.828,0 114.3622,18.1441,0 113.9855,17.4064,0 113.7118,16.6275,0 113.5457,15.8208,0 113.49,15.0,0 113.5457,14.1792,0 113.7118,13.3725,0 113.9855,12.5936,0 114.3622,11.8559,0 114.8353,11.172,0 115.3967,10.5536,0 116.037,10.0113,0 116.745,9.5543,0 117.5087,9.1905,0 118.3151,8.9261,0 119.1503,8.7656,0 120.0,8.7118,0 120.8497,8.7656,0 121.6849,8.9261,0 122.4913,9.1905,0 123.255,9.5543,0 123.963,10.0113,0 124.6033,10.5536,0 125.1647,11.172,0 125.6378,11.8559,0 126.0145,12.5936,0 126.2882,13.3725,0 126.4543,14.1792,0 126.51,15.0,0</coordinates></LineString></Placemark>
<Placemark><styleUrl>#col_4</styleUrl><Polygon><extrude>1</extrude><tessellate>1</tessellate><altitudeMode>relativeToGround</altitudeMode><outerBoundaryIs><LinearRing><coordinates>29.8,24.8,22000 30.2,24.8,22000 30.2,25.2,22000 29.8,25.2,22000 29.8,24.8,22000</coordinates></LinearRing></outerBoundaryIs></Polygon></Placemark>
<Placemark><styleUrl>#dot_5</styleUrl><Point><altitudeMode>relativeToGround</altitudeMode><coordinates>10.0,45.0,0</coordinates></Point></Placemark>
<Placemark><styleUrl>#dot_5</styleUrl><Point><altitudeMode>relativeToGround</altitudeMode><coordinates>120.0,15.0,0</coordinates></Point></Placemark>
<Placemark><styleUrl>#dot_5</styleUrl><Point><altitudeMode>relativeToGround</altitudeMode><coordinates>30.0,25.0,0</coordinates></Point></Placemark>
<Placemark><styleUrl>#ring_6</styleUrl><LineString><tessellate>1</tessellate><altitudeMode>relativeToGround</altitudeMode><coordinates>30.6542,25.0,0 30.6486,25.0774,0 30.6319,25.1535,0 30.6044,25.2269,0 30.5665,25.2964,0 30.519,25.3609,0 30.4626,25.4192,0 30.3982,25.4704,0 30.3271,25.5135,0 30.2503,25.5478,0 30.1693,25.5727,0 30.0854,25.5878,0 30.0,25.5929,0 29.9146,25.5878,0 29.8307,25.5727,0 29.7497,25.5478,0 29.6729,25.5135,0 29.6018,25.4704,0 29.5374,25.4192,0 29.481,25.3609,0 29.4335,25.2964,0 29.3956,25.2269,0 29.3681,25.1535,0 29.3514,25.0774,0 29.3458,25.0,0 29.3514,24.9226,0 29.3681,24.8465,0 29.3956,24.7731,0 29.4335,24.7036,0 29.481,24.6391,0 29.5374,24.5808,0 29.6018,24.5296,0 29.6729,24.4865,0 29.7497,24.4522,0 29.8307,24.4273,0 29.9146,24.4122,0 30.0,24.4071,0 30.0854,24.4122,0 30.1693,24.4273,0 30.2503,24.4522,0 30.3271,24.4865,0 30.3982,24.5296,0 30.4626,24.5808,0 30.519,24.6391,0 30.5665,24.7036,0 30.6044,24.7731,0 30.6319,24.8465,0 30.6486,24.9226,0 30.6542,25.0,0</coordinates></LineString></Placemark>
<Placemark><styleUrl>#ring_7</styleUrl><LineString><tessellate>1</tessellate><altitudeMode>relativeToGround</altitudeMode><coordinates>31.011,25.0,0 31.0024,25.1196,0 30.9766,25.2372,0 30.934,25.3506,0 30.8756,25.4581,0 30.8021,25.5578,0 30.7149,25.6479,0 30.6155,25.7269,0 30.5055,25.7935,0 30.3869,25.8465,0 30.2617,25.8851,0 30.132,25.9084,0 30.0,25.9163,0 29.868,25.9084,0 29.7383,25.8851,0 29.6131,25.8465,0 29.4945,25.7935,0 29.3845,25.7269,0 29.2851,25.6479,0 29.1979,25.5578,0 29.1244,25.4581,0 29.066,25.3506,0 29.0234,25.2372,0 28.9976,25.1196,0 28.989,25.0,0 28.9976,24.8804,0 29.0234,24.7628,0 29.066,24.6494,0 29.1244,24.5419,0 29.1979,24.4422,0 29.2851,24.3521,0 29.3845,24.2731,0 29.4945,24.2065,0 29.6131,24.1535,0 29.7383,24.1149,0 29.868,24.0916,0 30.0,24.0837,0 30.132,24.0916,0 30.2617,24.1149,0 30.3869,24.1535,0 30.5055,24.2065,0 30.6155,24.2731,0 30.7149,24.3521,0 30.8021,24.4422,0 30.8756,24.5419,0 30.934,24.6494,0 30.9766,24.7628,0 31.0024,24.8804,0 31.011,25.0,0</coordinates></LineString></Placemark>
<Placemark><styleUrl>#ring_8</styleUrl><LineString><tessellate>1</tessellate><altitudeMode>relativeToGround</altitudeMode><coordinates>31.3678,25.0,0 31.3561,25.1618,0 31.3212,25.3209,0 31.2637,25.4744,0 31.1846,25.6198,0 31.0852,25.7547,0 30.9672,25.8766,0 30.8327,25.9835,0 30.6839,26.0736,0 30.5234,26.1453,0 30.354,26.1974,0 30.1785,26.2291,0 30.0,26.2397,0 29.8215,26.2291,0 29.646,26.1974,0 29.4766,26.1453,0 29.3161,26.0736,0 29.1673,25.9835,0 29.0328,25.8766,0 28.9148,25.7547,0 28.8154,25.6198,0 28.7363,25.4744,0 28.6788,25.3209,0 28.6439,25.1618,0 28.6322,25.0,0 28.6439,24.8382,0 28.6788,24.6791,0 28.7363,24.5256,0 28.8154,24.3802,0 28.9148,24.2453,0 29.0328,24.1234,0 29.1673,24.0165,0 29.3161,23.9264,0 29.4766,23.8547,0 29.646,23.8026,0 29.8215,23.7709,0 30.0,23.7603,0 30.1785,23.7709,0 30.354,23.8026,0 30.5234,23.8547,0 30.6839,23.9264,0 30.8327,24.0165,0 30.9672,24.1234,0 31.0852,24.2453,0 31.1846,24.3802,0 31.2637,24.5256,0 31.3212,24.6791,0 31.3561,24.8382,0 31.3678,25.0,0</coordinates></LineString></Placemark>
</Document></kml>
