<?xml version="1.0" encoding="UTF-8"?>
<kml xmlns="http://www.opengis.net/kml/2.2">
<Document><name>Indonesia Palm Oil</name>
<LookAt><longitude>113.0</longitude><latitude>-0.5</latitude><range>1800000</range><tilt>45</tilt><heading>0</heading><altitudeMode>relativeToGround</altitudeMode></LookAt>
<Style id="poly_0"><PolyStyle><color>662b5a8e</color></PolyStyle></Style>
<Style id="line_1"><LineStyle><color>ff2b5a8e</color><width>4</width></LineStyle></Style>
<Style id="line_2"><LineStyle><color>ff2b5a8e</color><width>2</width></LineStyle></Style>
<Style id="jag_3"><LineStyle><color>ff303bff</color><width>3</width></LineStyle></Style>
<Style id="dot_4"><IconStyle><scale>0.7</scale><Icon><href>http://maps.google.com/mapfiles/kml/paddle/green-circle.png</href></Icon></IconStyle></Style>
<Style id="ring_5"><LineStyle><color>ff0095ff</color><width>2</width></LineStyle></Style>
<Style id="ring_6"><LineStyle><color>550095ff</color><width>3</width></LineStyle></Style>
<Style id="ring_7"><LineStyle><color>3c0095ff</color><width>3</width></LineStyle></Style>
<Style id="ring_8"><LineStyle><color>280095ff</color><width>3</width></LineStyle></Style>
<Placemark><styleUrl>#poly_0</styleUrl><Polygon><tessellate>1</tessellate><altitudeMode>relativeToGround</altitudeMode><outerBoundaryIs><LinearRing><coordinates>112.0,0.0,0 114.0,0.0,0 114.0,-1.5,0 112.0,-1.5,0 112.0,0.0,0</coordinates></LinearRing></outerBoundaryIs></Polygon></Placemark>
<Placemark><styleUrl>#line_1</styleUrl><LineString><tessellate>1</tessellate><altitudeMode>relativeToGround</altitudeMode><coordinates>111.5,0.5,0 113.0,-0.5,0 114.5,-1.0,0</coordinates></LineString></Placemark>
<Placemark><styleUrl>#line_2</styleUrl><LineString><tessellate>1</tessellate><altitudeMode>relativeToGround</altitudeMode><coordinates>112.0,-0.8,0 113.5,-0.6,0 114.5,-0.3,0</coordinates></LineString></Placemark>
<Placemark><styleUrl>#jag_3</styleUrl><LineString><tessellate>1</tessellate><altitudeMode>relativeToGround</altitudeMode><coordinates>113.0,0.2,0.0 113.5,-0.1,0.5 114.0,0.3,0.0</coordinates></LineString></Placemark>
<Placemark><styleUrl>#dot_4</styleUrl><Point><altitudeMode>relativeToGround</altitudeMode><coordinates>112.5,-0.2,0</coordinates></Point></Placemark>
<Placemark><styleUrl>#dot_4</styleUrl><Point><altitudeMode>relativeToGround</altitudeMode><coordinates>113.2,-0.8,0</coordinates></Point></Placemark>
<Placemark><styleUrl>#dot_4</styleUrl><Point><altitudeMode>relativeToGround</altitudeMode><coordinates>113.8,-0.4,0</coordinates></Point></Placemark>
<Placemark><styleUrl>#ring_5</styleUrl><LineString><tessellate>1</tessellate><altitudeMode>relativeToGround</altitudeMode><coordinates>114.3475,-0.5,0 114.336,-0.3241,0 114.3016,-0.1512,0 114.2449,0.0157,0 114.167,0.1737,0 114.0691,0.3203,0 113.9528,0.4528,0 113.8203,0.569,0 113.6738,0.6669,0 113.5157,0.7449,0 113.3488,0.8016,0 113.1759,0.8359,0 113.0,0.8475,0 112.8241,0.8359,0 112.6512,0.8016,0 112.4843,0.7449,0 112.3262,0.6669,0 112.1797,0.569,0 112.0472,0.4528,0 111.9309,0.3203,0 111.833,0.1737,0 111.7551,0.0157,0 111.6984,-0.1512,0 111.664,-0.3241,0 111.6525,-0.5,0 111.664,-0.6759,0 111.6984,-0.8488,0 111.7551,-1.0157,0 111.833,-1.1737,0 111.9309,-1.3203,0 112.0472,-1.4528,0 112.1797,-1.569,0 112.3262,-1.6669,0 112.4843,-1.7449,0 112.6512,-1.8016,0 112.8241,-1.8359,0 113.0,-1.8475,0 113.1759,-1.8359,0 113.3488,-1.8016,0 113.5157,-1.7449,0 113.6738,-1.6669,0 113.8203,-1.569,0 113.9528,-1.4528,0 114.0691,-1.3203,0 114.167,-1.1737,0 114.2449,-1.0157,0 114.3016,-0.8488,0 114.336,-0.6759,0 114.3475,-0.5,0</coordinates></LineString></Placemark>
<Placemark><styleUrl>#ring_5</styleUrl><LineString><tessellate>1</tessellate><altitudeMode>relativeToGround</altitudeMode><coordinates>115.695,-0.5,0 115.672,-0.1482,0 115.6032,0.1975,0 115.4899,0.5313,0 115.334,0.8475,0 115.1381,1.1406,0 114.9057,1.4056,0 114.6406,1.638,0 114.3475,1.8339,0 114.0313,1.9898,0 113.6975,2.1031,0 113.3518,2.1719,0 113.0,2.1949,0 112.6482,2.1719,0 112.3025,2.1031,0 111.9687,1.9898,0 111.6525,1.8339,0 111.3594,1.638,0 111.0943,1.4056,0 110.8619,1.1406,0 110.666,0.8475,0 110.5101,0.5313,0 110.3968,0.1975,0 110.328,-0.1482,0 110.305,-0.5,0 110.328,-0.8518,0 110.3968,-1.1975,0 110.5101,-1.5313,0 110.666,-1.8475,0 110.8619,-2.1406,0 111.0943,-2.4056,0 111.3594,-2.638,0 111.6525,-2.8339,0 111.9687,-2.9898,0 112.3025,-3.1031,0 112.6482,-3.1719,0 113.0,-3.1949,0 113.3518,-3.1719,0 113.6975,-3.1031,0 114.0313,-2.9898,0 114.3475,-2.8339,0 114.6406,-2.638,0 114.9057,-2.4056,0 115.1381,-2.1406,0 115.334,-1.8475,0 115.4899,-1.5313,0 115.6032,-1.1975,0 115.672,-0.8518,0 115.695,-0.5,0</coordinates></LineString></Placemark>
<Placemark><styleUrl>#ring_6</styleUrl><LineString><tessellate>1</tessellate><altitudeMode>relativeToGround</altitudeMode><coordinates>113.5929,-0.5,0 113.5878,-0.4226,0 113.5727,-0.3465,0 113.5478,-0.2731,0 113.5135,-0.2036,0 113.4704,-0.1391,0 113.4192,-0.0808,0 113.3609,-0.0296,0 113.2965,0.0135,0 113.2269,0.0478,0 113.1535,0.0727,0 113.0774,0.0878,0 113.0,0.0929,0 112.9226,0.0878,0 112.8465,0.0727,0 112.7731,0.0478,0 112.7035,0.0135,0 112.6391,-0.0296,0 112.5808,-0.0808,0 112.5296,-0.1391,0 112.4865,-0.2036,0 112.4522,-0.2731,0 112.4273,-0.3465,0 112.4122,-0.4226,0 112.4071,-0.5,0 112.4122,-0.5774,0 112.4273,-0.6535,0 112.4522,-0.7269,0 112.4865,-0.7964,0 112.5296,-0.8609,0 112.5808,-0.9192,0 112.6391,-0.9704,0 112.7035,-1.0135,0 112.7731,-1.0478,0 112.8465,-1.0727,0 112.9226,-1.0878,0 113.0,-1.0929,0 113.0774,-1.0878,0 113.1535,-1.0727,0 113.2269,-1.0478,0 113.2965,-1.0135,0 113.3609,-0.9704,0 113.4192,-0.9192,0 113.4704,-0.8609,0 113.5135,-0.7964,0 113.5478,-0.7269,0 113.5727,-0.6535,0 113.5878,-0.5774,0 113.5929,-0.5,0</coordinates></LineString></Placemark>
<Placemark><styleUrl>#ring_7</styleUrl><LineString><tessellate>1</tessellate><altitudeMode>relativeToGround</altitudeMode><coordinates>113.9163,-0.5,0 113.9085,-0.3804,0 113.8851,-0.2628,0 113.8466,-0.1494,0 113.7935,-0.0419,0 113.727,0.0578,0 113.6479,0.1479,0 113.5578,0.2269,0 113.4582,0.2935,0 113.3507,0.3465,0 113.2372,0.3851,0 113.1196,0.4084,0 113.0,0.4163,0 112.8804,0.4084,0 112.7628,0.3851,0 112.6493,0.3465,0 112.5418,0.2935,0 112.4422,0.2269,0 112.3521,0.1479,0 112.273,0.0578,0 112.2065,-0.0419,0 112.1534,-0.1494,0 112.1149,-0.2628,0 112.0915,-0.3804,0 112.0837,-0.5,0 112.0915,-0.6196,0 112.1149,-0.7372,0 112.1534,-0.8506,0 112.2065,-0.9581,0 112.273,-1.0578,0 112.3521,-1.1479,0 112.4422,-1.2269,0 112.5418,-1.2935,0 112.6493,-1.3465,0 112.7628,-1.3851,0 112.8804,-1.4084,0 113.0,-1.4163,0 113.1196,-1.4084,0 113.2372,-1.3851,0 113.3507,-1.3465,0 113.4582,-1.2935,0 113.5578,-1.2269,0 113.6479,-1.1479,0 113.727,-1.0578,0 113.7935,-0.9581,0 113.8466,-0.8506,0 113.8851,-0.7372,0 113.9085,-0.6196,0 113.9163,-0.5,0</coordinates></LineString></Placemark>
<Placemark><styleUrl>#ring_8</styleUrl><LineString><tessellate>1</tessellate><altitudeMode>relativeToGround</altitudeMode><coordinates>114.2397,-0.5,0 114.2291,-0.3382,0 114.1975,-0.1791,0 114.1453,-0.0256,0 114.0736,0.1198,0 113.9835,0.2547,0 113.8766,0.3766,0 113.7547,0.4835,0 113.6199,0.5736,0 113.4744,0.6453,0 113.3209,0.6974,0 113.1618,0.7291,0 113.0,0.7397,0 112.8382,0.7291,0 112.6791,0.6974,0 112.5256,0.6453,0 112.3801,0.5736,0 112.2453,0.4835,0 112.1234,0.3766,0 112.0165,0.2547,0 111.9264,0.1198,0 111.8547,-0.0256,0 111.8025,-0.1791,0 111.7709,-0.3382,0 111.7603,-0.5,0 111.7709,-0.6618,0 111.8025,-0.8209,0 111.8547,-0.9744,0 111.9264,-1.1198,0 112.0165,-1.2547,0 112.1234,-1.3766,0 112.2453,-1.4835,0 112.3801,-1.5736,0 112.5256,-1.6453,0 112.6791,-1.6974,0 112.8382,-1.7291,0 113.0,-1.7397,0 113.1618,-1.7291,0 113.3209,-1.6974,0 113.4744,-1.6453,0 113.6199,-1.5736,0 113.7547,-1.4835,0 113.8766,-1.3766,0 113.9835,-1.2547,0 114.0736,-1.1198,0 114.1453,-0.9744,0 114.1975,-0.8209,0 114.2291,-0.6618,0 114.2397,-0.5,0</coordinates></LineString></Placemark>
</Document></kml>
