<?xml version="1.0" encoding="UTF-8"?>
<kml xmlns="http://www.opengis.net/kml/2.2" xmlns:gx="http://www.google.com/kml/ext/2.2" xmlns:kml="http://www.opengis.net/kml/2.2">
<Document><name>Global Equity Heatmap</name>
<LookAt><longitude>0.0</longitude><latitude>25.0</latitude><range>9000000</range><tilt>40</tilt><heading>0</heading><altitudeMode>relativeToGround</altitudeMode></LookAt>
<Style id="col_0"><LineStyle><color>ff59c734</color><width>1</width></LineStyle><PolyStyle><color>ff59c734</color></PolyStyle></Style>
<Style id="col_1"><LineStyle><color>ff59c734</color><width>1</width></LineStyle><PolyStyle><color>ff59c734</color></PolyStyle></Style>
<Style id="col_2"><LineStyle><color>ff303bff</color><width>1</width></LineStyle><PolyStyle><color>ff303bff</color></PolyStyle></Style>
<Style id="col_3"><LineStyle><color>ff59c734</color><width>1</width></LineStyle><PolyStyle><color>ff59c734</color></PolyStyle></Style>
<Style id="poly_4"><PolyStyle><color>2259c734</color></PolyStyle></Style>
<Style id="line_5"><LineStyle><color>ff0ad6ff</color><width>3</width></LineStyle></Style>
<Style id="ring_6"><LineStyle><color>ff938e8e</color><width>1</width></LineStyle></Style>
<Style id="ring_7"><LineStyle><color>5559c734</color><width>3</width></LineStyle></Style>
<Style id="ring_8"><LineStyle><color>3c59c734</color><width>3</width></LineStyle></Style>
<Style id="ring_9"><LineStyle><color>2859c734</color><width>3</width></LineStyle></Style>
<Placemark><styleUrl>#col_0</styleUrl><Polygon><extrude>1</extrude><tessellate>1</tessellate><altitudeMode>relativeToGround</altitudeMode><outerBoundaryIs><LinearRing><coordinates>-95.3,39.7,30000 -94.7,39.7,30000 -94.7,40.3,30000 -95.3,40.3,30000 -95.3,39.7,30000</coordinates></LinearRing></outerBoundaryIs></Polygon></Placemark>
<Placemark><styleUrl>#col_1</styleUrl><Polygon><extrude>1</extrude><tessellate>1</tessellate><altitudeMode>relativeToGround</altitudeMode><outerBoundaryIs><LinearRing><coordinates>9.75,49.75,18000 10.25,49.75,18000 10.25,50.25,18000 9.75,50.25,18000 9.75,49.75,18000</coordinates></LinearRing></outerBoundaryIs></Polygon></Placemark>
<Placemark><styleUrl>#col_2</styleUrl><Polygon><extrude>1</extrude><tessellate>1</tessellate><altitudeMode>relativeToGround</altitudeMode><outerBoundaryIs><LinearRing><coordinates>137.75,34.75,12000 138.25,34.75,12000 138.25,35.25,12000 137.75,35.25,12000 137.75,34.75,12000</coordinates></LinearRing></outerBoundaryIs></Polygon></Placemark>
<Placemark><styleUrl>#col_3</styleUrl><Polygon><extrude>1</extrude><tessellate>1</tessellate><altitudeMode>relativeToGround</altitudeMode><outerBoundaryIs><LinearRing><coordinates>76.75,19.75,22000 77.25,19.75,22000 77.25,20.25,22000 76.75,20.25,22000 76.75,19.75,22000</coordinates></LinearRing></outerBoundaryIs></Polygon></Placemark>
<Placemark><styleUrl>#poly_4</styleUrl><Polygon><tessellate>1</tessellate><altitudeMode>relativeToGround</altitudeMode><outerBoundaryIs><LinearRing><coordinates>-125.0,25.0,0 -65.0,25.0,0 -70.0,50.0,0 -130.0,50.0,0 -125.0,25.0,0</coordinates></LinearRing></outerBoundaryIs></Polygon></Placemark>
<Placemark><styleUrl>#line_5</styleUrl><LineString><tessellate>1</tessellate><altitudeMode>relativeToGround</altitudeMode><coordinates>-95.0,40.0,0 10.0,50.0,0 77.0,20.0,0 138.0,35.0,0</coordinates></LineString></Placemark>
<Placemark><styleUrl>#ring_6</styleUrl><LineString><tessellate>1</tessellate><altitudeMode>relativeToGround</altitudeMode><coordinates>19.8235,25.0,0 19.6539,27.3451,0 19.1481,29.65,0 18.3146,31.8754,0 17.1677,33.9831,0 15.7271,35.9371,0 14.0174,37.704,0 12.0678,39.2536,0 9.9118,40.5592,0 7.5861,41.5986,0 5.1307,42.354,0 2.5875,42.8125,0 0.0,42.9662,0 -2.5875,42.8125,0 -5.1307,42.354,0 -7.5861,41.5986,0 -9.9118,40.5592,0 -12.0678,39.2536,0 -14.0174,37.704,0 -15.7271,35.9371,0 -17.1677,33.9831,0 -18.3146,31.8754,0 -19.1481,29.65,0 -19.6539,27.3451,0 -19.8235,25.0,0 -19.6539,22.6549,0 -19.1481,20.35,0 -18.3146,18.1246,0 -17.1677,16.0169,0 -15.7271,14.0629,0 -14.0174,12.296,0 -12.0678,10.7464,0 -9.9118,9.4408,0 -7.5861,8.4014,0 -5.1307,7.646,0 -2.5875,7.1875,0 -0.0,7.0338,0 2.5875,7.1875,0 5.1307,7.646,0 7.5861,8.4014,0 9.9118,9.4408,0 12.0678,10.7464,0 14.0174,12.296,0 15.7271,14.0629,0 17.1677,16.0169,0 18.3146,18.1246,0 19.1481,20.35,0 19.6539,22.6549,0 19.8235,25.0,0</coordinates></LineString></Placemark>
<Placemark><styleUrl>#ring_6</styleUrl><LineString><tessellate>1</tessellate><altitudeMode>relativeToGround</altitudeMode><coordinates>39.6471,25.0,0 39.3079,29.6901,0 38.2961,34.3,0 36.6291,38.7508,0 34.3354,42.9662,0 31.4541,46.8743,0 28.0347,50.4081,0 24.1356,53.5071,0 19.8235,56.1184,0 15.1723,58.1973,0 10.2614,59.7081,0 5.175,60.625,0 0.0,60.9324,0 -5.175,60.625,0 -10.2614,59.7081,0 -15.1723,58.1973,0 -19.8235,56.1184,0 -24.1356,53.5071,0 -28.0347,50.4081,0 -31.4541,46.8743,0 -34.3354,42.9662,0 -36.6291,38.7508,0 -38.2961,34.3,0 -39.3079,29.6901,0 -39.6471,25.0,0 -39.3079,20.3099,0 -38.2961,15.7,0 -36.6291,11.2492,0 -34.3354,7.0338,0 -31.4541,3.1257,0 -28.0347,-0.4081,0 -24.1356,-3.5071,0 -19.8235,-6.1184,0 -15.1723,-8.1973,0 -10.2614,-9.7081,0 -5.175,-10.625,0 -0.0,-10.9324,0 5.175,-10.625,0 10.2614,-9.7081,0 15.1723,-8.1973,0 19.8235,-6.1184,0 24.1356,-3.5071,0 28.0347,-0.4081,0 31.4541,3.1257,0 34.3354,7.0338,0 36.6291,11.2492,0 38.2961,15.7,0 39.3079,20.3099,0 39.6471,25.0,0</coordinates></LineString></Placemark>
<Placemark><styleUrl>#ring_7</styleUrl><LineString><tessellate>1</tessellate><altitudeMode>relativeToGround</altitudeMode><coordinates>0.6542,25.0,0 0.6486,25.0774,0 0.6319,25.1535,0 0.6044,25.2269,0 0.5665,25.2964,0 0.519,25.3609,0 0.4626,25.4192,0 0.3982,25.4704,0 0.3271,25.5135,0 0.2503,25.5478,0 0.1693,25.5727,0 0.0854,25.5878,0 0.0,25.5929,0 -0.0854,25.5878,0 -0.1693,25.5727,0 -0.2503,25.5478,0 -0.3271,25.5135,0 -0.3982,25.4704,0 -0.4626,25.4192,0 -0.519,25.3609,0 -0.5665,25.2964,0 -0.6044,25.2269,0 -0.6319,25.1535,0 -0.6486,25.0774,0 -0.6542,25.0,0 -0.6486,24.9226,0 -0.6319,24.8465,0 -0.6044,24.7731,0 -0.5665,24.7036,0 -0.519,24.6391,0 -0.4626,24.5808,0 -0.3982,24.5296,0 -0.3271,24.4865,0 -0.2503,24.4522,0 -0.1693,24.4273,0 -0.0854,24.4122,0 -0.0,24.4071,0 0.0854,24.4122,0 0.1693,24.4273,0 0.2503,24.4522,0 0.3271,24.4865,0 0.3982,24.5296,0 0.4626,24.5808,0 0.519,24.6391,0 0.5665,24.7036,0 0.6044,24.7731,0 0.6319,24.8465,0 0.6486,24.9226,0 0.6542,25.0,0</coordinates></LineString></Placemark>
<Placemark><styleUrl>#ring_8</styleUrl><LineString><tessellate>1</tessellate><altitudeMode>relativeToGround</altitudeMode><coordinates>1.011,25.0,0 1.0024,25.1196,0 0.9766,25.2372,0 0.934,25.3506,0 0.8756,25.4581,0 0.8021,25.5578,0 0.7149,25.6479,0 0.6155,25.7269,0 0.5055,25.7935,0 0.3869,25.8465,0 0.2617,25.8851,0 0.132,25.9084,0 0.0,25.9163,0 -0.132,25.9084,0 -0.2617,25.8851,0 -0.3869,25.8465,0 -0.5055,25.7935,0 -0.6155,25.7269,0 -0.7149,25.6479,0 -0.8021,25.5578,0 -0.8756,25.4581,0 -0.934,25.3506,0 -0.9766,25.2372,0 -1.0024,25.1196,0 -1.011,25.0,0 -1.0024,24.8804,0 -0.9766,24.7628,0 -0.934,24.6494,0 -0.8756,24.5419,0 -0.8021,24.4422,0 -0.7149,24.3521,0 -0.6155,24.2731,0 -0.5055,24.2065,0 -0.3869,24.1535,0 -0.2617,24.1149,0 -0.132,24.0916,0 -0.0,24.0837,0 0.132,24.0916,0 0.2617,24.1149,0 0.3869,24.1535,0 0.5055,24.2065,0 0.6155,24.2731,0 0.7149,24.3521,0 0.8021,24.4422,0 0.8756,24.5419,0 0.934,24.6494,0 0.9766,24.7628,0 1.0024,24.8804,0 1.011,25.0,0</coordinates></LineString></Placemark>
<Placemark><styleUrl>#ring_9</styleUrl><LineString><tessellate>1</tessellate><altitudeMode>relativeToGround</altitudeMode><coordinates>1.3678,25.0,0 1.3561,25.1618,0 1.3212,25.3209,0 1.2637,25.4744,0 1.1846,25.6198,0 1.0852,25.7547,0 0.9672,25.8766,0 0.8327,25.9835,0 0.6839,26.0736,0 0.5234,26.1453,0 0.354,26.1974,0 0.1785,26.2291,0 0.0,26.2397,0 -0.1785,26.2291,0 -0.354,26.1974,0 -0.5234,26.1453,0 -0.6839,26.0736,0 -0.8327,25.9835,0 -0.9672,25.8766,0 -1.0852,25.7547,0 -1.1846,25.6198,0 -1.2637,25.4744,0 -1.3212,25.3209,0 -1.3561,25.1618,0 -1.3678,25.0,0 -1.3561,24.8382,0 -1.3212,24.6791,0 -1.2637,24.5256,0 -1.1846,24.3802,0 -1.0852,24.2453,0 -0.9672,24.1234,0 -0.8327,24.0165,0 -0.6839,23.9264,0 -0.5234,23.8547,0 -0.354,23.8026,0 -0.1785,23.7709,0 -0.0,23.7603,0 0.1785,23.7709,0 0.354,23.8026,0 0.5234,23.8547,0 0.6839,23.9264,0 0.8327,24.0165,0 0.9672,24.1234,0 1.0852,24.2453,0 1.1846,24.3802,0 1.2637,24.5256,0 1.3212,24.6791,0 1.3561,24.8382,0 1.3678,25.0,0</coordinates></LineString></Placemark>
</Document></kml>
