<?xml version="1.0" encoding="UTF-8"?>
<kml xmlns="http://www.opengis.net/kml/2.2" xmlns:gx="http://www.google.com/kml/ext/2.2" xmlns:kml="http://www.opengis.net/kml/2.2">
<Document><name>US Yield Curve</name>
<LookAt><longitude>-95.0</longitude><latitude>39.0</latitude><range>6000000</range><tilt>50</tilt><heading>0</heading><altitudeMode>relativeToGround</altitudeMode></LookAt>
<Style id="ter_0"><LineStyle><color>ff0ad6ff</color><width>1</width></LineStyle><PolyStyle><color>ff0ad6ff</color></PolyStyle></Style>
<Style id="col_1"><LineStyle><color>ff0ad6ff</color><width>1</width></LineStyle><PolyStyle><color>ff0ad6ff</color></PolyStyle></Style>
<Style id="col_2"><LineStyle><color>ff0ad6ff</color><width>1</width></LineStyle><PolyStyle><color>ff0ad6ff</color></PolyStyle></Style>
<Style id="line_3"><LineStyle><color>ff0ad6ff</color><width>3</width></LineStyle></Style>
<Style id="ring_4"><LineStyle><color>ff0ad6ff</color><width>2</width></LineStyle></Style>
<Style id="arc_5"><LineStyle><color>ff938e8e</color><width>2</width></LineStyle></Style>
<Placemark><styleUrl>#ter_0</styleUrl><Polygon><extrude>1</extrude><tessellate>1</tessellate><altitudeMode>relativeToGround</altitudeMode><outerBoundaryIs><LinearRing><coordinates>-95.5,38.5,20000.0 -94.5,38.5,20000.0 -94.5,39.5,20000.0 -95.5,39.5,20000.0 -95.5,38.5,20000.0</coordinates></LinearRing></outerBoundaryIs></Polygon></Placemark>
<Placemark><styleUrl>#ter_0</styleUrl><Polygon><extrude>1</extrude><tessellate>1</tessellate><altitudeMode>relativeToGround</altitudeMode><outerBoundaryIs><LinearRing><coordinates>-95.44,38.56,38000.0 -94.56,38.56,38000.0 -94.56,39.44,38000.0 -95.44,39.44,38000.0 -95.44,38.56,38000.0</coordinates></LinearRing></outerBoundaryIs></Polygon></Placemark>
<Placemark><styleUrl>#ter_0</styleUrl><Polygon><extrude>1</extrude><tessellate>1</tessellate><altitudeMode>relativeToGround</altitudeMode><outerBoundaryIs><LinearRing><coordinates>-95.38,38.62,54000.0 -94.62,38.62,54000.0 -94.62,39.38,54000.0 -95.38,39.38,54000.0 -95.38,38.62,54000.0</coordinates></LinearRing></outerBoundaryIs></Polygon></Placemark>
<Placemark><styleUrl>#ter_0</styleUrl><Polygon><extrude>1</extrude><tessellate>1</tessellate><altitudeMode>relativeToGround</altitudeMode><outerBoundaryIs><LinearRing><coordinates>-95.32,38.68,76000.0 -94.68,38.68,76000.0 -94.68,39.32,76000.0 -95.32,39.32,76000.0 -95.32,38.68,76000.0</coordinates></LinearRing></outerBoundaryIs></Polygon></Placemark>
<Placemark><styleUrl>#col_1</styleUrl><Polygon><extrude>1</extrude><tessellate>1</tessellate><altitudeMode>relativeToGround</altitudeMode><outerBoundaryIs><LinearRing><coordinates>-74.2,39.8,26000 -73.8,39.8,26000 -73.8,40.2,26000 -74.2,40.2,26000 -74.2,39.8,26000</coordinates></LinearRing></outerBoundaryIs></Polygon></Placemark>
<Placemark><styleUrl>#col_2</styleUrl><Polygon><extrude>1</extrude><tessellate>1</tessellate><altitudeMode>relativeToGround</altitudeMode><outerBoundaryIs><LinearRing><coordinates>-122.2,36.8,20000 -121.8,36.8,20000 -121.8,37.2,20000 -122.2,37.2,20000 -122.2,36.8,20000</coordinates></LinearRing></outerBoundaryIs></Polygon></Placemark>
<Placemark><styleUrl>#line_3</styleUrl><LineString><tessellate>1</tessellate><altitudeMode>relativeToGround</altitudeMode><coordinates>-122.0,37.0,0 -95.0,39.0,0 -74.0,40.0,0</coordinates></LineString></Placemark>
<Placemark><styleUrl>#ring_4</styleUrl><LineString><tessellate>1</tessellate><altitudeMode>relativeToGround</altitudeMode><coordinates>-91.5323,39.0,0 -91.5619,39.3518,0 -91.6504,39.6975,0 -91.7962,40.0313,0 -91.9969,40.3475,0 -92.2489,40.6406,0 -92.5479,40.9056,0 -92.889,41.138,0 -93.2661,41.3339,0 -93.673,41.4898,0 -94.1025,41.6031,0 -94.5474,41.6719,0 -95.0,41.6949,0 -95.4526,41.6719,0 -95.8975,41.6031,0 -96.327,41.4898,0 -96.7339,41.3339,0 -97.111,41.138,0 -97.4521,40.9056,0 -97.7511,40.6406,0 -98.0031,40.3475,0 -98.2038,40.0313,0 -98.3496,39.6975,0 -98.4381,39.3518,0 -98.4677,39.0,0 -98.4381,38.6482,0 -98.3496,38.3025,0 -98.2038,37.9687,0 -98.0031,37.6525,0 -97.7511,37.3594,0 -97.4521,37.0944,0 -97.111,36.862,0 -96.7339,36.6661,0 -96.327,36.5102,0 -95.8975,36.3969,0 -95.4526,36.3281,0 -95.0,36.3051,0 -94.5474,36.3281,0 -94.1025,36.3969,0 -93.673,36.5102,0 -93.2661,36.6661,0 -92.889,36.862,0 -92.5479,37.0944,0 -92.2489,37.3594,0 -91.9969,37.6525,0 -91.7962,37.9687,0 -91.6504,38.3025,0 -91.5619,38.6482,0 -91.5323,39.0,0</coordinates></LineString></Placemark>
<Placemark><styleUrl>#ring_4</styleUrl><LineString><tessellate>1</tessellate><altitudeMode>relativeToGround</altitudeMode><coordinates>-88.0645,39.0,0 -88.1239,39.7035,0 -88.3009,40.395,0 -88.5925,41.0626,0 -88.9937,41.6949,0 -89.4977,42.2811,0 -90.0959,42.8112,0 -90.778,43.2761,0 -91.5323,43.6678,0 -92.3459,43.9796,0 -93.205,44.2062,0 -94.0947,44.3438,0 -95.0,44.3899,0 -95.9053,44.3438,0 -96.795,44.2062,0 -97.6541,43.9796,0 -98.4677,43.6678,0 -99.222,43.2761,0 -99.9041,42.8112,0 -100.5023,42.2811,0 -101.0063,41.6949,0 -101.4075,41.0626,0 -101.6991,40.395,0 -101.8761,39.7035,0 -101.9355,39.0,0 -101.8761,38.2965,0 -101.6991,37.605,0 -101.4075,36.9374,0 -101.0063,36.3051,0 -100.5023,35.7189,0 -99.9041,35.1888,0 -99.222,34.7239,0 -98.4677,34.3322,0 -97.6541,34.0204,0 -96.795,33.7938,0 -95.9053,33.6562,0 -95.0,33.6101,0 -94.0947,33.6562,0 -93.205,33.7938,0 -92.3459,34.0204,0 -91.5323,34.3322,0 -90.778,34.7239,0 -90.0959,35.1888,0 -89.4977,35.7189,0 -88.9937,36.3051,0 -88.5925,36.9374,0 -88.3009,37.605,0 -88.1239,38.2965,0 -88.0645,39.0,0</coordinates></LineString></Placemark>
<Placemark><styleUrl>#arc_5</styleUrl><LineString><tessellate>1</tessellate><altitudeMode>relativeToGround</altitudeMode><coordinates>-99.3448,37.771,0 -99.2219,37.5349,0 -99.0777,37.3062,0 -98.913,37.0859,0 -98.7287,36.8753,0 -98.5257,36.6753,0 -98.3049,36.4871,0 -98.0675,36.3114,0 -97.8147,36.1493,0 -97.5478,36.0015,0 -97.268,35.8687,0 -96.9769,35.7517,0 -96.6758,35.6511,0 -96.3663,35.5672,0 -96.0499,35.5006,0 -95.7283,35.4516,0 -95.403,35.4204,0 -95.0757,35.4072,0 -94.7479,35.4121,0 -94.4215,35.435,0 -94.098,35.4758,0 -93.779,35.5343,0 -93.4661,35.6102,0 -93.161,35.7032,0 -92.865,35.8128,0 -92.5799,35.9383,0 -92.3068,36.0792,0 -92.0473,36.2349,0 -91.8027,36.4044,0 -91.5741,36.5869,0 -91.3627,36.7816,0 -91.1696,36.9874,0 -90.9958,37.2034,0</coordinates></LineString></Placemark>
</Document></kml>
