<?xml version="1.0" encoding="UTF-8"?>
<kml xmlns="http://www.opengis.net/kml/2.2" xmlns:gx="http://www.google.com/kml/ext/2.2" xmlns:kml="http://www.opengis.net/kml/2.2">
<Document><name>Global Instability 2025</name>
<LookAt><longitude>10.0</longitude><latitude>20.0</latitude><range>9000000</range><tilt>35</tilt><heading>0</heading><altitudeMode>relativeToGround</altitudeMode></LookAt>
<Style id="ring_0"><LineStyle><color>ff3a45ff</color><width>3</width></LineStyle></Style>
<Style id="ring_1"><LineStyle><color>ff0095ff</color><width>3</width></LineStyle></Style>
<Style id="ring_2"><LineStyle><color>ff00c4ff</color><width>2</width></LineStyle></Style>
<Style id="col_3"><LineStyle><color>ff3a45ff</color><width>1</width></LineStyle><PolyStyle><color>ff3a45ff</color></PolyStyle></Style>
<Style id="col_4"><LineStyle><color>ff0095ff</color><width>1</width></LineStyle><PolyStyle><color>ff0095ff</color></PolyStyle></Style>
<Style id="col_5"><LineStyle><color>ff00c4ff</color><width>1</width></LineStyle><PolyStyle><color>ff00c4ff</color></PolyStyle></Style>
<Style id="line_6"><LineStyle><color>fff25abf</color><width>2</width></LineStyle></Style>
<Style id="ter_7"><LineStyle><color>ff3a45ff</color><width>1</width></LineStyle><PolyStyle><color>ff3a45ff</color></PolyStyle></Style>
<Placemark><styleUrl>#ring_0</styleUrl><LineString><tessellate>1</tessellate><altitudeMode>relativeToGround</altitudeMode><coordinates>40.1864,30.0,0 40.142,30.5863,0 40.0097,31.1625,0 39.7916,31.7188,0 39.4916,32.2458,0 39.1146,32.7343,0 38.6673,33.176,0 38.1573,33.5634,0 37.5932,33.8898,0 36.9848,34.1497,0 36.3423,34.3385,0 35.677,34.4531,0 35.0,34.4916,0 34.323,34.4531,0 33.6577,34.3385,0 33.0152,34.1497,0 32.4068,33.8898,0 31.8427,33.5634,0 31.3327,33.176,0 30.8854,32.7343,0 30.5084,32.2458,0 30.2084,31.7188,0 29.9903,31.1625,0 29.858,30.5863,0 29.8136,30.0,0 29.858,29.4137,0 29.9903,28.8375,0 30.2084,28.2812,0 30.5084,27.7542,0 30.8854,27.2657,0 31.3327,26.824,0 31.8427,26.4366,0 32.4068,26.1102,0 33.0152,25.8503,0 33.6577,25.6615,0 34.323,25.5469,0 35.0,25.5084,0 35.677,25.5469,0 36.3423,25.6615,0 36.9848,25.8503,0 37.5932,26.1102,0 38.1573,26.4366,0 38.6673,26.824,0 39.1146,27.2657,0 39.4916,27.7542,0 39.7916,28.2812,0 40.0097,28.8375,0 40.142,29.4137,0 40.1864,30.0,0</coordinates></LineString></Placemark>
<Placemark><styleUrl>#ring_0</styleUrl><LineString><tessellate>1</tessellate><altitudeMode>relativeToGround</altitudeMode><coordinates>45.3728,30.0,0 45.2841,31.1725,0 45.0194,32.325,0 44.5832,33.4377,0 43.9831,34.4916,0 43.2293,35.4686,0 42.3347,36.352,0 41.3146,37.1268,0 40.1864,37.7796,0 38.9695,38.2993,0 37.6847,38.677,0 36.3539,38.9063,0 35.0,38.9831,0 33.6461,38.9063,0 32.3153,38.677,0 31.0305,38.2993,0 29.8136,37.7796,0 28.6854,37.1268,0 27.6653,36.352,0 26.7707,35.4686,0 26.0169,34.4916,0 25.4168,33.4377,0 24.9806,32.325,0 24.7159,31.1725,0 24.6272,30.0,0 24.7159,28.8275,0 24.9806,27.675,0 25.4168,26.5623,0 26.0169,25.5084,0 26.7707,24.5314,0 27.6653,23.648,0 28.6854,22.8732,0 29.8136,22.2204,0 31.0305,21.7007,0 32.3153,21.323,0 33.6461,21.0937,0 35.0,21.0169,0 36.3539,21.0937,0 37.6847,21.323,0 38.9695,21.7007,0 40.1864,22.2204,0 41.3146,22.8732,0 42.3347,23.648,0 43.2293,24.5314,0 43.9831,25.5084,0 44.5832,26.5623,0 45.0194,27.675,0 45.2841,28.8275,0 45.3728,30.0,0</coordinates></LineString></Placemark>
<Placemark><styleUrl>#ring_1</styleUrl><LineString><tessellate>1</tessellate><altitudeMode>relativeToGround</altitudeMode><coordinates>4.65,15.0,0 4.6102,15.5863,0 4.4916,16.1625,0 4.296,16.7188,0 4.027,17.2458,0 3.6891,17.7343,0 3.288,18.176,0 2.8307,18.5634,0 2.325,18.8898,0 1.7795,19.1497,0 1.2035,19.3385,0 0.6069,19.4531,0 0.0,19.4916,0 -0.6069,19.4531,0 -1.2035,19.3385,0 -1.7795,19.1497,0 -2.325,18.8898,0 -2.8307,18.5634,0 -3.288,18.176,0 -3.6891,17.7343,0 -4.027,17.2458,0 -4.296,16.7188,0 -4.4916,16.1625,0 -4.6102,15.5863,0 -4.65,15.0,0 -4.6102,14.4137,0 -4.4916,13.8375,0 -4.296,13.2812,0 -4.027,12.7542,0 -3.6891,12.2657,0 -3.288,11.824,0 -2.8307,11.4366,0 -2.325,11.1102,0 -1.7795,10.8503,0 -1.2035,10.6615,0 -0.6069,10.5469,0 -0.0,10.5084,0 0.6069,10.5469,0 1.2035,10.6615,0 1.7795,10.8503,0 2.325,11.1102,0 2.8307,11.4366,0 3.288,11.824,0 3.6891,12.2657,0 4.027,12.7542,0 4.296,13.2812,0 4.4916,13.8375,0 4.6102,14.4137,0 4.65,15.0,0</coordinates></LineString></Placemark>
<Placemark><styleUrl>#ring_1</styleUrl><LineString><tessellate>1</tessellate><altitudeMode>relativeToGround</altitudeMode><coordinates>9.3,15.0,0 9.2204,16.1725,0 8.9831,17.325,0 8.5921,18.4377,0 8.054,19.4916,0 7.3782,20.4686,0 6.5761,21.352,0 5.6615,22.1268,0 4.65,22.7796,0 3.559,23.2993,0 2.407,23.677,0 1.2139,23.9063,0 0.0,23.9831,0 -1.2139,23.9063,0 -2.407,23.677,0 -3.559,23.2993,0 -4.65,22.7796,0 -5.6615,22.1268,0 -6.5761,21.352,0 -7.3782,20.4686,0 -8.054,19.4916,0 -8.5921,18.4377,0 -8.9831,17.325,0 -9.2204,16.1725,0 -9.3,15.0,0 -9.2204,13.8275,0 -8.9831,12.675,0 -8.5921,11.5623,0 -8.054,10.5084,0 -7.3782,9.5314,0 -6.5761,8.648,0 -5.6615,7.8732,0 -4.65,7.2204,0 -3.559,6.7007,0 -2.407,6.323,0 -1.2139,6.0937,0 -0.0,6.0169,0 1.2139,6.0937,0 2.407,6.323,0 3.559,6.7007,0 4.65,7.2204,0 5.6615,7.8732,0 6.5761,8.648,0 7.3782,9.5314,0 8.054,10.5084,0 8.5921,11.5623,0 8.9831,12.675,0 9.2204,13.8275,0 9.3,15.0,0</coordinates></LineString></Placemark>
<Placemark><styleUrl>#ring_2</styleUrl><LineString><tessellate>1</tessellate><altitudeMode>relativeToGround</altitudeMode><coordinates>80.8239,20.0,0 80.7911,20.469,0 80.6936,20.93,0 80.5328,21.3751,0 80.3116,21.7966,0 80.0337,22.1874,0 79.7039,22.5408,0 79.3278,22.8507,0 78.9119,23.1118,0 78.4633,23.3197,0 77.9897,23.4708,0 77.4991,23.5625,0 77.0,23.5932,0 76.5009,23.5625,0 76.0103,23.4708,0 75.5367,23.3197,0 75.0881,23.1118,0 74.6722,22.8507,0 74.2961,22.5408,0 73.9663,22.1874,0 73.6884,21.7966,0 73.4672,21.3751,0 73.3064,20.93,0 73.2089,20.469,0 73.1761,20.0,0 73.2089,19.531,0 73.3064,19.07,0 73.4672,18.6249,0 73.6884,18.2034,0 73.9663,17.8126,0 74.2961,17.4592,0 74.6722,17.1493,0 75.0881,16.8882,0 75.5367,16.6803,0 76.0103,16.5292,0 76.5009,16.4375,0 77.0,16.4068,0 77.4991,16.4375,0 77.9897,16.5292,0 78.4633,16.6803,0 78.9119,16.8882,0 79.3278,17.1493,0 79.7039,17.4592,0 80.0337,17.8126,0 80.3116,18.2034,0 80.5328,18.6249,0 80.6936,19.07,0 80.7911,19.531,0 80.8239,20.0,0</coordinates></LineString></Placemark>
<Placemark><styleUrl>#ring_2</styleUrl><LineString><tessellate>1</tessellate><altitudeMode>relativeToGround</altitudeMode><coordinates>84.6477,20.0,0 84.5823,20.938,0 84.3871,21.86,0 84.0656,22.7502,0 83.6231,23.5932,0 83.0673,24.3749,0 82.4077,25.0816,0 81.6556,25.7014,0 80.8239,26.2237,0 79.9266,26.6395,0 78.9794,26.9416,0 77.9982,27.125,0 77.0,27.1865,0 76.0018,27.125,0 75.0206,26.9416,0 74.0734,26.6395,0 73.1761,26.2237,0 72.3444,25.7014,0 71.5923,25.0816,0 70.9327,24.3749,0 70.3769,23.5932,0 69.9344,22.7502,0 69.6129,21.86,0 69.4177,20.938,0 69.3523,20.0,0 69.4177,19.062,0 69.6129,18.14,0 69.9344,17.2498,0 70.3769,16.4068,0 70.9327,15.6251,0 71.5923,14.9184,0 72.3444,14.2986,0 73.1761,13.7763,0 74.0734,13.3605,0 75.0206,13.0584,0 76.0018,12.875,0 77.0,12.8135,0 77.9982,12.875,0 78.9794,13.0584,0 79.9266,13.3605,0 80.8239,13.7763,0 81.6556,14.2986,0 82.4077,14.9184,0 83.0673,15.6251,0 83.6231,16.4068,0 84.0656,17.2498,0 84.3871,18.14,0 84.5823,19.062,0 84.6477,20.0,0</coordinates></LineString></Placemark>
<Placemark><styleUrl>#col_3</styleUrl><Polygon><extrude>1</extrude><tessellate>1</tessellate><altitudeMode>relativeToGround</altitudeMode><outerBoundaryIs><LinearRing><coordinates>34.75,29.75,28000 35.25,29.75,28000 35.25,30.25,28000 34.75,30.25,28000 34.75,29.75,28000</coordinates></LinearRing></outerBoundaryIs></Polygon></Placemark>
<Placemark><styleUrl>#col_4</styleUrl><Polygon><extrude>1</extrude><tessellate>1</tessellate><altitudeMode>relativeToGround</altitudeMode><outerBoundaryIs><LinearRing><coordinates>-0.225,14.775,20000 0.225,14.775,20000 0.225,15.225,20000 -0.225,15.225,20000 -0.225,14.775,20000</coordinates></LinearRing></outerBoundaryIs></Polygon></Placemark>
<Placemark><styleUrl>#col_5</styleUrl><Polygon><extrude>1</extrude><tessellate>1</tessellate><altitudeMode>relativeToGround</altitudeMode><outerBoundaryIs><LinearRing><coordinates>76.8,19.8,14000 77.2,19.8,14000 77.2,20.2,14000 76.8,20.2,14000 76.8,19.8,14000</coordinates></LinearRing></outerBoundaryIs></Polygon></Placemark>
<Placemark><styleUrl>#line_6</styleUrl><LineString><tessellate>1</tessellate><altitudeMode>relativeToGround</altitudeMode><coordinates>35.0,30.0,0 0.0,15.0,0 77.0,20.0,0</coordinates></LineString></Placemark>
<Placemark><styleUrl>#ter_7</styleUrl><Polygon><extrude>1</extrude><tessellate>1</tessellate><altitudeMode>relativeToGround</altitudeMode><outerBoundaryIs><LinearRing><coordinates>34.7,29.7,14000.0 35.3,29.7,14000.0 35.3,30.3,14000.0 34.7,30.3,14000.0 34.7,29.7,14000.0</coordinates></LinearRing></outerBoundaryIs></Polygon></Placemark>
<Placemark><styleUrl>#ter_7</styleUrl><Polygon><extrude>1</extrude><tessellate>1</tessellate><altitudeMode>relativeToGround</altitudeMode><outerBoundaryIs><LinearRing><coordinates>34.736,29.736,23000.0 35.264,29.736,23000.0 35.264,30.264,23000.0 34.736,30.264,23000.0 34.736,29.736,23000.0</coordinates></LinearRing></outerBoundaryIs></Polygon></Placemark>
<Placemark><styleUrl>#ter_7</styleUrl><Polygon><extrude>1</extrude><tessellate>1</tessellate><altitudeMode>relativeToGround</altitudeMode><outerBoundaryIs><LinearRing><coordinates>34.772,29.772,28000.0 35.228,29.772,28000.0 35.228,30.228,28000.0 34.772,30.228,28000.0 34.772,29.772,28000.0</coordinates></LinearRing></outerBoundaryIs></Polygon></Placemark>
</Document></kml>
