<?xml version="1.0" encoding="UTF-8"?>
<kml xmlns="http://www.opengis.net/kml/2.2" xmlns:gx="http://www.google.com/kml/ext/2.2" xmlns:kml="http://www.opengis.net/kml/2.2">
<Document><name>Sahel Hotspots</name>
<LookAt><longitude>0.0</longitude><latitude>15.0</latitude><range>3500000</range><tilt>45</tilt><heading>0</heading><altitudeMode>relativeToGround</altitudeMode></LookAt>
<Style id="ter_0"><LineStyle><color>fff25abf</color><width>1</width></LineStyle><PolyStyle><color>fff25abf</color></PolyStyle></Style>
<Style id="ter_1"><LineStyle><color>ff303bff</color><width>1</width></LineStyle><PolyStyle><color>ff303bff</color></PolyStyle></Style>
<Style id="ter_2"><LineStyle><color>ff0095ff</color><width>1</width></LineStyle><PolyStyle><color>ff0095ff</color></PolyStyle></Style>
<Style id="ring_3"><LineStyle><color>fff25abf</color><width>2</width></LineStyle></Style>
<Style id="poly_4"><PolyStyle><color>22f25abf</color></PolyStyle></Style>
<Style id="spire_5"><LineStyle><color>fff25abf</color><width>2</width></LineStyle></Style>
<Placemark><styleUrl>#ter_0</styleUrl><Polygon><extrude>1</extrude><tessellate>1</tessellate><altitudeMode>relativeToGround</altitudeMode><outerBoundaryIs><LinearRing><coordinates>-4.4,16.6,12000.0 -3.6,16.6,12000.0 -3.6,17.4,12000.0 -4.4,17.4,12000.0 -4.4,16.6,12000.0</coordinates></LinearRing></outerBoundaryIs></Polygon></Placemark>
<Placemark><styleUrl>#ter_0</styleUrl><Polygon><extrude>1</extrude><tessellate>1</tessellate><altitudeMode>relativeToGround</altitudeMode><outerBoundaryIs><LinearRing><coordinates>-4.352,16.648,21000.0 -3.648,16.648,21000.0 -3.648,17.352,21000.0 -4.352,17.352,21000.0 -4.352,16.648,21000.0</coordinates></LinearRing></outerBoundaryIs></Polygon></Placemark>
<Placemark><styleUrl>#ter_0</styleUrl><Polygon><extrude>1</extrude><tessellate>1</tessellate><altitudeMode>relativeToGround</altitudeMode><outerBoundaryIs><LinearRing><coordinates>-4.304,16.696,27000.0 -3.696,16.696,27000.0 -3.696,17.304,27000.0 -4.304,17.304,27000.0 -4.304,16.696,27000.0</coordinates></LinearRing></outerBoundaryIs></Polygon></Placemark>
<Placemark><styleUrl>#ter_0</styleUrl><Polygon><extrude>1</extrude><tessellate>1</tessellate><altitudeMode>relativeToGround</altitudeMode><outerBoundaryIs><LinearRing><coordinates>-4.256,16.744,31000.0 -3.744,16.744,31000.0 -3.744,17.256,31000.0 -4.256,17.256,31000.0 -4.256,16.744,31000.0</coordinates></LinearRing></outerBoundaryIs></Polygon></Placemark>
<Placemark><styleUrl>#ter_1</styleUrl><Polygon><extrude>1</extrude><tessellate>1</tessellate><altitudeMode>relativeToGround</altitudeMode><outerBoundaryIs><LinearRing><coordinates>-2.4,11.6,11000.0 -1.6,11.6,11000.0 -1.6,12.4,11000.0 -2.4,12.4,11000.0 -2.4,11.6,11000.0</coordinates></LinearRing></outerBoundaryIs></Polygon></Placemark>
<Placemark><styleUrl>#ter_1</styleUrl><Polygon><extrude>1</extrude><tessellate>1</tessellate><altitudeMode>relativeToGround</altitudeMode><outerBoundaryIs><LinearRing><coordinates>-2.352,11.648,19000.0 -1.648,11.648,19000.0 -1.648,12.352,19000.0 -2.352,12.352,19000.0 -2.352,11.648,19000.0</coordinates></LinearRing></outerBoundaryIs></Polygon></Placemark>
<Placemark><styleUrl>#ter_1</styleUrl><Polygon><extrude>1</extrude><tessellate>1</tessellate><altitudeMode>relativeToGround</altitudeMode><outerBoundaryIs><LinearRing><coordinates>-2.304,11.696,24000.0 -1.696,11.696,24000.0 -1.696,12.304,24000.0 -2.304,12.304,24000.0 -2.304,11.696,24000.0</coordinates></LinearRing></outerBoundaryIs></Polygon></Placemark>
<Placemark><styleUrl>#ter_2</styleUrl><Polygon><extrude>1</extrude><tessellate>1</tessellate><altitudeMode>relativeToGround</altitudeMode><outerBoundaryIs><LinearRing><coordinates>7.6,15.6,8000.0 8.4,15.6,8000.0 8.4,16.4,8000.0 7.6,16.4,8000.0 7.6,15.6,8000.0</coordinates></LinearRing></outerBoundaryIs></Polygon></Placemark>
<Placemark><styleUrl>#ter_2</styleUrl><Polygon><extrude>1</extrude><tessellate>1</tessellate><altitudeMode>relativeToGround</altitudeMode><outerBoundaryIs><LinearRing><coordinates>7.648,15.648,14000.0 8.352,15.648,14000.0 8.352,16.352,14000.0 7.648,16.352,14000.0 7.648,15.648,14000.0</coordinates></LinearRing></outerBoundaryIs></Polygon></Placemark>
<Placemark><styleUrl>#ter_2</styleUrl><Polygon><extrude>1</extrude><tessellate>1</tessellate><altitudeMode>relativeToGround</altitudeMode><outerBoundaryIs><LinearRing><coordinates>7.696,15.696,17000.0 8.304,15.696,17000.0 8.304,16.304,17000.0 7.696,16.304,17000.0 7.696,15.696,17000.0</coordinates></LinearRing></outerBoundaryIs></Polygon></Placemark>
<Placemark><styleUrl>#ring_3</styleUrl><LineString><tessellate>1</tessellate><altitudeMode>relativeToGround</altitudeMode><coordinates>3.72,15.0,0 3.6882,15.469,0 3.5932,15.93,0 3.4368,16.3751,0 3.2216,16.7966,0 2.9513,17.1874,0 2.6304,17.5408,0 2.2646,17.8507,0 1.86,18.1118,0 1.4236,18.3197,0 0.9628,18.4708,0 0.4856,18.5625,0 0.0,18.5932,0 -0.4856,18.5625,0 -0.9628,18.4708,0 -1.4236,18.3197,0 -1.86,18.1118,0 -2.2646,17.8507,0 -2.6304,17.5408,0 -2.9513,17.1874,0 -3.2216,16.7966,0 -3.4368,16.3751,0 -3.5932,15.93,0 -3.6882,15.469,0 -3.72,15.0,0 -3.6882,14.531,0 -3.5932,14.07,0 -3.4368,13.6249,0 -3.2216,13.2034,0 -2.9513,12.8126,0 -2.6304,12.4592,0 -2.2646,12.1493,0 -1.86,11.8882,0 -1.4236,11.6803,0 -0.9628,11.5292,0 -0.4856,11.4375,0 -0.0,11.4068,0 0.4856,11.4375,0 0.9628,11.5292,0 1.4236,11.6803,0 1.86,11.8882,0 2.2646,12.1493,0 2.6304,12.4592,0 2.9513,12.8126,0 3.2216,13.2034,0 3.4368,13.6249,0 3.5932,14.07,0 3.6882,14.531,0 3.72,15.0,0</coordinates></LineString></Placemark>
<Placemark><styleUrl>#ring_3</styleUrl><LineString><tessellate>1</tessellate><altitudeMode>relativeToGround</altitudeMode><coordinates>7.44,15.0,0 7.3764,15.938,0 7.1865,16.86,0 6.8737,17.7502,0 6.4432,18.5932,0 5.9025,19.3749,0 5.2609,20.0816,0 4.5292,20.7014,0 3.72,21.2237,0 2.8472,21.6395,0 1.9256,21.9416,0 0.9711,22.125,0 0.0,22.1865,0 -0.9711,22.125,0 -1.9256,21.9416,0 -2.8472,21.6395,0 -3.72,21.2237,0 -4.5292,20.7014,0 -5.2609,20.0816,0 -5.9025,19.3749,0 -6.4432,18.5932,0 -6.8737,17.7502,0 -7.1865,16.86,0 -7.3764,15.938,0 -7.44,15.0,0 -7.3764,14.062,0 -7.1865,13.14,0 -6.8737,12.2498,0 -6.4432,11.4068,0 -5.9025,10.6251,0 -5.2609,9.9184,0 -4.5292,9.2986,0 -3.72,8.7763,0 -2.8472,8.3605,0 -1.9256,8.0584,0 -0.9711,7.875,0 -0.0,7.8135,0 0.9711,7.875,0 1.9256,8.0584,0 2.8472,8.3605,0 3.72,8.7763,0 4.5292,9.2986,0 5.2609,9.9184,0 5.9025,10.6251,0 6.4432,11.4068,0 6.8737,12.2498,0 7.1865,13.14,0 7.3764,14.062,0 7.44,15.0,0</coordinates></LineString></Placemark>
<Placemark><styleUrl>#ring_3</styleUrl><LineString><tessellate>1</tessellate><altitudeMode>relativeToGround</altitudeMode><coordinates>11.16,15.0,0 11.0645,16.407,0 10.7797,17.79,0 10.3105,19.1252,0 9.6648,20.3899,0 8.8538,21.5623,0 7.8913,22.6224,0 6.7938,23.5521,0 5.58,24.3355,0 4.2707,24.9592,0 2.8884,25.4124,0 1.4567,25.6875,0 0.0,25.7797,0 -1.4567,25.6875,0 -2.8884,25.4124,0 -4.2707,24.9592,0 -5.58,24.3355,0 -6.7938,23.5521,0 -7.8913,22.6224,0 -8.8538,21.5623,0 -9.6648,20.3899,0 -10.3105,19.1252,0 -10.7797,17.79,0 -11.0645,16.407,0 -11.16,15.0,0 -11.0645,13.593,0 -10.7797,12.21,0 -10.3105,10.8748,0 -9.6648,9.6101,0 -8.8538,8.4377,0 -7.8913,7.3776,0 -6.7938,6.4479,0 -5.58,5.6645,0 -4.2707,5.0408,0 -2.8884,4.5876,0 -1.4567,4.3125,0 -0.0,4.2203,0 1.4567,4.3125,0 2.8884,4.5876,0 4.2707,5.0408,0 5.58,5.6645,0 6.7938,6.4479,0 7.8913,7.3776,0 8.8538,8.4377,0 9.6648,9.6101,0 10.3105,10.8748,0 10.7797,12.21,0 11.0645,13.593,0 11.16,15.0,0</coordinates></LineString></Placemark>
<Placemark><styleUrl>#poly_4</styleUrl><Polygon><tessellate>1</tessellate><altitudeMode>relativeToGround</altitudeMode><outerBoundaryIs><LinearRing><coordinates>-10.0,20.0,0 15.0,20.0,0 12.0,8.0,0 -8.0,8.0,0 -10.0,20.0,0</coordinates></LinearRing></outerBoundaryIs></Polygon></Placemark>
<Placemark><styleUrl>#spire_5</styleUrl><LineString><altitudeMode>relativeToGround</altitudeMode><coordinates>-4.0,17.0,0 -4.0,17.0,16000</coordinates></LineString></Placemark>
<Placemark><styleUrl>#spire_5</styleUrl><LineString><altitudeMode>relativeToGround</altitudeMode><coordinates>-4.0,17.0,0 -4.0,17.0,24000</coordinates></LineString></Placemark>
</Document></kml>
