<?xml version="1.0" encoding="UTF-8"?>
<kml xmlns="http://www.opengis.net/kml/2.2" xmlns:gx="http://www.google.com/kml/ext/2.2" xmlns:kml="http://www.opengis.net/kml/2.2">
<Document><name>Monsoon Floods</name>
<LookAt><longitude>88.0</longitude><latitude>24.0</latitude><range>1500000</range><tilt>45</tilt><heading>0</heading><altitudeMode>relativeToGround</altitudeMode></LookAt>
<Style id="poly_0"><PolyStyle><color>55ff840a</color></PolyStyle></Style>
<Style id="ring_1"><LineStyle><color>ffff840a</color><width>3</width></LineStyle></Style>
<Style id="line_2"><LineStyle><color>ffff7a00</color><width>5</width></LineStyle></Style>
<Style id="dot_3"><IconStyle><scale>0.8</scale><Icon><href>http://lg1:81/kml/icons/circle-blue.png</href></Icon></IconStyle></Style>
<Style id="col_4"><LineStyle><color>ffff840a</color><width>1</width></LineStyle><PolyStyle><color>ffff840a</color></PolyStyle></Style>
<Placemark><styleUrl>#poly_0</styleUrl><Polygon><tessellate>1</tessellate><altitudeMode>relativeToGround</altitudeMode><outerBoundaryIs><LinearRing><coordinates>87.0,26.0,0 90.0,26.0,0 89.0,22.0,0 86.0,22.0,0 87.0,26.0,0</coordinates></LinearRing></outerBoundaryIs></Polygon></Placemark>
<Placemark><styleUrl>#ring_1</styleUrl><LineString><tessellate>1</tessellate><altitudeMode>relativeToGround</altitudeMode><coordinates>89.475,24.0,0 89.4624,24.1759,0 89.4247,24.3488,0 89.3627,24.5157,0 89.2774,24.6737,0 89.1702,24.8203,0 89.043,24.9528,0 88.8979,25.069,0 88.7375,25.1669,0 88.5645,25.2449,0 88.3818,25.3016,0 88.1925,25.3359,0 88.0,25.3475,0 87.8075,25.3359,0 87.6182,25.3016,0 87.4355,25.2449,0 87.2625,25.1669,0 87.1021,25.069,0 86.957,24.9528,0 86.8298,24.8203,0 86.7226,24.6737,0 86.6373,24.5157,0 86.5753,24.3488,0 86.5376,24.1759,0 86.525,24.0,0 86.5376,23.8241,0 86.5753,23.6512,0 86.6373,23.4843,0 86.7226,23.3263,0 86.8298,23.1797,0 86.957,23.0472,0 87.1021,22.931,0 87.2625,22.8331,0 87.4355,22.7551,0 87.6182,22.6984,0 87.8075,22.6641,0 88.0,22.6525,0 88.1925,22.6641,0 88.3818,22.6984,0 88.5645,22.7551,0 88.7375,22.8331,0 88.8979,22.931,0 89.043,23.0472,0 89.1702,23.1797,0 89.2774,23.3263,0 89.3627,23.4843,0 89.4247,23.6512,0 89.4624,23.8241,0 89.475,24.0,0</coordinates></LineString></Placemark>
<Placemark><styleUrl>#ring_1</styleUrl><LineString><tessellate>1</tessellate><altitudeMode>relativeToGround</altitudeMode><coordinates>90.95,24.0,0 90.9247,24.3518,0 90.8495,24.6975,0 90.7254,25.0313,0 90.5548,25.3475,0 90.3404,25.6406,0 90.0859,25.9056,0 89.7958,26.138,0 89.475,26.3339,0 89.1289,26.4898,0 88.7635,26.6031,0 88.385,26.6719,0 88.0,26.6949,0 87.615,26.6719,0 87.2365,26.6031,0 86.8711,26.4898,0 86.525,26.3339,0 86.2042,26.138,0 85.9141,25.9056,0 85.6596,25.6406,0 85.4452,25.3475,0 85.2746,25.0313,0 85.1505,24.6975,0 85.0753,24.3518,0 85.05,24.0,0 85.0753,23.6482,0 85.1505,23.3025,0 85.2746,22.9687,0 85.4452,22.6525,0 85.6596,22.3594,0 85.9141,22.0944,0 86.2042,21.862,0 86.525,21.6661,0 86.8711,21.5102,0 87.2365,21.3969,0 87.615,21.3281,0 88.0,21.3051,0 88.385,21.3281,0 88.7635,21.3969,0 89.1289,21.5102,0 89.475,21.6661,0 89.7958,21.862,0 90.0859,22.0944,0 90.3404,22.3594,0 90.5548,22.6525,0 90.7254,22.9687,0 90.8495,23.3025,0 90.9247,23.6482,0 90.95,24.0,0</coordinates></LineString></Placemark>
<Placemark><styleUrl>#line_2</styleUrl><LineString><tessellate>1</tessellate><altitudeMode>relativeToGround</altitudeMode><coordinates>86.5,25.0,0 88.0,24.0,0 89.5,23.0,0</coordinates></LineString></Placemark>
<Placemark><styleUrl>#dot_3</styleUrl><Point><altitudeMode>relativeToGround</altitudeMode><coordinates>87.5,25.5,0</coordinates></Point></Placemark>
<Placemark><styleUrl>#dot_3</styleUrl><Point><altitudeMode>relativeToGround</altitudeMode><coordinates>88.5,23.5,0</coordinates></Point></Placemark>
<Placemark><styleUrl>#dot_3</styleUrl><Point><altitudeMode>relativeToGround</altitudeMode><coordinates>89.0,25.0,0</coordinates></Point></Placemark>
<Placemark><styleUrl>#col_4</styleUrl><Polygon><extrude>1</extrude><tessellate>1</tessellate><altitudeMode>relativeToGround</altitudeMode><outerBoundaryIs><LinearRing><coordinates>87.8,23.8,16000 88.2,23.8,16000 88.2,24.2,16000 87.8,24.2,16000 87.8,23.8,16000</coordinates></LinearRing></outerBoundaryIs></Polygon></Placemark>
</Document></kml>
