<?xml version="1.0" encoding="UTF-8"?>
<kml xmlns="http://www.opengis.net/kml/2.2">
<Document><name>London Mild Front</name>
<LookAt><longitude>-0.1278</longitude><latitude>51.5074</latitude><range>150000</range><tilt>55</tilt><heading>0</heading><altitudeMode>relativeToGround</altitudeMode></LookAt>
<Style id="col_0"><LineStyle><color>ff59c734</color><width>1</width></LineStyle><PolyStyle><color>ff59c734</color></PolyStyle></Style>
<Style id="ring_1"><LineStyle><color>ffff840a</color><width>3</width></LineStyle></Style>
<Style id="burst_2"><LineStyle><color>ffc7b030</color><width>2</width></LineStyle></Style>
<Style id="dot_3"><IconStyle><scale>0.7</scale><Icon><href>http://maps.google.com/mapfiles/kml/paddle/blue-circle.png</href></Icon></IconStyle></Style>
<Style id="arc_4"><LineStyle><color>ff59c734</color><width>3</width></LineStyle></Style>
<Style id="spike_5"><LineStyle><color>ff59c734</color><width>2</width></LineStyle></Style>
<Style id="ring_6"><LineStyle><color>5559c734</color><width>3</width></LineStyle></Style>
<Style id="ring_7"><LineStyle><color>3c59c734</color><width>3</width></LineStyle></Style>
<Style id="ring_8"><LineStyle><color>2859c734</color><width>3</width></LineStyle></Style>
<Placemark><styleUrl>#col_0</styleUrl><Polygon><extrude>1</extrude><tessellate>1</tessellate><altitudeMode>relativeToGround</altitudeMode><outerBoundaryIs><LinearRing><coordinates>-0.3028,51.3324,18000 0.0472,51.3324,18000 0.0472,51.6824,18000 -0.3028,51.6824,18000 -0.3028,51.3324,18000</coordinates></LinearRing></outerBoundaryIs></Polygon></Placemark>
<Placemark><styleUrl>#ring_1</styleUrl><LineString><tessellate>1</tessellate><altitudeMode>relativeToGround</altitudeMode><coordinates>0.233,51.5074,0 0.2299,51.5367,0 0.2207,51.5655,0 0.2056,51.5933,0 0.1847,51.6197,0 0.1585,51.6441,0 0.1273,51.6662,0 0.0919,51.6856,0 0.0526,51.7019,0 0.0103,51.7149,0 -0.0344,51.7243,0 -0.0807,51.7301,0 -0.1278,51.732,0 -0.1749,51.7301,0 -0.2212,51.7243,0 -0.2659,51.7149,0 -0.3082,51.7019,0 -0.3475,51.6856,0 -0.3829,51.6662,0 -0.4141,51.6441,0 -0.4403,51.6197,0 -0.4612,51.5933,0 -0.4763,51.5655,0 -0.4855,51.5367,0 -0.4886,51.5074,0 -0.4855,51.4781,0 -0.4763,51.4493,0 -0.4612,51.4215,0 -0.4403,51.3951,0 -0.4141,51.3707,0 -0.3829,51.3486,0 -0.3475,51.3292,0 -0.3082,51.3129,0 -0.2659,51.2999,0 -0.2212,51.2905,0 -0.1749,51.2847,0 -0.1278,51.2828,0 -0.0807,51.2847,0 -0.0344,51.2905,0 0.0103,51.2999,0 0.0526,51.3129,0 0.0919,51.3292,0 0.1273,51.3486,0 0.1585,51.3707,0 0.1847,51.3951,0 0.2056,51.4215,0 0.2207,51.4493,0 0.2299,51.4781,0 0.233,51.5074,0</coordinates></LineString></Placemark>
<Placemark><styleUrl>#ring_1</styleUrl><LineString><tessellate>1</tessellate><altitudeMode>relativeToGround</altitudeMode><coordinates>0.5938,51.5074,0 0.5877,51.566,0 0.5692,51.6237,0 0.5389,51.6793,0 0.4972,51.732,0 0.4447,51.7808,0 0.3825,51.825,0 0.3115,51.8637,0 0.233,51.8964,0 0.1484,51.9224,0 0.059,51.9413,0 -0.0336,51.9527,0 -0.1278,51.9566,0 -0.222,51.9527,0 -0.3146,51.9413,0 -0.404,51.9224,0 -0.4886,51.8964,0 -0.5671,51.8637,0 -0.6381,51.825,0 -0.7003,51.7808,0 -0.7528,51.732,0 -0.7945,51.6793,0 -0.8248,51.6237,0 -0.8433,51.566,0 -0.8494,51.5074,0 -0.8433,51.4488,0 -0.8248,51.3911,0 -0.7945,51.3355,0 -0.7528,51.2828,0 -0.7003,51.234,0 -0.6381,51.1898,0 -0.5671,51.1511,0 -0.4886,51.1184,0 -0.404,51.0924,0 -0.3146,51.0735,0 -0.222,51.0621,0 -0.1278,51.0582,0 -0.0336,51.0621,0 0.059,51.0735,0 0.1484,51.0924,0 0.233,51.1184,0 0.3115,51.1511,0 0.3825,51.1898,0 0.4447,51.234,0 0.4972,51.2828,0 0.5389,51.3355,0 0.5692,51.3911,0 0.5877,51.4488,0 0.5938,51.5074,0</coordinates></LineString></Placemark>
<Placemark><styleUrl>#ring_1</styleUrl><LineString><tessellate>1</tessellate><altitudeMode>relativeToGround</altitudeMode><coordinates>0.9547,51.5074,0 0.9454,51.5953,0 0.9178,51.6818,0 0.8723,51.7652,0 0.8096,51.8443,0 0.731,51.9175,0 0.6376,51.9838,0 0.5312,52.0419,0 0.4134,52.0909,0 0.2864,52.1298,0 0.1524,52.1582,0 0.0135,52.1754,0 -0.1278,52.1811,0 -0.2691,52.1754,0 -0.408,52.1582,0 -0.542,52.1298,0 -0.669,52.0909,0 -0.7868,52.0419,0 -0.8932,51.9838,0 -0.9866,51.9175,0 -1.0652,51.8443,0 -1.1279,51.7652,0 -1.1734,51.6818,0 -1.201,51.5953,0 -1.2103,51.5074,0 -1.201,51.4195,0 -1.1734,51.333,0 -1.1279,51.2496,0 -1.0652,51.1705,0 -0.9866,51.0973,0 -0.8932,51.031,0 -0.7868,50.9729,0 -0.669,50.9239,0 -0.542,50.885,0 -0.408,50.8566,0 -0.2691,50.8394,0 -0.1278,50.8337,0 0.0135,50.8394,0 0.1524,50.8566,0 0.2864,50.885,0 0.4134,50.9239,0 0.5312,50.9729,0 0.6376,51.031,0 0.731,51.0973,0 0.8096,51.1705,0 0.8723,51.2496,0 0.9178,51.333,0 0.9454,51.4195,0 0.9547,51.5074,0</coordinates></LineString></Placemark>
<Placemark><styleUrl>#burst_2</styleUrl><LineString><tessellate>1</tessellate><altitudeMode>relativeToGround</altitudeMode><coordinates>-0.1278,51.5074,0 0.5217,51.5074,0</coordinates></LineString></Placemark>
<Placemark><styleUrl>#burst_2</styleUrl><LineString><tessellate>1</tessellate><altitudeMode>relativeToGround</altitudeMode><coordinates>-0.1278,51.5074,0 0.3314,51.7932,0</coordinates></LineString></Placemark>
<Placemark><styleUrl>#burst_2</styleUrl><LineString><tessellate>1</tessellate><altitudeMode>relativeToGround</altitudeMode><coordinates>-0.1278,51.5074,0 -0.1278,51.9116,0</coordinates></LineString></Placemark>
<Placemark><styleUrl>#burst_2</styleUrl><LineString><tessellate>1</tessellate><altitudeMode>relativeToGround</altitudeMode><coordinates>-0.1278,51.5074,0 -0.587,51.7932,0</coordinates></LineString></Placemark>
<Placemark><styleUrl>#burst_2</styleUrl><LineString><tessellate>1</tessellate><altitudeMode>relativeToGround</altitudeMode><coordinates>-0.1278,51.5074,0 -0.7773,51.5074,0</coordinates></LineString></Placemark>
<Placemark><styleUrl>#burst_2</styleUrl><LineString><tessellate>1</tessellate><altitudeMode>relativeToGround</altitudeMode><coordinates>-0.1278,51.5074,0 -0.587,51.2216,0</coordinates></LineString></Placemark>
<Placemark><styleUrl>#burst_2</styleUrl><LineString><tessellate>1</tessellate><altitudeMode>relativeToGround</altitudeMode><coordinates>-0.1278,51.5074,0 -0.1278,51.1032,0</coordinates></LineString></Placemark>
<Placemark><styleUrl>#burst_2</styleUrl><LineString><tessellate>1</tessellate><altitudeMode>relativeToGround</altitudeMode><coordinates>-0.1278,51.5074,0 0.3314,51.2216,0</coordinates></LineString></Placemark>
<Placemark><styleUrl>#dot_3</styleUrl><Point><altitudeMode>relativeToGround</altitudeMode><coordinates>-0.55,51.35,0</coordinates></Point></Placemark>
<Placemark><styleUrl>#dot_3</styleUrl><Point><altitudeMode>relativeToGround</altitudeMode><coordinates>-0.2,51.6,0</coordinates></Point></Placemark>
<Placemark><styleUrl>#dot_3</styleUrl><Point><altitudeMode>relativeToGround</altitudeMode><coordinates>0.15,51.45,0</coordinates></Point></Placemark>
<Placemark><styleUrl>#dot_3</styleUrl><Point><altitudeMode>relativeToGround</altitudeMode><coordinates>-0.35,51.75,0</coordinates></Point></Placemark>
<Placemark><styleUrl>#arc_4</styleUrl><LineString><tessellate>1</tessellate><altitudeMode>relativeToGround</altitudeMode><coordinates>-0.402,51.803,0 -0.4345,51.7904,0 -0.4655,51.7764,0 -0.4948,51.7611,0 -0.5223,51.7445,0 -0.5479,51.7268,0 -0.5715,51.708,0 -0.5929,51.6883,0 -0.612,51.6677,0 -0.6288,51.6462,0 -0.6432,51.6242,0 -0.655,51.6015,0 -0.6643,51.5784,0 -0.6709,51.5549,0 -0.6749,51.5312,0 -0.6762,51.5074,0 -0.6749,51.4836,0 -0.6709,51.4599,0 -0.6643,51.4364,0 -0.655,51.4133,0 -0.6432,51.3906,0 -0.6288,51.3686,0 -0.612,51.3471,0 -0.5929,51.3265,0 -0.5715,51.3068,0 -0.5479,51.288,0 -0.5223,51.2703,0 -0.4948,51.2537,0 -0.4655,51.2384,0 -0.4345,51.2244,0 -0.402,51.2118,0 -0.3682,51.2006,0 -0.3333,51.1909,0 -0.2973,51.1827,0 -0.2605,51.1762,0 -0.223,51.1712,0 -0.1851,51.1679,0 -0.1469,51.1662,0 -0.1087,51.1662,0 -0.0705,51.1679,0 -0.0326,51.1712,0</coordinates></LineString></Placemark>
<Placemark><styleUrl>#spike_5</styleUrl><LineString><tessellate>1</tessellate><altitudeMode>relativeToGround</altitudeMode><coordinates>-0.0401,51.5074,0 0.5217,51.5074,0</coordinates></LineString></Placemark>
<Placemark><styleUrl>#spike_5</styleUrl><LineString><tessellate>1</tessellate><altitudeMode>relativeToGround</altitudeMode><coordinates>-0.0828,51.519,0 0.4722,51.6621,0</coordinates></LineString></Placemark>
<Placemark><styleUrl>#spike_5</styleUrl><LineString><tessellate>1</tessellate><altitudeMode>relativeToGround</altitudeMode><coordinates>-0.0658,51.546,0 0.3314,51.7932,0</coordinates></LineString></Placemark>
<Placemark><styleUrl>#spike_5</styleUrl><LineString><tessellate>1</tessellate><altitudeMode>relativeToGround</altitudeMode><coordinates>-0.1092,51.5354,0 0.1207,51.8809,0</coordinates></LineString></Placemark>
<Placemark><styleUrl>#spike_5</styleUrl><LineString><tessellate>1</tessellate><altitudeMode>relativeToGround</altitudeMode><coordinates>-0.1278,51.562,0 -0.1278,51.9116,0</coordinates></LineString></Placemark>
<Placemark><styleUrl>#spike_5</styleUrl><LineString><tessellate>1</tessellate><altitudeMode>relativeToGround</altitudeMode><coordinates>-0.1464,51.5354,0 -0.3763,51.8809,0</coordinates></LineString></Placemark>
<Placemark><styleUrl>#spike_5</styleUrl><LineString><tessellate>1</tessellate><altitudeMode>relativeToGround</altitudeMode><coordinates>-0.1898,51.546,0 -0.587,51.7932,0</coordinates></LineString></Placemark>
<Placemark><styleUrl>#spike_5</styleUrl><LineString><tessellate>1</tessellate><altitudeMode>relativeToGround</altitudeMode><coordinates>-0.1728,51.519,0 -0.7278,51.6621,0</coordinates></LineString></Placemark>
<Placemark><styleUrl>#spike_5</styleUrl><LineString><tessellate>1</tessellate><altitudeMode>relativeToGround</altitudeMode><coordinates>-0.2155,51.5074,0 -0.7773,51.5074,0</coordinates></LineString></Placemark>
<Placemark><styleUrl>#spike_5</styleUrl><LineString><tessellate>1</tessellate><altitudeMode>relativeToGround</altitudeMode><coordinates>-0.1728,51.4958,0 -0.7278,51.3527,0</coordinates></LineString></Placemark>
<Placemark><styleUrl>#spike_5</styleUrl><LineString><tessellate>1</tessellate><altitudeMode>relativeToGround</altitudeMode><coordinates>-0.1898,51.4688,0 -0.587,51.2216,0</coordinates></LineString></Placemark>
<Placemark><styleUrl>#spike_5</styleUrl><LineString><tessellate>1</tessellate><altitudeMode>relativeToGround</altitudeMode><coordinates>-0.1464,51.4794,0 -0.3763,51.1339,0</coordinates></LineString></Placemark>
<Placemark><styleUrl>#spike_5</styleUrl><LineString><tessellate>1</tessellate><altitudeMode>relativeToGround</altitudeMode><coordinates>-0.1278,51.4528,0 -0.1278,51.1032,0</coordinates></LineString></Placemark>
<Placemark><styleUrl>#spike_5</styleUrl><LineString><tessellate>1</tessellate><altitudeMode>relativeToGround</altitudeMode><coordinates>-0.1092,51.4794,0 0.1207,51.1339,0</coordinates></LineString></Placemark>
<Placemark><styleUrl>#spike_5</styleUrl><LineString><tessellate>1</tessellate><altitudeMode>relativeToGround</altitudeMode><coordinates>-0.0658,51.4688,0 0.3314,51.2216,0</coordinates></LineString></Placemark>
<Placemark><styleUrl>#spike_5</styleUrl><LineString><tessellate>1</tessellate><altitudeMode>relativeToGround</altitudeMode><coordinates>-0.0828,51.4958,0 0.4722,51.3527,0</coordinates></LineString></Placemark>
<Placemark><styleUrl>#ring_6</styleUrl><LineString><tessellate>1</tessellate><altitudeMode>relativeToGround</altitudeMode><coordinates>0.8248,51.5074,0 0.8166,51.5848,0 0.7923,51.6609,0 0.7522,51.7343,0 0.6971,51.8038,0 0.6279,51.8683,0 0.5458,51.9266,0 0.4521,51.9778,0 0.3485,52.0209,0 0.2367,52.0552,0 0.1187,52.0801,0 -0.0035,52.0952,0 -0.1278,52.1003,0 -0.2521,52.0952,0 -0.3743,52.0801,0 -0.4923,52.0552,0 -0.6041,52.0209,0 -0.7077,51.9778,0 -0.8014,51.9266,0 -0.8835,51.8683,0 -0.9527,51.8038,0 -1.0078,51.7343,0 -1.0479,51.6609,0 -1.0722,51.5848,0 -1.0804,51.5074,0 -1.0722,51.43,0 -1.0479,51.3539,0 -1.0078,51.2805,0 -0.9527,51.211,0 -0.8835,51.1465,0 -0.8014,51.0882,0 -0.7077,51.037,0 -0.6041,50.9939,0 -0.4923,50.9596,0 -0.3743,50.9347,0 -0.2521,50.9196,0 -0.1278,50.9145,0 -0.0035,50.9196,0 0.1187,50.9347,0 0.2367,50.9596,0 0.3485,50.9939,0 0.4521,51.037,0 0.5458,51.0882,0 0.6279,51.1465,0 0.6971,51.211,0 0.7522,51.2805,0 0.7923,51.3539,0 0.8166,51.43,0 0.8248,51.5074,0</coordinates></LineString></Placemark>
<Placemark><styleUrl>#ring_7</styleUrl><LineString><tessellate>1</tessellate><altitudeMode>relativeToGround</altitudeMode><coordinates>1.3443,51.5074,0 1.3317,51.627,0 1.2942,51.7446,0 1.2323,51.858,0 1.1471,51.9655,0 1.0401,52.0652,0 0.9132,52.1553,0 0.7684,52.2343,0 0.6083,52.3009,0 0.4356,52.3539,0 0.2532,52.3925,0 0.0644,52.4158,0 -0.1278,52.4237,0 -0.32,52.4158,0 -0.5088,52.3925,0 -0.6912,52.3539,0 -0.8639,52.3009,0 -1.024,52.2343,0 -1.1688,52.1553,0 -1.2957,52.0652,0 -1.4027,51.9655,0 -1.4879,51.858,0 -1.5498,51.7446,0 -1.5873,51.627,0 -1.5999,51.5074,0 -1.5873,51.3878,0 -1.5498,51.2702,0 -1.4879,51.1568,0 -1.4027,51.0493,0 -1.2957,50.9496,0 -1.1688,50.8595,0 -1.024,50.7805,0 -0.8639,50.7139,0 -0.6912,50.6609,0 -0.5088,50.6223,0 -0.32,50.599,0 -0.1278,50.5911,0 0.0644,50.599,0 0.2532,50.6223,0 0.4356,50.6609,0 0.6083,50.7139,0 0.7684,50.7805,0 0.9132,50.8595,0 1.0401,50.9496,0 1.1471,51.0493,0 1.2323,51.1568,0 1.2942,51.2702,0 1.3317,51.3878,0 1.3443,51.5074,0</coordinates></LineString></Placemark>
<Placemark><styleUrl>#ring_8</styleUrl><LineString><tessellate>1</tessellate><altitudeMode>relativeToGround</altitudeMode><coordinates>1.8639,51.5074,0 1.8469,51.6692,0 1.796,51.8283,0 1.7123,51.9818,0 1.5971,52.1272,0 1.4523,52.2621,0 1.2806,52.384,0 1.0847,52.4909,0 0.8681,52.581,0 0.6344,52.6527,0 0.3877,52.7048,0 0.1322,52.7365,0 -0.1278,52.7471,0 -0.3878,52.7365,0 -0.6433,52.7048,0 -0.89,52.6527,0 -1.1237,52.581,0 -1.3403,52.4909,0 -1.5362,52.384,0 -1.7079,52.2621,0 -1.8527,52.1272,0 -1.9679,51.9818,0 -2.0516,51.8283,0 -2.1025,51.6692,0 -2.1195,51.5074,0 -2.1025,51.3456,0 -2.0516,51.1865,0 -1.9679,51.033,0 -1.8527,50.8876,0 -1.7079,50.7527,0 -1.5362,50.6308,0 -1.3403,50.5239,0 -1.1237,50.4338,0 -0.89,50.3621,0 -0.6433,50.31,0 -0.3878,50.2783,0 -0.1278,50.2677,0 0.1322,50.2783,0 0.3877,50.31,0 0.6344,50.3621,0 0.8681,50.4338,0 1.0847,50.5239,0 1.2806,50.6308,0 1.4523,50.7527,0 1.5971,50.8876,0 1.7123,51.033,0 1.796,51.1865,0 1.8469,51.3456,0 1.8639,51.5074,0</coordinates></LineString></Placemark>
</Document></kml>
