<?xml version="1.0" encoding="UTF-8"?>
<kml xmlns="http://www.opengis.net/kml/2.2" xmlns:gx="http://www.google.com/kml/ext/2.2" xmlns:kml="http://www.opengis.net/kml/2.2">
<Document><name>Moscow Deep Freeze</name>
<LookAt><longitude>37.6173</longitude><latitude>55.7558</latitude><range>200000</range><tilt>55</tilt><heading>0</heading><altitudeMode>relativeToGround</altitudeMode></LookAt>
<Style id="col_0"><LineStyle><color>ffff840a</color><width>1</width></LineStyle><PolyStyle><color>ffff840a</color></PolyStyle></Style>
<Style id="ring_1"><LineStyle><color>ffff7a00</color><width>4</width></LineStyle></Style>
<Style id="burst_2"><LineStyle><color>fffac85a</color><width>2</width></LineStyle></Style>
<Style id="spire_3"><LineStyle><color>fffac85a</color><width>2</width></LineStyle></Style>
<Style id="icon_4"><IconStyle><scale>1.4</scale><Icon><href>http://lg1:81/kml/icons/circle-blue.png</href></Icon></IconStyle></Style>
<Style id="spike_5"><LineStyle><color>ffff840a</color><width>2</width></LineStyle></Style>
<Style id="ring_6"><LineStyle><color>55ff840a</color><width>3</width></LineStyle></Style>
<Style id="ring_7"><LineStyle><color>3cff840a</color><width>3</width></LineStyle></Style>
<Style id="ring_8"><LineStyle><color>28ff840a</color><width>3</width></LineStyle></Style>
<Placemark><styleUrl>#col_0</styleUrl><Polygon><extrude>1</extrude><tessellate>1</tessellate><altitudeMode>relativeToGround</altitudeMode><outerBoundaryIs><LinearRing><coordinates>37.4423,55.5808,20000 37.7923,55.5808,20000 37.7923,55.9308,20000 37.4423,55.9308,20000 37.4423,55.5808,20000</coordinates></LinearRing></outerBoundaryIs></Polygon></Placemark>
<Placemark><styleUrl>#ring_1</styleUrl><LineString><tessellate>1</tessellate><altitudeMode>relativeToGround</altitudeMode><coordinates>38.176,55.7558,0 38.1712,55.7968,0 38.157,55.8372,0 38.1335,55.8761,0 38.1012,55.913,0 38.0606,55.9472,0 38.0124,55.9781,0 37.9574,56.0052,0 37.8967,56.0281,0 37.8311,56.0463,0 37.7619,56.0595,0 37.6902,56.0675,0 37.6173,56.0702,0 37.5444,56.0675,0 37.4727,56.0595,0 37.4035,56.0463,0 37.3379,56.0281,0 37.2772,56.0052,0 37.2222,55.9781,0 37.174,55.9472,0 37.1334,55.913,0 37.1011,55.8761,0 37.0776,55.8372,0 37.0634,55.7968,0 37.0586,55.7558,0 37.0634,55.7148,0 37.0776,55.6744,0 37.1011,55.6355,0 37.1334,55.5986,0 37.174,55.5644,0 37.2222,55.5335,0 37.2772,55.5064,0 37.3379,55.4835,0 37.4035,55.4653,0 37.4727,55.4521,0 37.5444,55.4441,0 37.6173,55.4414,0 37.6902,55.4441,0 37.7619,55.4521,0 37.8311,55.4653,0 37.8967,55.4835,0 37.9574,55.5064,0 38.0124,55.5335,0 38.0606,55.5644,0 38.1012,55.5986,0 38.1335,55.6355,0 38.157,55.6744,0 38.1712,55.7148,0 38.176,55.7558,0</coordinates></LineString></Placemark>
<Placemark><styleUrl>#ring_1</styleUrl><LineString><tessellate>1</tessellate><altitudeMode>relativeToGround</altitudeMode><coordinates>38.7348,55.7558,0 38.7252,55.8379,0 38.6967,55.9186,0 38.6497,55.9964,0 38.585,56.0702,0 38.5038,56.1386,0 38.4075,56.2004,0 38.2976,56.2547,0 38.176,56.3004,0 38.0449,56.3368,0 37.9065,56.3632,0 37.7632,56.3792,0 37.6173,56.3846,0 37.4714,56.3792,0 37.3281,56.3632,0 37.1897,56.3368,0 37.0586,56.3004,0 36.937,56.2547,0 36.8271,56.2004,0 36.7308,56.1386,0 36.6496,56.0702,0 36.5849,55.9964,0 36.5379,55.9186,0 36.5094,55.8379,0 36.4998,55.7558,0 36.5094,55.6737,0 36.5379,55.593,0 36.5849,55.5152,0 36.6496,55.4414,0 36.7308,55.373,0 36.8271,55.3112,0 36.937,55.2569,0 37.0586,55.2112,0 37.1897,55.1748,0 37.3281,55.1484,0 37.4714,55.1324,0 37.6173,55.127,0 37.7632,55.1324,0 37.9065,55.1484,0 38.0449,55.1748,0 38.176,55.2112,0 38.2976,55.2569,0 38.4075,55.3112,0 38.5038,55.373,0 38.585,55.4414,0 38.6497,55.5152,0 38.6967,55.593,0 38.7252,55.6737,0 38.7348,55.7558,0</coordinates></LineString></Placemark>
<Placemark><styleUrl>#ring_1</styleUrl><LineString><tessellate>1</tessellate><altitudeMode>relativeToGround</altitudeMode><coordinates>39.2935,55.7558,0 39.2791,55.8789,0 39.2364,55.9999,0 39.1659,56.1168,0 39.0689,56.2274,0 38.9471,56.33,0 38.8025,56.4228,0 38.6377,56.5041,0 38.4554,56.5727,0 38.2587,56.6272,0 38.0511,56.6669,0 37.8361,56.691,0 37.6173,56.699,0 37.3985,56.691,0 37.1835,56.6669,0 36.9759,56.6272,0 36.7792,56.5727,0 36.5969,56.5041,0 36.4321,56.4228,0 36.2875,56.33,0 36.1657,56.2274,0 36.0687,56.1168,0 35.9982,55.9999,0 35.9555,55.8789,0 35.9411,55.7558,0 35.9555,55.6327,0 35.9982,55.5117,0 36.0687,55.3948,0 36.1657,55.2842,0 36.2875,55.1816,0 36.4321,55.0888,0 36.5969,55.0075,0 36.7792,54.9389,0 36.9759,54.8844,0 37.1835,54.8447,0 37.3985,54.8206,0 37.6173,54.8126,0 37.8361,54.8206,0 38.0511,54.8447,0 38.2587,54.8844,0 38.4554,54.9389,0 38.6377,55.0075,0 38.8025,55.0888,0 38.9471,55.1816,0 39.0689,55.2842,0 39.1659,55.3948,0 39.2364,55.5117,0 39.2791,55.6327,0 39.2935,55.7558,0</coordinates></LineString></Placemark>
<Placemark><styleUrl>#burst_2</styleUrl><LineString><tessellate>1</tessellate><altitudeMode>relativeToGround</altitudeMode><coordinates>37.6173,55.7558,0 38.5751,55.7558,0</coordinates></LineString></Placemark>
<Placemark><styleUrl>#burst_2</styleUrl><LineString><tessellate>1</tessellate><altitudeMode>relativeToGround</altitudeMode><coordinates>37.6173,55.7558,0 38.2946,56.1369,0</coordinates></LineString></Placemark>
<Placemark><styleUrl>#burst_2</styleUrl><LineString><tessellate>1</tessellate><altitudeMode>relativeToGround</altitudeMode><coordinates>37.6173,55.7558,0 37.6173,56.2948,0</coordinates></LineString></Placemark>
<Placemark><styleUrl>#burst_2</styleUrl><LineString><tessellate>1</tessellate><altitudeMode>relativeToGround</altitudeMode><coordinates>37.6173,55.7558,0 36.94,56.1369,0</coordinates></LineString></Placemark>
<Placemark><styleUrl>#burst_2</styleUrl><LineString><tessellate>1</tessellate><altitudeMode>relativeToGround</altitudeMode><coordinates>37.6173,55.7558,0 36.6595,55.7558,0</coordinates></LineString></Placemark>
<Placemark><styleUrl>#burst_2</styleUrl><LineString><tessellate>1</tessellate><altitudeMode>relativeToGround</altitudeMode><coordinates>37.6173,55.7558,0 36.94,55.3747,0</coordinates></LineString></Placemark>
<Placemark><styleUrl>#burst_2</styleUrl><LineString><tessellate>1</tessellate><altitudeMode>relativeToGround</altitudeMode><coordinates>37.6173,55.7558,0 37.6173,55.2168,0</coordinates></LineString></Placemark>
<Placemark><styleUrl>#burst_2</styleUrl><LineString><tessellate>1</tessellate><altitudeMode>relativeToGround</altitudeMode><coordinates>37.6173,55.7558,0 38.2946,55.3747,0</coordinates></LineString></Placemark>
<Placemark><styleUrl>#spire_3</styleUrl><LineString><altitudeMode>relativeToGround</altitudeMode><coordinates>37.6173,55.7558,0 37.6173,55.7558,6000</coordinates></LineString></Placemark>
<Placemark><styleUrl>#spire_3</styleUrl><LineString><altitudeMode>relativeToGround</altitudeMode><coordinates>37.6173,55.7558,0 37.6173,55.7558,13000</coordinates></LineString></Placemark>
<Placemark><styleUrl>#spire_3</styleUrl><LineString><altitudeMode>relativeToGround</altitudeMode><coordinates>37.6173,55.7558,0 37.6173,55.7558,20000</coordinates></LineString></Placemark>
<Placemark><styleUrl>#icon_4</styleUrl><Point><altitudeMode>relativeToGround</altitudeMode><coordinates>37.6173,55.7558,21000</coordinates></Point></Placemark>
<Placemark><styleUrl>#spike_5</styleUrl><LineString><tessellate>1</tessellate><altitudeMode>relativeToGround</altitudeMode><coordinates>37.7466,55.7558,0 38.5751,55.7558,0</coordinates></LineString></Placemark>
<Placemark><styleUrl>#spike_5</styleUrl><LineString><tessellate>1</tessellate><altitudeMode>relativeToGround</altitudeMode><coordinates>37.6837,55.7713,0 38.5022,55.9621,0</coordinates></LineString></Placemark>
<Placemark><styleUrl>#spike_5</styleUrl><LineString><tessellate>1</tessellate><altitudeMode>relativeToGround</altitudeMode><coordinates>37.7087,55.8073,0 38.2946,56.1369,0</coordinates></LineString></Placemark>
<Placemark><styleUrl>#spike_5</styleUrl><LineString><tessellate>1</tessellate><altitudeMode>relativeToGround</altitudeMode><coordinates>37.6448,55.7931,0 37.9838,56.2538,0</coordinates></LineString></Placemark>
<Placemark><styleUrl>#spike_5</styleUrl><LineString><tessellate>1</tessellate><altitudeMode>relativeToGround</altitudeMode><coordinates>37.6173,55.8286,0 37.6173,56.2948,0</coordinates></LineString></Placemark>
<Placemark><styleUrl>#spike_5</styleUrl><LineString><tessellate>1</tessellate><altitudeMode>relativeToGround</altitudeMode><coordinates>37.5898,55.7931,0 37.2508,56.2538,0</coordinates></LineString></Placemark>
<Placemark><styleUrl>#spike_5</styleUrl><LineString><tessellate>1</tessellate><altitudeMode>relativeToGround</altitudeMode><coordinates>37.5259,55.8073,0 36.94,56.1369,0</coordinates></LineString></Placemark>
<Placemark><styleUrl>#spike_5</styleUrl><LineString><tessellate>1</tessellate><altitudeMode>relativeToGround</altitudeMode><coordinates>37.5509,55.7713,0 36.7324,55.9621,0</coordinates></LineString></Placemark>
<Placemark><styleUrl>#spike_5</styleUrl><LineString><tessellate>1</tessellate><altitudeMode>relativeToGround</altitudeMode><coordinates>37.488,55.7558,0 36.6595,55.7558,0</coordinates></LineString></Placemark>
<Placemark><styleUrl>#spike_5</styleUrl><LineString><tessellate>1</tessellate><altitudeMode>relativeToGround</altitudeMode><coordinates>37.5509,55.7403,0 36.7324,55.5495,0</coordinates></LineString></Placemark>
<Placemark><styleUrl>#spike_5</styleUrl><LineString><tessellate>1</tessellate><altitudeMode>relativeToGround</altitudeMode><coordinates>37.5259,55.7043,0 36.94,55.3747,0</coordinates></LineString></Placemark>
<Placemark><styleUrl>#spike_5</styleUrl><LineString><tessellate>1</tessellate><altitudeMode>relativeToGround</altitudeMode><coordinates>37.5898,55.7185,0 37.2508,55.2578,0</coordinates></LineString></Placemark>
<Placemark><styleUrl>#spike_5</styleUrl><LineString><tessellate>1</tessellate><altitudeMode>relativeToGround</altitudeMode><coordinates>37.6173,55.683,0 37.6173,55.2168,0</coordinates></LineString></Placemark>
<Placemark><styleUrl>#spike_5</styleUrl><LineString><tessellate>1</tessellate><altitudeMode>relativeToGround</altitudeMode><coordinates>37.6448,55.7185,0 37.9838,55.2578,0</coordinates></LineString></Placemark>
<Placemark><styleUrl>#spike_5</styleUrl><LineString><tessellate>1</tessellate><altitudeMode>relativeToGround</altitudeMode><coordinates>37.7087,55.7043,0 38.2946,55.3747,0</coordinates></LineString></Placemark>
<Placemark><styleUrl>#spike_5</styleUrl><LineString><tessellate>1</tessellate><altitudeMode>relativeToGround</altitudeMode><coordinates>37.6837,55.7403,0 38.5022,55.5495,0</coordinates></LineString></Placemark>
<Placemark><styleUrl>#ring_6</styleUrl><LineString><tessellate>1</tessellate><altitudeMode>relativeToGround</altitudeMode><coordinates>38.6709,55.7558,0 38.6619,55.8332,0 38.635,55.9093,0 38.5907,55.9827,0 38.5297,56.0522,0 38.4532,56.1167,0 38.3623,56.175,0 38.2587,56.2262,0 38.1441,56.2693,0 38.0205,56.3036,0 37.89,56.3285,0 37.7548,56.3436,0 37.6173,56.3487,0 37.4798,56.3436,0 37.3446,56.3285,0 37.2141,56.3036,0 37.0905,56.2693,0 36.9759,56.2262,0 36.8723,56.175,0 36.7814,56.1167,0 36.7049,56.0522,0 36.6439,55.9827,0 36.5996,55.9093,0 36.5727,55.8332,0 36.5637,55.7558,0 36.5727,55.6784,0 36.5996,55.6023,0 36.6439,55.5289,0 36.7049,55.4594,0 36.7814,55.3949,0 36.8723,55.3366,0 36.9759,55.2854,0 37.0905,55.2423,0 37.2141,55.208,0 37.3446,55.1831,0 37.4798,55.168,0 37.6173,55.1629,0 37.7548,55.168,0 37.89,55.1831,0 38.0205,55.208,0 38.1441,55.2423,0 38.2587,55.2854,0 38.3623,55.3366,0 38.4532,55.3949,0 38.5297,55.4594,0 38.5907,55.5289,0 38.635,55.6023,0 38.6619,55.6784,0 38.6709,55.7558,0</coordinates></LineString></Placemark>
<Placemark><styleUrl>#ring_7</styleUrl><LineString><tessellate>1</tessellate><altitudeMode>relativeToGround</altitudeMode><coordinates>39.2456,55.7558,0 39.2317,55.8754,0 39.1901,55.993,0 39.1217,56.1064,0 39.0274,56.2139,0 38.9091,56.3136,0 38.7687,56.4037,0 38.6085,56.4827,0 38.4314,56.5493,0 38.2404,56.6023,0 38.0387,56.6409,0 37.8298,56.6642,0 37.6173,56.6721,0 37.4048,56.6642,0 37.1959,56.6409,0 36.9942,56.6023,0 36.8032,56.5493,0 36.6261,56.4827,0 36.4659,56.4037,0 36.3255,56.3136,0 36.2072,56.2139,0 36.1129,56.1064,0 36.0445,55.993,0 36.0029,55.8754,0 35.989,55.7558,0 36.0029,55.6362,0 36.0445,55.5186,0 36.1129,55.4052,0 36.2072,55.2977,0 36.3255,55.198,0 36.4659,55.1079,0 36.6261,55.0289,0 36.8032,54.9623,0 36.9942,54.9093,0 37.1959,54.8707,0 37.4048,54.8474,0 37.6173,54.8395,0 37.8298,54.8474,0 38.0387,54.8707,0 38.2404,54.9093,0 38.4314,54.9623,0 38.6085,55.0289,0 38.7687,55.1079,0 38.9091,55.198,0 39.0274,55.2977,0 39.1217,55.4052,0 39.1901,55.5186,0 39.2317,55.6362,0 39.2456,55.7558,0</coordinates></LineString></Placemark>
<Placemark><styleUrl>#ring_8</styleUrl><LineString><tessellate>1</tessellate><altitudeMode>relativeToGround</altitudeMode><coordinates>39.8203,55.7558,0 39.8014,55.9176,0 39.7452,56.0767,0 39.6526,56.2302,0 39.5251,56.3756,0 39.365,56.5105,0 39.175,56.6324,0 38.9584,56.7393,0 38.7188,56.8294,0 38.4603,56.9011,0 38.1875,56.9532,0 37.9048,56.9849,0 37.6173,56.9955,0 37.3298,56.9849,0 37.0471,56.9532,0 36.7743,56.9011,0 36.5158,56.8294,0 36.2762,56.7393,0 36.0596,56.6324,0 35.8696,56.5105,0 35.7095,56.3756,0 35.582,56.2302,0 35.4894,56.0767,0 35.4332,55.9176,0 35.4143,55.7558,0 35.4332,55.594,0 35.4894,55.4349,0 35.582,55.2814,0 35.7095,55.136,0 35.8696,55.0011,0 36.0596,54.8792,0 36.2762,54.7723,0 36.5158,54.6822,0 36.7743,54.6105,0 37.0471,54.5584,0 37.3298,54.5267,0 37.6173,54.5161,0 37.9048,54.5267,0 38.1875,54.5584,0 38.4603,54.6105,0 38.7188,54.6822,0 38.9584,54.7723,0 39.175,54.8792,0 39.365,55.0011,0 39.5251,55.136,0 39.6526,55.2814,0 39.7452,55.4349,0 39.8014,55.594,0 39.8203,55.7558,0</coordinates></LineString></Placemark>
</Document></kml>
