<?xml version="1.0" encoding="UTF-8"?>
<kml xmlns="http://www.opengis.net/kml/2.2" xmlns:gx="http://www.google.com/kml/ext/2.2" xmlns:kml="http://www.opengis.net/kml/2.2">
<Document><name>Tokyo Heat Dome</name>
<LookAt><longitude>139.6503</longitude><latitude>35.6762</latitude><range>180000</range><tilt>55</tilt><heading>0</heading><altitudeMode>relativeToGround</altitudeMode></LookAt>
<Style id="col_0"><LineStyle><color>ff303bff</color><width>1</width></LineStyle><PolyStyle><color>ff303bff</color></PolyStyle></Style>
<Style id="ring_1"><LineStyle><color>ff0095ff</color><width>4</width></LineStyle></Style>
<Style id="burst_2"><LineStyle><color>ff00ccff</color><width>2</width></LineStyle></Style>
<Style id="spire_3"><LineStyle><color>ff303bff</color><width>2</width></LineStyle></Style>
<Style id="icon_4"><IconStyle><scale>1.4</scale><Icon><href>http://lg1:81/kml/icons/circle-red.png</href></Icon></IconStyle></Style>
<Style id="arc_5"><LineStyle><color>ff0095ff</color><width>3</width></LineStyle></Style>
<Placemark><styleUrl>#col_0</styleUrl><Polygon><extrude>1</extrude><tessellate>1</tessellate><altitudeMode>relativeToGround</altitudeMode><outerBoundaryIs><LinearRing><coordinates>139.4753,35.5012,35000 139.8253,35.5012,35000 139.8253,35.8512,35000 139.4753,35.8512,35000 139.4753,35.5012,35000</coordinates></LinearRing></outerBoundaryIs></Polygon></Placemark>
<Placemark><styleUrl>#ring_1</styleUrl><LineString><tessellate>1</tessellate><altitudeMode>relativeToGround</altitudeMode><coordinates>139.9821,35.6762,0 139.9792,35.7114,0 139.9708,35.746,0 139.9568,35.7793,0 139.9376,35.8109,0 139.9135,35.8403,0 139.8849,35.8668,0 139.8523,35.89,0 139.8162,35.9096,0 139.7773,35.9252,0 139.7362,35.9365,0 139.6936,35.9434,0 139.6503,35.9457,0 139.607,35.9434,0 139.5644,35.9365,0 139.5233,35.9252,0 139.4844,35.9096,0 139.4483,35.89,0 139.4157,35.8668,0 139.3871,35.8403,0 139.363,35.8109,0 139.3438,35.7793,0 139.3298,35.746,0 139.3214,35.7114,0 139.3185,35.6762,0 139.3214,35.641,0 139.3298,35.6064,0 139.3438,35.5731,0 139.363,35.5415,0 139.3871,35.5121,0 139.4157,35.4856,0 139.4483,35.4624,0 139.4844,35.4428,0 139.5233,35.4272,0 139.5644,35.4159,0 139.607,35.409,0 139.6503,35.4067,0 139.6936,35.409,0 139.7362,35.4159,0 139.7773,35.4272,0 139.8162,35.4428,0 139.8523,35.4624,0 139.8849,35.4856,0 139.9135,35.5121,0 139.9376,35.5415,0 139.9568,35.5731,0 139.9708,35.6064,0 139.9792,35.641,0 139.9821,35.6762,0</coordinates></LineString></Placemark>
<Placemark><styleUrl>#ring_1</styleUrl><LineString><tessellate>1</tessellate><altitudeMode>relativeToGround</altitudeMode><coordinates>140.3138,35.6762,0 140.3081,35.7466,0 140.2912,35.8157,0 140.2633,35.8825,0 140.2249,35.9457,0 140.1767,36.0043,0 140.1195,36.0573,0 140.0542,36.1038,0 139.9821,36.143,0 139.9042,36.1742,0 139.822,36.1968,0 139.7369,36.2106,0 139.6503,36.2152,0 139.5637,36.2106,0 139.4786,36.1968,0 139.3964,36.1742,0 139.3185,36.143,0 139.2464,36.1038,0 139.1811,36.0573,0 139.1239,36.0043,0 139.0757,35.9457,0 139.0373,35.8825,0 139.0094,35.8157,0 138.9925,35.7466,0 138.9868,35.6762,0 138.9925,35.6058,0 139.0094,35.5367,0 139.0373,35.4699,0 139.0757,35.4067,0 139.1239,35.3481,0 139.1811,35.2951,0 139.2464,35.2486,0 139.3185,35.2094,0 139.3964,35.1782,0 139.4786,35.1556,0 139.5637,35.1418,0 139.6503,35.1372,0 139.7369,35.1418,0 139.822,35.1556,0 139.9042,35.1782,0 139.9821,35.2094,0 140.0542,35.2486,0 140.1195,35.2951,0 140.1767,35.3481,0 140.2249,35.4067,0 140.2633,35.4699,0 140.2912,35.5367,0 140.3081,35.6058,0 140.3138,35.6762,0</coordinates></LineString></Placemark>
<Placemark><styleUrl>#ring_1</styleUrl><LineString><tessellate>1</tessellate><altitudeMode>relativeToGround</altitudeMode><coordinates>140.6456,35.6762,0 140.6371,35.7817,0 140.6117,35.8855,0 140.5698,35.9856,0 140.5122,36.0804,0 140.4399,36.1684,0 140.3541,36.2479,0 140.2562,36.3176,0 140.1479,36.3764,0 140.0312,36.4231,0 139.9079,36.4571,0 139.7802,36.4778,0 139.6503,36.4847,0 139.5204,36.4778,0 139.3927,36.4571,0 139.2694,36.4231,0 139.1527,36.3764,0 139.0444,36.3176,0 138.9465,36.2479,0 138.8607,36.1684,0 138.7884,36.0804,0 138.7308,35.9856,0 138.6889,35.8855,0 138.6635,35.7817,0 138.655,35.6762,0 138.6635,35.5707,0 138.6889,35.4669,0 138.7308,35.3668,0 138.7884,35.272,0 138.8607,35.184,0 138.9465,35.1045,0 139.0444,35.0348,0 139.1527,34.976,0 139.2694,34.9293,0 139.3927,34.8953,0 139.5204,34.8746,0 139.6503,34.8677,0 139.7802,34.8746,0 139.9079,34.8953,0 140.0312,34.9293,0 140.1479,34.976,0 140.2562,35.0348,0 140.3541,35.1045,0 140.4399,35.184,0 140.5122,35.272,0 140.5698,35.3668,0 140.6117,35.4669,0 140.6371,35.5707,0 140.6456,35.6762,0</coordinates></LineString></Placemark>
<Placemark><styleUrl>#burst_2</styleUrl><LineString><tessellate>1</tessellate><altitudeMode>relativeToGround</altitudeMode><coordinates>139.6503,35.6762,0 140.2585,35.6762,0</coordinates></LineString></Placemark>
<Placemark><styleUrl>#burst_2</styleUrl><LineString><tessellate>1</tessellate><altitudeMode>relativeToGround</altitudeMode><coordinates>139.6503,35.6762,0 140.0804,36.0256,0</coordinates></LineString></Placemark>
<Placemark><styleUrl>#burst_2</styleUrl><LineString><tessellate>1</tessellate><altitudeMode>relativeToGround</altitudeMode><coordinates>139.6503,35.6762,0 139.6503,36.1703,0</coordinates></LineString></Placemark>
<Placemark><styleUrl>#burst_2</styleUrl><LineString><tessellate>1</tessellate><altitudeMode>relativeToGround</altitudeMode><coordinates>139.6503,35.6762,0 139.2202,36.0256,0</coordinates></LineString></Placemark>
<Placemark><styleUrl>#burst_2</styleUrl><LineString><tessellate>1</tessellate><altitudeMode>relativeToGround</altitudeMode><coordinates>139.6503,35.6762,0 139.0421,35.6762,0</coordinates></LineString></Placemark>
<Placemark><styleUrl>#burst_2</styleUrl><LineString><tessellate>1</tessellate><altitudeMode>relativeToGround</altitudeMode><coordinates>139.6503,35.6762,0 139.2202,35.3268,0</coordinates></LineString></Placemark>
<Placemark><styleUrl>#burst_2</styleUrl><LineString><tessellate>1</tessellate><altitudeMode>relativeToGround</altitudeMode><coordinates>139.6503,35.6762,0 139.6503,35.1821,0</coordinates></LineString></Placemark>
<Placemark><styleUrl>#burst_2</styleUrl><LineString><tessellate>1</tessellate><altitudeMode>relativeToGround</altitudeMode><coordinates>139.6503,35.6762,0 140.0804,35.3268,0</coordinates></LineString></Placemark>
<Placemark><styleUrl>#spire_3</styleUrl><LineString><altitudeMode>relativeToGround</altitudeMode><coordinates>139.6503,35.6762,0 139.6503,35.6762,12000</coordinates></LineString></Placemark>
<Placemark><styleUrl>#spire_3</styleUrl><LineString><altitudeMode>relativeToGround</altitudeMode><coordinates>139.6503,35.6762,0 139.6503,35.6762,22000</coordinates></LineString></Placemark>
<Placemark><styleUrl>#spire_3</styleUrl><LineString><altitudeMode>relativeToGround</altitudeMode><coordinates>139.6503,35.6762,0 139.6503,35.6762,35000</coordinates></LineString></Placemark>
<Placemark><styleUrl>#icon_4</styleUrl><Point><altitudeMode>relativeToGround</altitudeMode><coordinates>139.6503,35.6762,36000</coordinates></Point></Placemark>
<Placemark><styleUrl>#arc_5</styleUrl><LineString><tessellate>1</tessellate><altitudeMode>relativeToGround</altitudeMode><coordinates>139.1827,35.5379,0 139.1957,35.5118,0 139.2109,35.4864,0 139.2283,35.462,0 139.2477,35.4386,0 139.2691,35.4164,0 139.2923,35.3954,0 139.3173,35.3758,0 139.3439,35.3577,0 139.372,35.3411,0 139.4015,35.3261,0 139.4322,35.3129,0 139.4639,35.3014,0 139.4965,35.2917,0 139.5299,35.284,0 139.5639,35.2781,0 139.5983,35.2742,0 139.6329,35.2722,0 139.6677,35.2722,0 139.7023,35.2742,0 139.7367,35.2781,0 139.7707,35.284,0 139.8041,35.2917,0 139.8367,35.3014,0 139.8684,35.3129,0 139.8991,35.3261,0 139.9286,35.3411,0 139.9567,35.3577,0 139.9833,35.3758,0 140.0083,35.3954,0 140.0315,35.4164,0 140.0529,35.4386,0 140.0723,35.462,0 140.0897,35.4864,0 140.1049,35.5118,0 140.1179,35.5379,0</coordinates></LineString></Placemark>
</Document></kml>
