<?xml version="1.0" encoding="UTF-8"?>
<kml xmlns="http://www.opengis.net/kml/2.2" xmlns:gx="http://www.google.com/kml/ext/2.2" xmlns:kml="http://www.opengis.net/kml/2.2">
<Document><name>BGP Hijack Alert</name>
<LookAt><longitude>15.0</longitude><latitude>48.0</latitude><range>5000000</range><tilt>45</tilt><heading>0</heading><altitudeMode>relativeToGround</altitudeMode></LookAt>
<Style id="ring_0"><LineStyle><color>ff00c4ff</color><width>3</width></LineStyle></Style>
<Style id="ring_1"><LineStyle><color>ff3a45ff</color><width>5</width></LineStyle></Style>
<Style id="spire_2"><LineStyle><color>ff00c4ff</color><width>3</width></LineStyle></Style>
<Style id="icon_3"><IconStyle><scale>1.6</scale><Icon><href>http://lg1:81/kml/icons/circle-red.png</href></Icon></IconStyle></Style>
<Style id="poly_4"><PolyStyle><color>333a45ff</color></PolyStyle></Style>
<Style id="spike_5"><LineStyle><color>ff00c4ff</color><width>2</width></LineStyle></Style>
<Style id="ring_6"><LineStyle><color>5500c4ff</color><width>3</width></LineStyle></Style>
<Style id="ring_7"><LineStyle><color>3c00c4ff</color><width>3</width></LineStyle></Style>
<Style id="ring_8"><LineStyle><color>2800c4ff</color><width>3</width></LineStyle></Style>
<Placemark><styleUrl>#ring_0</styleUrl><LineString><tessellate>1</tessellate><altitudeMode>relativeToGround</altitudeMode><coordinates>19.0275,48.0,0 18.9931,48.3518,0 18.8903,48.6975,0 18.7209,49.0313,0 18.4879,49.3475,0 18.1952,49.6406,0 17.8479,49.9056,0 17.4518,50.138,0 17.0138,50.3339,0 16.5413,50.4898,0 16.0424,50.6031,0 15.5257,50.6719,0 15.0,50.6949,0 14.4743,50.6719,0 13.9576,50.6031,0 13.4587,50.4898,0 12.9862,50.3339,0 12.5482,50.138,0 12.1521,49.9056,0 11.8048,49.6406,0 11.5121,49.3475,0 11.2791,49.0313,0 11.1097,48.6975,0 11.0069,48.3518,0 10.9725,48.0,0 11.0069,47.6482,0 11.1097,47.3025,0 11.2791,46.9687,0 11.5121,46.6525,0 11.8048,46.3594,0 12.1521,46.0944,0 12.5482,45.862,0 12.9862,45.6661,0 13.4587,45.5102,0 13.9576,45.3969,0 14.4743,45.3281,0 15.0,45.3051,0 15.5257,45.3281,0 16.0424,45.3969,0 16.5413,45.5102,0 17.0138,45.6661,0 17.4518,45.862,0 17.8479,46.0944,0 18.1952,46.3594,0 18.4879,46.6525,0 18.7209,46.9687,0 18.8903,47.3025,0 18.9931,47.6482,0 19.0275,48.0,0</coordinates></LineString></Placemark>
<Placemark><styleUrl>#ring_0</styleUrl><LineString><tessellate>1</tessellate><altitudeMode>relativeToGround</altitudeMode><coordinates>23.055,48.0,0 22.9861,48.7035,0 22.7806,49.395,0 22.4419,50.0626,0 21.9759,50.6949,0 21.3905,51.2811,0 20.6958,51.8112,0 19.9036,52.2761,0 19.0275,52.6678,0 18.0825,52.9796,0 17.0848,53.2062,0 16.0514,53.3438,0 15.0,53.3899,0 13.9486,53.3438,0 12.9152,53.2062,0 11.9175,52.9796,0 10.9725,52.6678,0 10.0964,52.2761,0 9.3042,51.8112,0 8.6095,51.2811,0 8.0241,50.6949,0 7.5581,50.0626,0 7.2194,49.395,0 7.0139,48.7035,0 6.945,48.0,0 7.0139,47.2965,0 7.2194,46.605,0 7.5581,45.9374,0 8.0241,45.3051,0 8.6095,44.7189,0 9.3042,44.1888,0 10.0964,43.7239,0 10.9725,43.3322,0 11.9175,43.0204,0 12.9152,42.7938,0 13.9486,42.6562,0 15.0,42.6101,0 16.0514,42.6562,0 17.0848,42.7938,0 18.0825,43.0204,0 19.0275,43.3322,0 19.9036,43.7239,0 20.6958,44.1888,0 21.3905,44.7189,0 21.9759,45.3051,0 22.4419,45.9374,0 22.7806,46.605,0 22.9861,47.2965,0 23.055,48.0,0</coordinates></LineString></Placemark>
<Placemark><styleUrl>#ring_0</styleUrl><LineString><tessellate>1</tessellate><altitudeMode>relativeToGround</altitudeMode><coordinates>27.0825,48.0,0 26.9792,49.0553,0 26.6708,50.0925,0 26.1628,51.0939,0 25.4638,52.0424,0 24.5857,52.9217,0 23.5436,53.7168,0 22.3554,54.4141,0 21.0413,55.0016,0 19.6238,55.4694,0 18.1272,55.8093,0 16.5771,56.0156,0 15.0,56.0848,0 13.4229,56.0156,0 11.8728,55.8093,0 10.3762,55.4694,0 8.9587,55.0016,0 7.6446,54.4141,0 6.4564,53.7168,0 5.4143,52.9217,0 4.5362,52.0424,0 3.8372,51.0939,0 3.3292,50.0925,0 3.0208,49.0553,0 2.9175,48.0,0 3.0208,46.9447,0 3.3292,45.9075,0 3.8372,44.9061,0 4.5362,43.9576,0 5.4143,43.0783,0 6.4564,42.2832,0 7.6446,41.5859,0 8.9587,40.9984,0 10.3762,40.5306,0 11.8728,40.1907,0 13.4229,39.9844,0 15.0,39.9152,0 16.5771,39.9844,0 18.1272,40.1907,0 19.6238,40.5306,0 21.0413,40.9984,0 22.3554,41.5859,0 23.5436,42.2832,0 24.5857,43.0783,0 25.4638,43.9576,0 26.1628,44.9061,0 26.6708,45.9075,0 26.9792,46.9447,0 27.0825,48.0,0</coordinates></LineString></Placemark>
<Placemark><styleUrl>#ring_1</styleUrl><LineString><tessellate>1</tessellate><altitudeMode>relativeToGround</altitudeMode><coordinates>17.0138,48.0,0 16.9965,48.1759,0 16.9451,48.3488,0 16.8605,48.5157,0 16.744,48.6737,0 16.5976,48.8203,0 16.4239,48.9528,0 16.2259,49.069,0 16.0069,49.1669,0 15.7706,49.2449,0 15.5212,49.3016,0 15.2628,49.3359,0 15.0,49.3475,0 14.7372,49.3359,0 14.4788,49.3016,0 14.2294,49.2449,0 13.9931,49.1669,0 13.7741,49.069,0 13.5761,48.9528,0 13.4024,48.8203,0 13.256,48.6737,0 13.1395,48.5157,0 13.0549,48.3488,0 13.0035,48.1759,0 12.9862,48.0,0 13.0035,47.8241,0 13.0549,47.6512,0 13.1395,47.4843,0 13.256,47.3263,0 13.4024,47.1797,0 13.5761,47.0472,0 13.7741,46.931,0 13.9931,46.8331,0 14.2294,46.7551,0 14.4788,46.6984,0 14.7372,46.6641,0 15.0,46.6525,0 15.2628,46.6641,0 15.5212,46.6984,0 15.7706,46.7551,0 16.0069,46.8331,0 16.2259,46.931,0 16.4239,47.0472,0 16.5976,47.1797,0 16.744,47.3263,0 16.8605,47.4843,0 16.9451,47.6512,0 16.9965,47.8241,0 17.0138,48.0,0</coordinates></LineString></Placemark>
<Placemark><styleUrl>#spire_2</styleUrl><LineString><altitudeMode>relativeToGround</altitudeMode><coordinates>15.0,48.0,0 15.0,48.0,20000</coordinates></LineString></Placemark>
<Placemark><styleUrl>#spire_2</styleUrl><LineString><altitudeMode>relativeToGround</altitudeMode><coordinates>15.0,48.0,0 15.0,48.0,38000</coordinates></LineString></Placemark>
<Placemark><styleUrl>#icon_3</styleUrl><Point><altitudeMode>relativeToGround</altitudeMode><coordinates>15.0,48.0,0</coordinates></Point></Placemark>
<Placemark><styleUrl>#poly_4</styleUrl><Polygon><tessellate>1</tessellate><altitudeMode>relativeToGround</altitudeMode><outerBoundaryIs><LinearRing><coordinates>5.0,55.0,0 25.0,55.0,0 22.0,42.0,0 8.0,42.0,0 5.0,55.0,0</coordinates></LinearRing></outerBoundaryIs></Polygon></Placemark>
<Placemark><styleUrl>#spike_5</styleUrl><LineString><tessellate>1</tessellate><altitudeMode>relativeToGround</altitudeMode><coordinates>15.0689,48.0,0 15.5102,48.0,0</coordinates></LineString></Placemark>
<Placemark><styleUrl>#spike_5</styleUrl><LineString><tessellate>1</tessellate><altitudeMode>relativeToGround</altitudeMode><coordinates>15.0353,48.0098,0 15.4713,48.1306,0</coordinates></LineString></Placemark>
<Placemark><styleUrl>#spike_5</styleUrl><LineString><tessellate>1</tessellate><altitudeMode>relativeToGround</altitudeMode><coordinates>15.0487,48.0326,0 15.3607,48.2414,0</coordinates></LineString></Placemark>
<Placemark><styleUrl>#spike_5</styleUrl><LineString><tessellate>1</tessellate><altitudeMode>relativeToGround</altitudeMode><coordinates>15.0146,48.0237,0 15.1952,48.3154,0</coordinates></LineString></Placemark>
<Placemark><styleUrl>#spike_5</styleUrl><LineString><tessellate>1</tessellate><altitudeMode>relativeToGround</altitudeMode><coordinates>15.0,48.0461,0 15.0,48.3414,0</coordinates></LineString></Placemark>
<Placemark><styleUrl>#spike_5</styleUrl><LineString><tessellate>1</tessellate><altitudeMode>relativeToGround</altitudeMode><coordinates>14.9854,48.0237,0 14.8048,48.3154,0</coordinates></LineString></Placemark>
<Placemark><styleUrl>#spike_5</styleUrl><LineString><tessellate>1</tessellate><altitudeMode>relativeToGround</altitudeMode><coordinates>14.9513,48.0326,0 14.6393,48.2414,0</coordinates></LineString></Placemark>
<Placemark><styleUrl>#spike_5</styleUrl><LineString><tessellate>1</tessellate><altitudeMode>relativeToGround</altitudeMode><coordinates>14.9647,48.0098,0 14.5287,48.1306,0</coordinates></LineString></Placemark>
<Placemark><styleUrl>#spike_5</styleUrl><LineString><tessellate>1</tessellate><altitudeMode>relativeToGround</altitudeMode><coordinates>14.9311,48.0,0 14.4898,48.0,0</coordinates></LineString></Placemark>
<Placemark><styleUrl>#spike_5</styleUrl><LineString><tessellate>1</tessellate><altitudeMode>relativeToGround</altitudeMode><coordinates>14.9647,47.9902,0 14.5287,47.8694,0</coordinates></LineString></Placemark>
<Placemark><styleUrl>#spike_5</styleUrl><LineString><tessellate>1</tessellate><altitudeMode>relativeToGround</altitudeMode><coordinates>14.9513,47.9674,0 14.6393,47.7586,0</coordinates></LineString></Placemark>
<Placemark><styleUrl>#spike_5</styleUrl><LineString><tessellate>1</tessellate><altitudeMode>relativeToGround</altitudeMode><coordinates>14.9854,47.9763,0 14.8048,47.6846,0</coordinates></LineString></Placemark>
<Placemark><styleUrl>#spike_5</styleUrl><LineString><tessellate>1</tessellate><altitudeMode>relativeToGround</altitudeMode><coordinates>15.0,47.9539,0 15.0,47.6586,0</coordinates></LineString></Placemark>
<Placemark><styleUrl>#spike_5</styleUrl><LineString><tessellate>1</tessellate><altitudeMode>relativeToGround</altitudeMode><coordinates>15.0146,47.9763,0 15.1952,47.6846,0</coordinates></LineString></Placemark>
<Placemark><styleUrl>#spike_5</styleUrl><LineString><tessellate>1</tessellate><altitudeMode>relativeToGround</altitudeMode><coordinates>15.0487,47.9674,0 15.3607,47.7586,0</coordinates></LineString></Placemark>
<Placemark><styleUrl>#spike_5</styleUrl><LineString><tessellate>1</tessellate><altitudeMode>relativeToGround</altitudeMode><coordinates>15.0353,47.9902,0 15.4713,47.8694,0</coordinates></LineString></Placemark>
<Placemark><styleUrl>#ring_6</styleUrl><LineString><tessellate>1</tessellate><altitudeMode>relativeToGround</altitudeMode><coordinates>15.8861,48.0,0 15.8785,48.0774,0 15.8559,48.1535,0 15.8186,48.2269,0 15.7673,48.2964,0 15.703,48.3609,0 15.6265,48.4192,0 15.5394,48.4704,0 15.443,48.5135,0 15.3391,48.5478,0 15.2293,48.5727,0 15.1157,48.5878,0 15.0,48.5929,0 14.8843,48.5878,0 14.7707,48.5727,0 14.6609,48.5478,0 14.557,48.5135,0 14.4606,48.4704,0 14.3735,48.4192,0 14.297,48.3609,0 14.2327,48.2964,0 14.1814,48.2269,0 14.1441,48.1535,0 14.1215,48.0774,0 14.1139,48.0,0 14.1215,47.9226,0 14.1441,47.8465,0 14.1814,47.7731,0 14.2327,47.7036,0 14.297,47.6391,0 14.3735,47.5808,0 14.4606,47.5296,0 14.557,47.4865,0 14.6609,47.4522,0 14.7707,47.4273,0 14.8843,47.4122,0 15.0,47.4071,0 15.1157,47.4122,0 15.2293,47.4273,0 15.3391,47.4522,0 15.443,47.4865,0 15.5394,47.5296,0 15.6265,47.5808,0 15.703,47.6391,0 15.7673,47.7036,0 15.8186,47.7731,0 15.8559,47.8465,0 15.8785,47.9226,0 15.8861,48.0,0</coordinates></LineString></Placemark>
<Placemark><styleUrl>#ring_7</styleUrl><LineString><tessellate>1</tessellate><altitudeMode>relativeToGround</altitudeMode><coordinates>16.3694,48.0,0 16.3576,48.1196,0 16.3227,48.2372,0 16.2651,48.3506,0 16.1859,48.4581,0 16.0864,48.5578,0 15.9683,48.6479,0 15.8336,48.7269,0 15.6847,48.7935,0 15.524,48.8465,0 15.3544,48.8851,0 15.1787,48.9084,0 15.0,48.9163,0 14.8213,48.9084,0 14.6456,48.8851,0 14.476,48.8465,0 14.3153,48.7935,0 14.1664,48.7269,0 14.0317,48.6479,0 13.9136,48.5578,0 13.8141,48.4581,0 13.7349,48.3506,0 13.6773,48.2372,0 13.6424,48.1196,0 13.6306,48.0,0 13.6424,47.8804,0 13.6773,47.7628,0 13.7349,47.6494,0 13.8141,47.5419,0 13.9136,47.4422,0 14.0317,47.3521,0 14.1664,47.2731,0 14.3153,47.2065,0 14.476,47.1535,0 14.6456,47.1149,0 14.8213,47.0916,0 15.0,47.0837,0 15.1787,47.0916,0 15.3544,47.1149,0 15.524,47.1535,0 15.6847,47.2065,0 15.8336,47.2731,0 15.9683,47.3521,0 16.0864,47.4422,0 16.1859,47.5419,0 16.2651,47.6494,0 16.3227,47.7628,0 16.3576,47.8804,0 16.3694,48.0,0</coordinates></LineString></Placemark>
<Placemark><styleUrl>#ring_8</styleUrl><LineString><tessellate>1</tessellate><altitudeMode>relativeToGround</altitudeMode><coordinates>16.8527,48.0,0 16.8368,48.1618,0 16.7895,48.3209,0 16.7116,48.4744,0 16.6044,48.6198,0 16.4698,48.7547,0 16.31,48.8766,0 16.1278,48.9835,0 15.9263,49.0736,0 15.709,49.1453,0 15.4795,49.1974,0 15.2418,49.2291,0 15.0,49.2397,0 14.7582,49.2291,0 14.5205,49.1974,0 14.291,49.1453,0 14.0737,49.0736,0 13.8722,48.9835,0 13.69,48.8766,0 13.5302,48.7547,0 13.3956,48.6198,0 13.2884,48.4744,0 13.2105,48.3209,0 13.1632,48.1618,0 13.1473,48.0,0 13.1632,47.8382,0 13.2105,47.6791,0 13.2884,47.5256,0 13.3956,47.3802,0 13.5302,47.2453,0 13.69,47.1234,0 13.8722,47.0165,0 14.0737,46.9264,0 14.291,46.8547,0 14.5205,46.8026,0 14.7582,46.7709,0 15.0,46.7603,0 15.2418,46.7709,0 15.4795,46.8026,0 15.709,46.8547,0 15.9263,46.9264,0 16.1278,47.0165,0 16.31,47.1234,0 16.4698,47.2453,0 16.6044,47.3802,0 16.7116,47.5256,0 16.7895,47.6791,0 16.8368,47.8382,0 16.8527,48.0,0</coordinates></LineString></Placemark>
</Document></kml>
