<?xml version="1.0" encoding="UTF-8"?>
<kml xmlns="http://www.opengis.net/kml/2.2" xmlns:gx="http://www.google.com/kml/ext/2.2" xmlns:kml="http://www.opengis.net/kml/2.2">
<Document><name>Global Outage Map</name>
<LookAt><longitude>20.0</longitude><latitude>30.0</latitude><range>8000000</range><tilt>40</tilt><heading>0</heading><altitudeMode>relativeToGround</altitudeMode></LookAt>
<Style id="poly_0"><PolyStyle><color>443a45ff</color></PolyStyle></Style>
<Style id="ring_1"><LineStyle><color>ff3a45ff</color><width>3</width></LineStyle></Style>
<Style id="spire_2"><LineStyle><color>ff3a45ff</color><width>3</width></LineStyle></Style>
<Style id="dot_3"><IconStyle><scale>0.9</scale><Icon><href>http://lg1:81/kml/icons/circle-red.png</href></Icon></IconStyle></Style>
<Style id="line_4"><LineStyle><color>ff00c4ff</color><width>3</width></LineStyle></Style>
<Style id="burst_5"><LineStyle><color>ff3a45ff</color><width>2</width></LineStyle></Style>
<Placemark><styleUrl>#poly_0</styleUrl><Polygon><tessellate>1</tessellate><altitudeMode>relativeToGround</altitudeMode><outerBoundaryIs><LinearRing><coordinates>30.0,46.0,0 40.0,46.0,0 38.0,40.0,0 28.0,40.0,0 30.0,46.0,0</coordinates></LinearRing></outerBoundaryIs></Polygon></Placemark>
<Placemark><styleUrl>#ring_1</styleUrl><LineString><tessellate>1</tessellate><altitudeMode>relativeToGround</altitudeMode><coordinates>39.1491,30.0,0 39.1136,30.469,0 39.0077,30.93,0 38.8333,31.3751,0 38.5932,31.7966,0 38.2917,32.1874,0 37.9339,32.5408,0 37.5258,32.8507,0 37.0746,33.1118,0 36.5878,33.3197,0 36.0739,33.4708,0 35.5416,33.5625,0 35.0,33.5932,0 34.4584,33.5625,0 33.9261,33.4708,0 33.4122,33.3197,0 32.9254,33.1118,0 32.4742,32.8507,0 32.0661,32.5408,0 31.7083,32.1874,0 31.4068,31.7966,0 31.1667,31.3751,0 30.9923,30.93,0 30.8864,30.469,0 30.8509,30.0,0 30.8864,29.531,0 30.9923,29.07,0 31.1667,28.6249,0 31.4068,28.2034,0 31.7083,27.8126,0 32.0661,27.4592,0 32.4742,27.1493,0 32.9254,26.8882,0 33.4122,26.6803,0 33.9261,26.5292,0 34.4584,26.4375,0 35.0,26.4068,0 35.5416,26.4375,0 36.0739,26.5292,0 36.5878,26.6803,0 37.0746,26.8882,0 37.5258,27.1493,0 37.9339,27.4592,0 38.2917,27.8126,0 38.5932,28.2034,0 38.8333,28.6249,0 39.0077,29.07,0 39.1136,29.531,0 39.1491,30.0,0</coordinates></LineString></Placemark>
<Placemark><styleUrl>#ring_1</styleUrl><LineString><tessellate>1</tessellate><altitudeMode>relativeToGround</altitudeMode><coordinates>43.2982,30.0,0 43.2273,30.938,0 43.0155,31.86,0 42.6666,32.7502,0 42.1865,33.5932,0 41.5834,34.3749,0 40.8677,35.0816,0 40.0517,35.7014,0 39.1491,36.2237,0 38.1756,36.6395,0 37.1477,36.9416,0 36.0831,37.125,0 35.0,37.1865,0 33.9169,37.125,0 32.8523,36.9416,0 31.8244,36.6395,0 30.8509,36.2237,0 29.9483,35.7014,0 29.1323,35.0816,0 28.4166,34.3749,0 27.8135,33.5932,0 27.3334,32.7502,0 26.9845,31.86,0 26.7727,30.938,0 26.7018,30.0,0 26.7727,29.062,0 26.9845,28.14,0 27.3334,27.2498,0 27.8135,26.4068,0 28.4166,25.6251,0 29.1323,24.9184,0 29.9483,24.2986,0 30.8509,23.7763,0 31.8244,23.3605,0 32.8523,23.0584,0 33.9169,22.875,0 35.0,22.8135,0 36.0831,22.875,0 37.1477,23.0584,0 38.1756,23.3605,0 39.1491,23.7763,0 40.0517,24.2986,0 40.8677,24.9184,0 41.5834,25.6251,0 42.1865,26.4068,0 42.6666,27.2498,0 43.0155,28.14,0 43.2273,29.062,0 43.2982,30.0,0</coordinates></LineString></Placemark>
<Placemark><styleUrl>#spire_2</styleUrl><LineString><altitudeMode>relativeToGround</altitudeMode><coordinates>35.0,30.0,0 35.0,30.0,15000</coordinates></LineString></Placemark>
<Placemark><styleUrl>#spire_2</styleUrl><LineString><altitudeMode>relativeToGround</altitudeMode><coordinates>35.0,30.0,0 35.0,30.0,28000</coordinates></LineString></Placemark>
<Placemark><styleUrl>#spire_2</styleUrl><LineString><altitudeMode>relativeToGround</altitudeMode><coordinates>35.0,30.0,0 35.0,30.0,40000</coordinates></LineString></Placemark>
<Placemark><styleUrl>#dot_3</styleUrl><Point><altitudeMode>relativeToGround</altitudeMode><coordinates>-70.0,40.0,0</coordinates></Point></Placemark>
<Placemark><styleUrl>#dot_3</styleUrl><Point><altitudeMode>relativeToGround</altitudeMode><coordinates>10.0,45.0,0</coordinates></Point></Placemark>
<Placemark><styleUrl>#dot_3</styleUrl><Point><altitudeMode>relativeToGround</altitudeMode><coordinates>90.0,30.0,0</coordinates></Point></Placemark>
<Placemark><styleUrl>#dot_3</styleUrl><Point><altitudeMode>relativeToGround</altitudeMode><coordinates>120.0,35.0,0</coordinates></Point></Placemark>
<Placemark><styleUrl>#dot_3</styleUrl><Point><altitudeMode>relativeToGround</altitudeMode><coordinates>-20.0,5.0,0</coordinates></Point></Placemark>
<Placemark><styleUrl>#line_4</styleUrl><LineString><tessellate>1</tessellate><altitudeMode>relativeToGround</altitudeMode><coordinates>30.0,46.0,0 33.0,43.0,0 36.0,41.0,0</coordinates></LineString></Placemark>
<Placemark><styleUrl>#burst_5</styleUrl><LineString><tessellate>1</tessellate><altitudeMode>relativeToGround</altitudeMode><coordinates>33.0,35.0,0 35.1933,35.0,0</coordinates></LineString></Placemark>
<Placemark><styleUrl>#burst_5</styleUrl><LineString><tessellate>1</tessellate><altitudeMode>relativeToGround</altitudeMode><coordinates>33.0,35.0,0 34.0966,36.5559,0</coordinates></LineString></Placemark>
<Placemark><styleUrl>#burst_5</styleUrl><LineString><tessellate>1</tessellate><altitudeMode>relativeToGround</altitudeMode><coordinates>33.0,35.0,0 31.9034,36.5559,0</coordinates></LineString></Placemark>
<Placemark><styleUrl>#burst_5</styleUrl><LineString><tessellate>1</tessellate><altitudeMode>relativeToGround</altitudeMode><coordinates>33.0,35.0,0 30.8067,35.0,0</coordinates></LineString></Placemark>
<Placemark><styleUrl>#burst_5</styleUrl><LineString><tessellate>1</tessellate><altitudeMode>relativeToGround</altitudeMode><coordinates>33.0,35.0,0 31.9034,33.4441,0</coordinates></LineString></Placemark>
<Placemark><styleUrl>#burst_5</styleUrl><LineString><tessellate>1</tessellate><altitudeMode>relativeToGround</altitudeMode><coordinates>33.0,35.0,0 34.0966,33.4441,0</coordinates></LineString></Placemark>
</Document></kml>
