<?xml version="1.0" encoding="UTF-8"?>
<kml xmlns="http://www.opengis.net/kml/2.2">
<Document><name>Monsoon Floods</name>
<LookAt><longitude>88.0</longitude><latitude>24.0</latitude><range>1500000</range><tilt>45</tilt><heading>0</heading><altitudeMode>relativeToGround</altitudeMode></LookAt>
<Style id="poly_0"><PolyStyle><color>55ff840a</color></PolyStyle></Style>
<Style id="ring_1"><LineStyle><color>ffff840a</color><width>3</width></LineStyle></Style>
<Style id="line_2"><LineStyle><color>ffff7a00</color><width>5</width></LineStyle></Style>
<Style id="dot_3"><IconStyle><scale>0.8</scale><Icon><href>http://maps.google.com/mapfiles/kml/paddle/blue-circle.png</href></Icon></IconStyle></Style>
<Style id="col_4"><LineStyle><color>ffff840a</color><width>1</width></LineStyle><PolyStyle><color>ffff840a</color></PolyStyle></Style>
<Style id="ring_5"><LineStyle><color>55ff840a</color><width>3</width></LineStyle></Style>
<Style id="ring_6"><LineStyle><color>3cff840a</color><width>3</width></LineStyle></Style>
<Style id="ring_7"><LineStyle><color>28ff840a</color><width>3</width></LineStyle></Style>
<Placemark><styleUrl>#poly_0</styleUrl><Polygon><tessellate>1</tessellate><altitudeMode>relativeToGround</altitudeMode><outerBoundaryIs><LinearRing><coordinates>87.0,26.0,0 90.0,26.0,0 89.0,22.0,0 86.0,22.0,0 87.0,26.0,0</coordinates></LinearRing></outerBoundaryIs></Polygon></Placemark>
<Placemark><styleUrl>#ring_1</styleUrl><LineString><tessellate>1</tessellate><altitudeMode>relativeToGround</altitudeMode><coordinates>89.475,24.0,0 89.4624,24.1759,0 89.4247,24.3488,0 89.3627,24.5157,0 89.2774,24.6737,0 89.1702,24.8203,0 89.043,24.9528,0 88.8979,25.069,0 88.7375,25.1669,0 88.5645,25.2449,0 88.3818,25.3016,0 88.1925,25.3359,0 88.0,25.3475,0 87.8075,25.3359,0 87.6182,25.3016,0 87.4355,25.2449,0 87.2625,25.1669,0 87.1021,25.069,0 86.957,24.9528,0 86.8298,24.8203,0 86.7226,24.6737,0 86.6373,24.5157,0 86.5753,24.3488,0 86.5376,24.1759,0 86.525,24.0,0 86.5376,23.8241,0 86.5753,23.6512,0 86.6373,23.4843,0 86.7226,23.3263,0 86.8298,23.1797,0 86.957,23.0472,0 87.1021,22.931,0 87.2625,22.8331,0 87.4355,22.7551,0 87.6182,22.6984,0 87.8075,22.6641,0 88.0,22.6525,0 88.1925,22.6641,0 88.3818,22.6984,0 88.5645,22.7551,0 88.7375,22.8331,0 88.8979,22.931,0 89.043,23.0472,0 89.1702,23.1797,0 89.2774,23.3263,0 89.3627,23.4843,0 89.4247,23.6512,0 89.4624,23.8241,0 89.475,24.0,0</coordinates></LineString></Placemark>
<Placemark><styleUrl>#ring_1</styleUrl><LineString><tessellate>1</tessellate><altitudeMode>relativeToGround</altitudeMode><coordinates>90.95,24.0,0 90.9247,24.3518,0 90.8495,24.6975,0 90.7254,25.0313,0 90.5548,25.3475,0 90.3404,25.6406,0 90.0859,25.9056,0 89.7958,26.138,0 89.475,26.3339,0 89.1289,26.4898,0 88.7635,26.6031,0 88.385,26.6719,0 88.0,26.6949,0 87.615,26.6719,0 87.2365,26.6031,0 86.8711,26.4898,0 86.525,26.3339,0 86.2042,26.138,0 85.9141,25.9056,0 85.6596,25.6406,0 85.4452,25.3475,0 85.2746,25.0313,0 85.1505,24.6975,0 85.0753,24.3518,0 85.05,24.0,0 85.0753,23.6482,0 85.1505,23.3025,0 85.2746,22.9687,0 85.4452,22.6525,0 85.6596,22.3594,0 85.9141,22.0944,0 86.2042,21.862,0 86.525,21.6661,0 86.8711,21.5102,0 87.2365,21.3969,0 87.615,21.3281,0 88.0,21.3051,0 88.385,21.3281,0 88.7635,21.3969,0 89.1289,21.5102,0 89.475,21.6661,0 89.7958,21.862,0 90.0859,22.0944,0 90.3404,22.3594,0 90.5548,22.6525,0 90.7254,22.9687,0 90.8495,23.3025,0 90.9247,23.6482,0 90.95,24.0,0</coordinates></LineString></Placemark>
<Placemark><styleUrl>#line_2</styleUrl><LineString><tessellate>1</tessellate><altitudeMode>relativeToGround</altitudeMode><coordinates>86.5,25.0,0 88.0,24.0,0 89.5,23.0,0</coordinates></LineString></Placemark>
<Placemark><styleUrl>#dot_3</styleUrl><Point><altitudeMode>relativeToGround</altitudeMode><coordinates>87.5,25.5,0</coordinates></Point></Placemark>
<Placemark><styleUrl>#dot_3</styleUrl><Point><altitudeMode>relativeToGround</altitudeMode><coordinates>88.5,23.5,0</coordinates></Point></Placemark>
<Placemark><styleUrl>#dot_3</styleUrl><Point><altitudeMode>relativeToGround</altitudeMode><coordinates>89.0,25.0,0</coordinates></Point></Placemark>
<Placemark><styleUrl>#col_4</styleUrl><Polygon><extrude>1</extrude><tessellate>1</tessellate><altitudeMode>relativeToGround</altitudeMode><outerBoundaryIs><LinearRing><coordinates>87.8,23.8,16000 88.2,23.8,16000 88.2,24.2,16000 87.8,24.2,16000 87.8,23.8,16000</coordinates></LinearRing></outerBoundaryIs></Polygon></Placemark>
<Placemark><styleUrl>#ring_5</styleUrl><LineString><tessellate>1</tessellate><altitudeMode>relativeToGround</altitudeMode><coordinates>88.649,24.0,0 88.6434,24.0774,0 88.6269,24.1535,0 88.5996,24.2269,0 88.562,24.2964,0 88.5149,24.3609,0 88.4589,24.4192,0 88.3951,24.4704,0 88.3245,24.5135,0 88.2484,24.5478,0 88.168,24.5727,0 88.0847,24.5878,0 88.0,24.5929,0 87.9153,24.5878,0 87.832,24.5727,0 87.7516,24.5478,0 87.6755,24.5135,0 87.6049,24.4704,0 87.5411,24.4192,0 87.4851,24.3609,0 87.438,24.2964,0 87.4004,24.2269,0 87.3731,24.1535,0 87.3566,24.0774,0 87.351,24.0,0 87.3566,23.9226,0 87.3731,23.8465,0 87.4004,23.7731,0 87.438,23.7036,0 87.4851,23.6391,0 87.5411,23.5808,0 87.6049,23.5296,0 87.6755,23.4865,0 87.7516,23.4522,0 87.832,23.4273,0 87.9153,23.4122,0 88.0,23.4071,0 88.0847,23.4122,0 88.168,23.4273,0 88.2484,23.4522,0 88.3245,23.4865,0 88.3951,23.5296,0 88.4589,23.5808,0 88.5149,23.6391,0 88.562,23.7036,0 88.5996,23.7731,0 88.6269,23.8465,0 88.6434,23.9226,0 88.649,24.0,0</coordinates></LineString></Placemark>
<Placemark><styleUrl>#ring_6</styleUrl><LineString><tessellate>1</tessellate><altitudeMode>relativeToGround</altitudeMode><coordinates>89.003,24.0,0 88.9944,24.1196,0 88.9688,24.2372,0 88.9266,24.3506,0 88.8686,24.4581,0 88.7957,24.5578,0 88.7092,24.6479,0 88.6106,24.7269,0 88.5015,24.7935,0 88.3838,24.8465,0 88.2596,24.8851,0 88.1309,24.9084,0 88.0,24.9163,0 87.8691,24.9084,0 87.7404,24.8851,0 87.6162,24.8465,0 87.4985,24.7935,0 87.3894,24.7269,0 87.2908,24.6479,0 87.2043,24.5578,0 87.1314,24.4581,0 87.0734,24.3506,0 87.0312,24.2372,0 87.0056,24.1196,0 86.997,24.0,0 87.0056,23.8804,0 87.0312,23.7628,0 87.0734,23.6494,0 87.1314,23.5419,0 87.2043,23.4422,0 87.2908,23.3521,0 87.3894,23.2731,0 87.4985,23.2065,0 87.6162,23.1535,0 87.7404,23.1149,0 87.8691,23.0916,0 88.0,23.0837,0 88.1309,23.0916,0 88.2596,23.1149,0 88.3838,23.1535,0 88.5015,23.2065,0 88.6106,23.2731,0 88.7092,23.3521,0 88.7957,23.4422,0 88.8686,23.5419,0 88.9266,23.6494,0 88.9688,23.7628,0 88.9944,23.8804,0 89.003,24.0,0</coordinates></LineString></Placemark>
<Placemark><styleUrl>#ring_7</styleUrl><LineString><tessellate>1</tessellate><altitudeMode>relativeToGround</altitudeMode><coordinates>89.357,24.0,0 89.3454,24.1618,0 89.3107,24.3209,0 89.2537,24.4744,0 89.1752,24.6198,0 89.0766,24.7547,0 88.9595,24.8766,0 88.8261,24.9835,0 88.6785,25.0736,0 88.5193,25.1453,0 88.3512,25.1974,0 88.1771,25.2291,0 88.0,25.2397,0 87.8229,25.2291,0 87.6488,25.1974,0 87.4807,25.1453,0 87.3215,25.0736,0 87.1739,24.9835,0 87.0405,24.8766,0 86.9234,24.7547,0 86.8248,24.6198,0 86.7463,24.4744,0 86.6893,24.3209,0 86.6546,24.1618,0 86.643,24.0,0 86.6546,23.8382,0 86.6893,23.6791,0 86.7463,23.5256,0 86.8248,23.3802,0 86.9234,23.2453,0 87.0405,23.1234,0 87.1739,23.0165,0 87.3215,22.9264,0 87.4807,22.8547,0 87.6488,22.8026,0 87.8229,22.7709,0 88.0,22.7603,0 88.1771,22.7709,0 88.3512,22.8026,0 88.5193,22.8547,0 88.6785,22.9264,0 88.8261,23.0165,0 88.9595,23.1234,0 89.0766,23.2453,0 89.1752,23.3802,0 89.2537,23.5256,0 89.3107,23.6791,0 89.3454,23.8382,0 89.357,24.0,0</coordinates></LineString></Placemark>
</Document></kml>
