<?xml version="1.0" encoding="UTF-8"?>
<kml xmlns="http://www.opengis.net/kml/2.2" xmlns:gx="http://www.google.com/kml/ext/2.2" xmlns:kml="http://www.opengis.net/kml/2.2">
<Document><name>Protest Zones</name>
<LookAt><longitude>10.0</longitude><latitude>45.0</latitude><range>4000000</range><tilt>45</tilt><heading>0</heading><altitudeMode>relativeToGround</altitudeMode></LookAt>
<Style id="poly_0"><PolyStyle><color>440095ff</color></PolyStyle></Style>
<Style id="ring_1"><LineStyle><color>ff0095ff</color><width>3</width></LineStyle></Style>
<Style id="burst_2"><LineStyle><color>ff303bff</color><width>2</width></LineStyle></Style>
<Style id="icon_3"><IconStyle><scale>1.3</scale><Icon><href>http://lg1:81/kml/icons/circle-orange.png</href></Icon></IconStyle></Style>
<Style id="spire_4"><LineStyle><color>ff0095ff</color><width>2</width></LineStyle></Style>
<Placemark><styleUrl>#poly_0</styleUrl><Polygon><tessellate>1</tessellate><altitudeMode>relativeToGround</altitudeMode><outerBoundaryIs><LinearRing><coordinates>8.0,47.0,0 12.0,47.0,0 11.0,43.0,0 7.0,43.0,0 8.0,47.0,0</coordinates></LinearRing></outerBoundaryIs></Polygon></Placemark>
<Placemark><styleUrl>#ring_1</styleUrl><LineString><tessellate>1</tessellate><altitudeMode>relativeToGround</altitudeMode><coordinates>12.5408,45.0,0 12.5191,45.2345,0 12.4542,45.465,0 12.3474,45.6875,0 12.2004,45.8983,0 12.0158,46.0937,0 11.7966,46.2704,0 11.5467,46.4254,0 11.2704,46.5559,0 10.9723,46.6599,0 10.6576,46.7354,0 10.3316,46.7813,0 10.0,46.7966,0 9.6684,46.7813,0 9.3424,46.7354,0 9.0277,46.6599,0 8.7296,46.5559,0 8.4533,46.4254,0 8.2034,46.2704,0 7.9842,46.0937,0 7.7996,45.8983,0 7.6526,45.6875,0 7.5458,45.465,0 7.4809,45.2345,0 7.4592,45.0,0 7.4809,44.7655,0 7.5458,44.535,0 7.6526,44.3125,0 7.7996,44.1017,0 7.9842,43.9063,0 8.2034,43.7296,0 8.4533,43.5746,0 8.7296,43.4441,0 9.0277,43.3401,0 9.3424,43.2646,0 9.6684,43.2187,0 10.0,43.2034,0 10.3316,43.2187,0 10.6576,43.2646,0 10.9723,43.3401,0 11.2704,43.4441,0 11.5467,43.5746,0 11.7966,43.7296,0 12.0158,43.9063,0 12.2004,44.1017,0 12.3474,44.3125,0 12.4542,44.535,0 12.5191,44.7655,0 12.5408,45.0,0</coordinates></LineString></Placemark>
<Placemark><styleUrl>#ring_1</styleUrl><LineString><tessellate>1</tessellate><altitudeMode>relativeToGround</altitudeMode><coordinates>15.0816,45.0,0 15.0381,45.469,0 14.9085,45.93,0 14.6948,46.3751,0 14.4008,46.7966,0 14.0315,47.1874,0 13.5932,47.5408,0 13.0935,47.8507,0 12.5408,48.1118,0 11.9447,48.3197,0 11.3152,48.4708,0 10.6633,48.5625,0 10.0,48.5932,0 9.3367,48.5625,0 8.6848,48.4708,0 8.0553,48.3197,0 7.4592,48.1118,0 6.9065,47.8507,0 6.4068,47.5408,0 5.9685,47.1874,0 5.5992,46.7966,0 5.3052,46.3751,0 5.0915,45.93,0 4.9619,45.469,0 4.9184,45.0,0 4.9619,44.531,0 5.0915,44.07,0 5.3052,43.6249,0 5.5992,43.2034,0 5.9685,42.8126,0 6.4068,42.4592,0 6.9065,42.1493,0 7.4592,41.8882,0 8.0553,41.6803,0 8.6848,41.5292,0 9.3367,41.4375,0 10.0,41.4068,0 10.6633,41.4375,0 11.3152,41.5292,0 11.9447,41.6803,0 12.5408,41.8882,0 13.0935,42.1493,0 13.5932,42.4592,0 14.0315,42.8126,0 14.4008,43.2034,0 14.6948,43.6249,0 14.9085,44.07,0 15.0381,44.531,0 15.0816,45.0,0</coordinates></LineString></Placemark>
<Placemark><styleUrl>#ring_1</styleUrl><LineString><tessellate>1</tessellate><altitudeMode>relativeToGround</altitudeMode><coordinates>17.6224,45.0,0 17.5572,45.7035,0 17.3627,46.395,0 17.0422,47.0626,0 16.6012,47.6949,0 16.0473,48.2811,0 15.3899,48.8112,0 14.6402,49.2761,0 13.8112,49.6678,0 12.917,49.9796,0 11.9728,50.2062,0 10.9949,50.3438,0 10.0,50.3899,0 9.0051,50.3438,0 8.0272,50.2062,0 7.083,49.9796,0 6.1888,49.6678,0 5.3598,49.2761,0 4.6101,48.8112,0 3.9527,48.2811,0 3.3988,47.6949,0 2.9578,47.0626,0 2.6373,46.395,0 2.4428,45.7035,0 2.3776,45.0,0 2.4428,44.2965,0 2.6373,43.605,0 2.9578,42.9374,0 3.3988,42.3051,0 3.9527,41.7189,0 4.6101,41.1888,0 5.3598,40.7239,0 6.1888,40.3322,0 7.083,40.0204,0 8.0272,39.7938,0 9.0051,39.6562,0 10.0,39.6101,0 10.9949,39.6562,0 11.9728,39.7938,0 12.917,40.0204,0 13.8112,40.3322,0 14.6402,40.7239,0 15.3899,41.1888,0 16.0473,41.7189,0 16.6012,42.3051,0 17.0422,42.9374,0 17.3627,43.605,0 17.5572,44.2965,0 17.6224,45.0,0</coordinates></LineString></Placemark>
<Placemark><styleUrl>#burst_2</styleUrl><LineString><tessellate>1</tessellate><altitudeMode>relativeToGround</altitudeMode><coordinates>10.0,45.0,0 13.176,45.0,0</coordinates></LineString></Placemark>
<Placemark><styleUrl>#burst_2</styleUrl><LineString><tessellate>1</tessellate><altitudeMode>relativeToGround</altitudeMode><coordinates>10.0,45.0,0 12.2458,46.588,0</coordinates></LineString></Placemark>
<Placemark><styleUrl>#burst_2</styleUrl><LineString><tessellate>1</tessellate><altitudeMode>relativeToGround</altitudeMode><coordinates>10.0,45.0,0 10.0,47.2458,0</coordinates></LineString></Placemark>
<Placemark><styleUrl>#burst_2</styleUrl><LineString><tessellate>1</tessellate><altitudeMode>relativeToGround</altitudeMode><coordinates>10.0,45.0,0 7.7542,46.588,0</coordinates></LineString></Placemark>
<Placemark><styleUrl>#burst_2</styleUrl><LineString><tessellate>1</tessellate><altitudeMode>relativeToGround</altitudeMode><coordinates>10.0,45.0,0 6.824,45.0,0</coordinates></LineString></Placemark>
<Placemark><styleUrl>#burst_2</styleUrl><LineString><tessellate>1</tessellate><altitudeMode>relativeToGround</altitudeMode><coordinates>10.0,45.0,0 7.7542,43.412,0</coordinates></LineString></Placemark>
<Placemark><styleUrl>#burst_2</styleUrl><LineString><tessellate>1</tessellate><altitudeMode>relativeToGround</altitudeMode><coordinates>10.0,45.0,0 10.0,42.7542,0</coordinates></LineString></Placemark>
<Placemark><styleUrl>#burst_2</styleUrl><LineString><tessellate>1</tessellate><altitudeMode>relativeToGround</altitudeMode><coordinates>10.0,45.0,0 12.2458,43.412,0</coordinates></LineString></Placemark>
<Placemark><styleUrl>#icon_3</styleUrl><Point><altitudeMode>relativeToGround</altitudeMode><coordinates>10.0,47.0,0</coordinates></Point></Placemark>
<Placemark><styleUrl>#spire_4</styleUrl><LineString><altitudeMode>relativeToGround</altitudeMode><coordinates>10.0,45.0,0 10.0,45.0,14000</coordinates></LineString></Placemark>
<Placemark><styleUrl>#spire_4</styleUrl><LineString><altitudeMode>relativeToGround</altitudeMode><coordinates>10.0,45.0,0 10.0,45.0,26000</coordinates></LineString></Placemark>
</Document></kml>
