<?xml version="1.0" encoding="UTF-8"?>
<kml xmlns="http://www.opengis.net/kml/2.2" xmlns:gx="http://www.google.com/kml/ext/2.2" xmlns:kml="http://www.opengis.net/kml/2.2">
<Document><name>Extreme Poverty Falling</name>
<LookAt><longitude>20.0</longitude><latitude>15.0</latitude><range>9000000</range><tilt>40</tilt><heading>0</heading><altitudeMode>relativeToGround</altitudeMode></LookAt>
<Style id="col_0"><LineStyle><color>ff59c734</color><width>1</width></LineStyle><PolyStyle><color>ff59c734</color></PolyStyle></Style>
<Style id="col_1"><LineStyle><color>ff59c734</color><width>1</width></LineStyle><PolyStyle><color>ff59c734</color></PolyStyle></Style>
<Style id="col_2"><LineStyle><color>ff59c734</color><width>1</width></LineStyle><PolyStyle><color>ff59c734</color></PolyStyle></Style>
<Style id="burst_3"><LineStyle><color>ff0ad6ff</color><width>2</width></LineStyle></Style>
<Style id="ring_4"><LineStyle><color>ff0ad6ff</color><width>2</width></LineStyle></Style>
<Style id="arc_5"><LineStyle><color>ff0095ff</color><width>3</width></LineStyle></Style>
<Placemark><styleUrl>#col_0</styleUrl><Polygon><extrude>1</extrude><tessellate>1</tessellate><altitudeMode>relativeToGround</altitudeMode><outerBoundaryIs><LinearRing><coordinates>19.75,14.75,30000 20.25,14.75,30000 20.25,15.25,30000 19.75,15.25,30000 19.75,14.75,30000</coordinates></LinearRing></outerBoundaryIs></Polygon></Placemark>
<Placemark><styleUrl>#col_1</styleUrl><Polygon><extrude>1</extrude><tessellate>1</tessellate><altitudeMode>relativeToGround</altitudeMode><outerBoundaryIs><LinearRing><coordinates>76.775,19.775,26000 77.225,19.775,26000 77.225,20.225,26000 76.775,20.225,26000 76.775,19.775,26000</coordinates></LinearRing></outerBoundaryIs></Polygon></Placemark>
<Placemark><styleUrl>#col_2</styleUrl><Polygon><extrude>1</extrude><tessellate>1</tessellate><altitudeMode>relativeToGround</altitudeMode><outerBoundaryIs><LinearRing><coordinates>-55.2,-10.2,22000 -54.8,-10.2,22000 -54.8,-9.8,22000 -55.2,-9.8,22000 -55.2,-10.2,22000</coordinates></LinearRing></outerBoundaryIs></Polygon></Placemark>
<Placemark><styleUrl>#burst_3</styleUrl><LineString><tessellate>1</tessellate><altitudeMode>relativeToGround</altitudeMode><coordinates>20.0,15.0,0 24.65,15.0,0</coordinates></LineString></Placemark>
<Placemark><styleUrl>#burst_3</styleUrl><LineString><tessellate>1</tessellate><altitudeMode>relativeToGround</altitudeMode><coordinates>20.0,15.0,0 23.288,18.176,0</coordinates></LineString></Placemark>
<Placemark><styleUrl>#burst_3</styleUrl><LineString><tessellate>1</tessellate><altitudeMode>relativeToGround</altitudeMode><coordinates>20.0,15.0,0 20.0,19.4916,0</coordinates></LineString></Placemark>
<Placemark><styleUrl>#burst_3</styleUrl><LineString><tessellate>1</tessellate><altitudeMode>relativeToGround</altitudeMode><coordinates>20.0,15.0,0 16.712,18.176,0</coordinates></LineString></Placemark>
<Placemark><styleUrl>#burst_3</styleUrl><LineString><tessellate>1</tessellate><altitudeMode>relativeToGround</altitudeMode><coordinates>20.0,15.0,0 15.35,15.0,0</coordinates></LineString></Placemark>
<Placemark><styleUrl>#burst_3</styleUrl><LineString><tessellate>1</tessellate><altitudeMode>relativeToGround</altitudeMode><coordinates>20.0,15.0,0 16.712,11.824,0</coordinates></LineString></Placemark>
<Placemark><styleUrl>#burst_3</styleUrl><LineString><tessellate>1</tessellate><altitudeMode>relativeToGround</altitudeMode><coordinates>20.0,15.0,0 20.0,10.5084,0</coordinates></LineString></Placemark>
<Placemark><styleUrl>#burst_3</styleUrl><LineString><tessellate>1</tessellate><altitudeMode>relativeToGround</altitudeMode><coordinates>20.0,15.0,0 23.288,11.824,0</coordinates></LineString></Placemark>
<Placemark><styleUrl>#ring_4</styleUrl><LineString><tessellate>1</tessellate><altitudeMode>relativeToGround</altitudeMode><coordinates>26.51,15.0,0 26.4543,15.8208,0 26.2882,16.6275,0 26.0145,17.4064,0 25.6378,18.1441,0 25.1647,18.828,0 24.6033,19.4464,0 23.963,19.9887,0 23.255,20.4457,0 22.4913,20.8095,0 21.6849,21.0739,0 20.8497,21.2344,0 20.0,21.2882,0 19.1503,21.2344,0 18.3151,21.0739,0 17.5087,20.8095,0 16.745,20.4457,0 16.037,19.9887,0 15.3967,19.4464,0 14.8353,18.828,0 14.3622,18.1441,0 13.9855,17.4064,0 13.7118,16.6275,0 13.5457,15.8208,0 13.49,15.0,0 13.5457,14.1792,0 13.7118,13.3725,0 13.9855,12.5936,0 14.3622,11.8559,0 14.8353,11.172,0 15.3967,10.5536,0 16.037,10.0113,0 16.745,9.5543,0 17.5087,9.1905,0 18.3151,8.9261,0 19.1503,8.7656,0 20.0,8.7118,0 20.8497,8.7656,0 21.6849,8.9261,0 22.4913,9.1905,0 23.255,9.5543,0 23.963,10.0113,0 24.6033,10.5536,0 25.1647,11.172,0 25.6378,11.8559,0 26.0145,12.5936,0 26.2882,13.3725,0 26.4543,14.1792,0 26.51,15.0,0</coordinates></LineString></Placemark>
<Placemark><styleUrl>#ring_4</styleUrl><LineString><tessellate>1</tessellate><altitudeMode>relativeToGround</altitudeMode><coordinates>33.02,15.0,0 32.9086,16.6415,0 32.5764,18.255,0 32.0289,19.8128,0 31.2757,21.2882,0 30.3295,22.656,0 29.2065,23.8928,0 27.9261,24.9775,0 26.51,25.8914,0 24.9825,26.619,0 23.3698,27.1478,0 21.6995,27.4688,0 20.0,27.5764,0 18.3005,27.4688,0 16.6302,27.1478,0 15.0175,26.619,0 13.49,25.8914,0 12.0739,24.9775,0 10.7935,23.8928,0 9.6705,22.656,0 8.7243,21.2882,0 7.9711,19.8128,0 7.4236,18.255,0 7.0914,16.6415,0 6.98,15.0,0 7.0914,13.3585,0 7.4236,11.745,0 7.9711,10.1872,0 8.7243,8.7118,0 9.6705,7.344,0 10.7935,6.1072,0 12.0739,5.0225,0 13.49,4.1086,0 15.0175,3.381,0 16.6302,2.8522,0 18.3005,2.5312,0 20.0,2.4236,0 21.6995,2.5312,0 23.3698,2.8522,0 24.9825,3.381,0 26.51,4.1086,0 27.9261,5.0225,0 29.2065,6.1072,0 30.3295,7.344,0 31.2757,8.7118,0 32.0289,10.1872,0 32.5764,11.745,0 32.9086,13.3585,0 33.02,15.0,0</coordinates></LineString></Placemark>
<Placemark><styleUrl>#arc_5</styleUrl><LineString><tessellate>1</tessellate><altitudeMode>relativeToGround</altitudeMode><coordinates>29.3,15.0,0 29.2773,15.6266,0 29.2095,16.2502,0 29.0968,16.8677,0 28.9397,17.4761,0 28.7391,18.0724,0 28.496,18.6538,0 28.2114,19.2173,0 27.8868,19.7603,0 27.5239,20.2801,0 27.1242,20.7742,0 26.6899,21.2402,0 26.2229,21.6758,0 25.7257,22.0788,0 25.2005,22.4473,0 24.65,22.7796,0 24.0769,23.074,0 23.4838,23.329,0 22.8739,23.5434,0 22.2499,23.7163,0 21.6149,23.8466,0 20.9721,23.9339,0 20.3246,23.9776,0 19.6754,23.9776,0 19.0279,23.9339,0 18.3851,23.8466,0 17.7501,23.7163,0 17.1261,23.5434,0 16.5162,23.329,0 15.9231,23.074,0 15.35,22.7796,0 14.7995,22.4473,0 14.2743,22.0788,0 13.7771,21.6758,0 13.3101,21.2402,0 12.8758,20.7742,0 12.4761,20.2801,0 12.1132,19.7603,0 11.7886,19.2173,0 11.504,18.6538,0 11.2609,18.0724,0 11.0603,17.4761,0 10.9032,16.8677,0 10.7905,16.2502,0 10.7227,15.6266,0 10.7,15.0,0 10.7227,14.3734,0 10.7905,13.7498,0 10.9032,13.1323,0 11.0603,12.5239,0 11.2609,11.9276,0 11.504,11.3462,0 11.7886,10.7827,0 12.1132,10.2397,0 12.4761,9.7199,0 12.8758,9.2258,0 13.3101,8.7598,0 13.7771,8.3242,0 14.2743,7.9212,0 14.7995,7.5527,0 15.35,7.2204,0 15.9231,6.926,0 16.5162,6.671,0 17.1261,6.4566,0 17.7501,6.2837,0 18.3851,6.1534,0 19.0279,6.0661,0 19.6754,6.0224,0 20.3246,6.0224,0 20.9721,6.0661,0 21.6149,6.1534,0 22.2499,6.2837,0 22.8739,6.4566,0 23.4838,6.671,0 24.0769,6.926,0 24.65,7.2204,0</coordinates></LineString></Placemark>
</Document></kml>
