<?xml version="1.0" encoding="UTF-8"?>
<kml xmlns="http://www.opengis.net/kml/2.2">
  <Document>
    <name>Barcelona, Spain</name>
    <Placemark>
      <name>Barcelona</name>
      <Point>
        <coordinates>2.1734,41.3851,0</coordinates>
      </Point>
    </Placemark>
    <Placemark>
      <name>Sagrada Familia</name>
      <Point>
        <coordinates>2.1744,41.4036,0</coordinates>
      </Point>
    </Placemark>
    <Placemark>
      <name>Camp Nou</name>
      <Point>
        <coordinates>2.1228,41.3809,0</coordinates>
      </Point>
    </Placemark>
  </Document>
</kml>
