<?xml version="1.0" encoding="UTF-8"?>
<kml xmlns="http://www.opengis.net/kml/2.2" xmlns:gx="http://www.google.com/kml/ext/2.2" xmlns:kml="http://www.opengis.net/kml/2.2">
<Document><name>ISS + LEO Constellation</name>
<LookAt><longitude>-30.0</longitude><latitude>20.0</latitude><range>18000000</range><tilt>35</tilt><heading>0</heading><altitudeMode>relativeToGround</altitudeMode></LookAt>
<Style id="line_0"><LineStyle><color>ffffe500</color><width>3</width></LineStyle></Style>
<Style id="icon_1"><IconStyle><scale>3.0</scale><Icon><href>http://lg1:81/kml/icons/circle-white.png</href></Icon></IconStyle></Style>
<Style id="ring_2"><LineStyle><color>ffffe500</color><width>1</width></LineStyle></Style>
<Style id="line_3"><LineStyle><color>fffac85a</color><width>2</width></LineStyle></Style>
<Style id="burst_4"><LineStyle><color>ffffe500</color><width>2</width></LineStyle></Style>
<Placemark><styleUrl>#line_0</styleUrl><LineString><tessellate>1</tessellate><altitudeMode>absolute</altitudeMode><coordinates>-170.0,51.6,408000 -80.0,30.0,408000 0.0,-30.0,408000 80.0,-51.6,408000 170.0,0.0,408000 80.0,51.6,408000 0.0,30.0,408000</coordinates></LineString></Placemark>
<Placemark><styleUrl>#icon_1</styleUrl><Point><altitudeMode>absolute</altitudeMode><coordinates>-80.0,30.0,408000</coordinates></Point></Placemark>
<Placemark><styleUrl>#ring_2</styleUrl><LineString><tessellate>1</tessellate><altitudeMode>absolute</altitudeMode><coordinates>44.9156,0.0,408000 44.5313,5.8627,408000 43.3851,11.625,408000 41.4966,17.1884,408000 38.898,22.4578,408000 35.6339,27.3429,408000 31.7601,31.7601,408000 27.3429,35.6339,408000 22.4578,38.898,408000 17.1884,41.4966,408000 11.625,43.3851,408000 5.8627,44.5313,408000 0.0,44.9156,408000 -5.8627,44.5313,408000 -11.625,43.3851,408000 -17.1884,41.4966,408000 -22.4578,38.898,408000 -27.3429,35.6339,408000 -31.7601,31.7601,408000 -35.6339,27.3429,408000 -38.898,22.4578,408000 -41.4966,17.1884,408000 -43.3851,11.625,408000 -44.5313,5.8627,408000 -44.9156,0.0,408000 -44.5313,-5.8627,408000 -43.3851,-11.625,408000 -41.4966,-17.1884,408000 -38.898,-22.4578,408000 -35.6339,-27.3429,408000 -31.7601,-31.7601,408000 -27.3429,-35.6339,408000 -22.4578,-38.898,408000 -17.1884,-41.4966,408000 -11.625,-43.3851,408000 -5.8627,-44.5313,408000 -0.0,-44.9156,408000 5.8627,-44.5313,408000 11.625,-43.3851,408000 17.1884,-41.4966,408000 22.4578,-38.898,408000 27.3429,-35.6339,408000 31.7601,-31.7601,408000 35.6339,-27.3429,408000 38.898,-22.4578,408000 41.4966,-17.1884,408000 43.3851,-11.625,408000 44.5313,-5.8627,408000 44.9156,-0.0,408000</coordinates></LineString></Placemark>
<Placemark><styleUrl>#ring_2</styleUrl><LineString><tessellate>1</tessellate><altitudeMode>absolute</altitudeMode><coordinates>62.8818,0.0,408000 62.3438,8.2077,408000 60.7391,16.275,408000 58.0952,24.0638,408000 54.4572,31.4409,408000 49.8875,38.28,408000 44.4641,44.4641,408000 38.28,49.8875,408000 31.4409,54.4572,408000 24.0638,58.0952,408000 16.275,60.7391,408000 8.2077,62.3438,408000 0.0,62.8818,408000 -8.2077,62.3438,408000 -16.275,60.7391,408000 -24.0638,58.0952,408000 -31.4409,54.4572,408000 -38.28,49.8875,408000 -44.4641,44.4641,408000 -49.8875,38.28,408000 -54.4572,31.4409,408000 -58.0952,24.0638,408000 -60.7391,16.275,408000 -62.3438,8.2077,408000 -62.8818,0.0,408000 -62.3438,-8.2077,408000 -60.7391,-16.275,408000 -58.0952,-24.0638,408000 -54.4572,-31.4409,408000 -49.8875,-38.28,408000 -44.4641,-44.4641,408000 -38.28,-49.8875,408000 -31.4409,-54.4572,408000 -24.0638,-58.0952,408000 -16.275,-60.7391,408000 -8.2077,-62.3438,408000 -0.0,-62.8818,408000 8.2077,-62.3438,408000 16.275,-60.7391,408000 24.0638,-58.0952,408000 31.4409,-54.4572,408000 38.28,-49.8875,408000 44.4641,-44.4641,408000 49.8875,-38.28,408000 54.4572,-31.4409,408000 58.0952,-24.0638,408000 60.7391,-16.275,408000 62.3438,-8.2077,408000 62.8818,-0.0,408000</coordinates></LineString></Placemark>
<Placemark><styleUrl>#line_3</styleUrl><LineString><tessellate>1</tessellate><altitudeMode>absolute</altitudeMode><coordinates>-160.0,-51.6,300000 -60.0,-20.0,300000 40.0,40.0,300000 140.0,10.0,300000</coordinates></LineString></Placemark>
<Placemark><styleUrl>#burst_4</styleUrl><LineString><tessellate>1</tessellate><altitudeMode>relativeToGround</altitudeMode><coordinates>-100.0,40.0,0 -94.1367,40.0,0</coordinates></LineString></Placemark>
<Placemark><styleUrl>#burst_4</styleUrl><LineString><tessellate>1</tessellate><altitudeMode>relativeToGround</altitudeMode><coordinates>-100.0,40.0,0 -97.0683,43.8898,0</coordinates></LineString></Placemark>
<Placemark><styleUrl>#burst_4</styleUrl><LineString><tessellate>1</tessellate><altitudeMode>relativeToGround</altitudeMode><coordinates>-100.0,40.0,0 -102.9317,43.8898,0</coordinates></LineString></Placemark>
<Placemark><styleUrl>#burst_4</styleUrl><LineString><tessellate>1</tessellate><altitudeMode>relativeToGround</altitudeMode><coordinates>-100.0,40.0,0 -105.8633,40.0,0</coordinates></LineString></Placemark>
<Placemark><styleUrl>#burst_4</styleUrl><LineString><tessellate>1</tessellate><altitudeMode>relativeToGround</altitudeMode><coordinates>-100.0,40.0,0 -102.9317,36.1102,0</coordinates></LineString></Placemark>
<Placemark><styleUrl>#burst_4</styleUrl><LineString><tessellate>1</tessellate><altitudeMode>relativeToGround</altitudeMode><coordinates>-100.0,40.0,0 -97.0683,36.1102,0</coordinates></LineString></Placemark>
</Document></kml>
