<?xml version="1.0" encoding="UTF-8"?>
<kml xmlns="http://www.opengis.net/kml/2.2" xmlns:gx="http://www.google.com/kml/ext/2.2" xmlns:kml="http://www.opengis.net/kml/2.2">
<Document><name>Starlink Mesh</name>
<LookAt><longitude>0.0</longitude><latitude>0.0</latitude><range>20000000</range><tilt>40</tilt><heading>0</heading><altitudeMode>relativeToGround</altitudeMode></LookAt>
<Style id="line_0"><LineStyle><color>ff58d130</color><width>2</width></LineStyle></Style>
<Style id="line_1"><LineStyle><color>ff58d130</color><width>1</width></LineStyle></Style>
<Style id="icon_2"><IconStyle><scale>2.6</scale><Icon><href>http://lg1:81/kml/icons/circle-green.png</href></Icon></IconStyle></Style>
<Style id="icon_3"><IconStyle><scale>2.6</scale><Icon><href>http://lg1:81/kml/icons/circle-green.png</href></Icon></IconStyle></Style>
<Style id="ring_4"><LineStyle><color>ff58d130</color><width>1</width></LineStyle></Style>
<Style id="icon_5"><IconStyle><scale>2.6</scale><Icon><href>http://lg1:81/kml/icons/circle-green.png</href></Icon></IconStyle></Style>
<Style id="icon_6"><IconStyle><scale>2.6</scale><Icon><href>http://lg1:81/kml/icons/circle-green.png</href></Icon></IconStyle></Style>
<Style id="poly_7"><PolyStyle><color>1858d130</color></PolyStyle></Style>
<Placemark><styleUrl>#line_0</styleUrl><LineString><tessellate>1</tessellate><altitudeMode>absolute</altitudeMode><coordinates>-160.0,53.0,550000 -60.0,0.0,550000 40.0,-53.0,550000 140.0,0.0,550000</coordinates></LineString></Placemark>
<Placemark><styleUrl>#line_1</styleUrl><LineString><tessellate>1</tessellate><altitudeMode>absolute</altitudeMode><coordinates>-150.0,53.0,340000 -50.0,10.0,340000 50.0,-53.0,340000 150.0,10.0,340000</coordinates></LineString></Placemark>
<Placemark><styleUrl>#icon_2</styleUrl><Point><altitudeMode>absolute</altitudeMode><coordinates>-60.0,20.0,550000</coordinates></Point></Placemark>
<Placemark><styleUrl>#icon_3</styleUrl><Point><altitudeMode>absolute</altitudeMode><coordinates>40.0,-20.0,550000</coordinates></Point></Placemark>
<Placemark><styleUrl>#ring_4</styleUrl><LineString><tessellate>1</tessellate><altitudeMode>absolute</altitudeMode><coordinates>49.4071,0.0,550000 48.9844,6.4489,550000 47.7236,12.7875,550000 45.6462,18.9073,550000 42.7878,24.7036,550000 39.1973,30.0771,550000 34.9361,34.9361,550000 30.0771,39.1973,550000 24.7036,42.7878,550000 18.9073,45.6462,550000 12.7875,47.7236,550000 6.4489,48.9844,550000 0.0,49.4071,550000 -6.4489,48.9844,550000 -12.7875,47.7236,550000 -18.9073,45.6462,550000 -24.7036,42.7878,550000 -30.0771,39.1973,550000 -34.9361,34.9361,550000 -39.1973,30.0771,550000 -42.7878,24.7036,550000 -45.6462,18.9073,550000 -47.7236,12.7875,550000 -48.9844,6.4489,550000 -49.4071,0.0,550000 -48.9844,-6.4489,550000 -47.7236,-12.7875,550000 -45.6462,-18.9073,550000 -42.7878,-24.7036,550000 -39.1973,-30.0771,550000 -34.9361,-34.9361,550000 -30.0771,-39.1973,550000 -24.7036,-42.7878,550000 -18.9073,-45.6462,550000 -12.7875,-47.7236,550000 -6.4489,-48.9844,550000 -0.0,-49.4071,550000 6.4489,-48.9844,550000 12.7875,-47.7236,550000 18.9073,-45.6462,550000 24.7036,-42.7878,550000 30.0771,-39.1973,550000 34.9361,-34.9361,550000 39.1973,-30.0771,550000 42.7878,-24.7036,550000 45.6462,-18.9073,550000 47.7236,-12.7875,550000 48.9844,-6.4489,550000 49.4071,-0.0,550000</coordinates></LineString></Placemark>
<Placemark><styleUrl>#ring_4</styleUrl><LineString><tessellate>1</tessellate><altitudeMode>absolute</altitudeMode><coordinates>67.3733,0.0,550000 66.7969,8.794,550000 65.0776,17.4375,550000 62.2448,25.7827,550000 58.347,33.6867,550000 53.4509,41.0143,550000 47.6401,47.6401,550000 41.0143,53.4509,550000 33.6867,58.347,550000 25.7827,62.2448,550000 17.4375,65.0776,550000 8.794,66.7969,550000 0.0,67.3733,550000 -8.794,66.7969,550000 -17.4375,65.0776,550000 -25.7827,62.2448,550000 -33.6867,58.347,550000 -41.0143,53.4509,550000 -47.6401,47.6401,550000 -53.4509,41.0143,550000 -58.347,33.6867,550000 -62.2448,25.7827,550000 -65.0776,17.4375,550000 -66.7969,8.794,550000 -67.3733,0.0,550000 -66.7969,-8.794,550000 -65.0776,-17.4375,550000 -62.2448,-25.7827,550000 -58.347,-33.6867,550000 -53.4509,-41.0143,550000 -47.6401,-47.6401,550000 -41.0143,-53.4509,550000 -33.6867,-58.347,550000 -25.7827,-62.2448,550000 -17.4375,-65.0776,550000 -8.794,-66.7969,550000 -0.0,-67.3733,550000 8.794,-66.7969,550000 17.4375,-65.0776,550000 25.7827,-62.2448,550000 33.6867,-58.347,550000 41.0143,-53.4509,550000 47.6401,-47.6401,550000 53.4509,-41.0143,550000 58.347,-33.6867,550000 62.2448,-25.7827,550000 65.0776,-17.4375,550000 66.7969,-8.794,550000 67.3733,-0.0,550000</coordinates></LineString></Placemark>
<Placemark><styleUrl>#icon_5</styleUrl><Point><altitudeMode>absolute</altitudeMode><coordinates>-140.0,-40.0,340000</coordinates></Point></Placemark>
<Placemark><styleUrl>#icon_6</styleUrl><Point><altitudeMode>absolute</altitudeMode><coordinates>100.0,45.0,340000</coordinates></Point></Placemark>
<Placemark><styleUrl>#poly_7</styleUrl><Polygon><tessellate>1</tessellate><altitudeMode>relativeToGround</altitudeMode><outerBoundaryIs><LinearRing><coordinates>-75.0,25.0,0 -20.0,25.0,0 -10.0,-25.0,0 -65.0,-25.0,0 -75.0,25.0,0</coordinates></LinearRing></outerBoundaryIs></Polygon></Placemark>
</Document></kml>
