<?xml version="1.0" encoding="UTF-8"?>
<kml xmlns="http://www.opengis.net/kml/2.2">
<Document><name>European Gas Network</name>
<LookAt><longitude>15.0</longitude><latitude>50.0</latitude><range>4000000</range><tilt>45</tilt><heading>0</heading><altitudeMode>relativeToGround</altitudeMode></LookAt>
<Style id="line_0"><LineStyle><color>ff0095ff</color><width>4</width></LineStyle></Style>
<Style id="line_1"><LineStyle><color>ff0095ff</color><width>3</width></LineStyle></Style>
<Style id="col_2"><LineStyle><color>ff0095ff</color><width>1</width></LineStyle><PolyStyle><color>ff0095ff</color></PolyStyle></Style>
<Style id="icon_3"><IconStyle><scale>1.2</scale><Icon><href>http://maps.google.com/mapfiles/kml/paddle/orange-circle.png</href></Icon></IconStyle></Style>
<Style id="icon_4"><IconStyle><scale>1.1</scale><Icon><href>http://maps.google.com/mapfiles/kml/paddle/orange-circle.png</href></Icon></IconStyle></Style>
<Style id="poly_5"><PolyStyle><color>330095ff</color></PolyStyle></Style>
<Style id="ring_6"><LineStyle><color>ff0095ff</color><width>2</width></LineStyle></Style>
<Style id="ring_7"><LineStyle><color>550095ff</color><width>3</width></LineStyle></Style>
<Style id="ring_8"><LineStyle><color>3c0095ff</color><width>3</width></LineStyle></Style>
<Style id="ring_9"><LineStyle><color>280095ff</color><width>3</width></LineStyle></Style>
<Placemark><styleUrl>#line_0</styleUrl><LineString><tessellate>1</tessellate><altitudeMode>relativeToGround</altitudeMode><coordinates>4.0,52.0,0 10.0,50.0,0 16.0,48.0,0 24.0,46.0,0</coordinates></LineString></Placemark>
<Placemark><styleUrl>#line_1</styleUrl><LineString><tessellate>1</tessellate><altitudeMode>relativeToGround</altitudeMode><coordinates>2.0,46.0,0 8.0,48.0,0 14.0,50.0,0</coordinates></LineString></Placemark>
<Placemark><styleUrl>#col_2</styleUrl><Polygon><extrude>1</extrude><tessellate>1</tessellate><altitudeMode>relativeToGround</altitudeMode><outerBoundaryIs><LinearRing><coordinates>14.8,49.8,30000 15.2,49.8,30000 15.2,50.2,30000 14.8,50.2,30000 14.8,49.8,30000</coordinates></LinearRing></outerBoundaryIs></Polygon></Placemark>
<Placemark><styleUrl>#icon_3</styleUrl><Point><altitudeMode>relativeToGround</altitudeMode><coordinates>7.0,53.5,0</coordinates></Point></Placemark>
<Placemark><styleUrl>#icon_4</styleUrl><Point><altitudeMode>relativeToGround</altitudeMode><coordinates>24.0,48.0,0</coordinates></Point></Placemark>
<Placemark><styleUrl>#poly_5</styleUrl><Polygon><tessellate>1</tessellate><altitudeMode>relativeToGround</altitudeMode><outerBoundaryIs><LinearRing><coordinates>8.0,53.0,0 14.0,53.0,0 12.0,50.0,0 6.0,50.0,0 8.0,53.0,0</coordinates></LinearRing></outerBoundaryIs></Polygon></Placemark>
<Placemark><styleUrl>#ring_6</styleUrl><LineString><tessellate>1</tessellate><altitudeMode>relativeToGround</altitudeMode><coordinates>17.5155,50.0,0 17.494,50.2111,0 17.4298,50.4185,0 17.3241,50.6188,0 17.1785,50.8085,0 16.9957,50.9843,0 16.7788,51.1434,0 16.5314,51.2828,0 16.2578,51.4003,0 15.9627,51.4939,0 15.6511,51.5619,0 15.3283,51.6031,0 15.0,51.617,0 14.6717,51.6031,0 14.3489,51.5619,0 14.0373,51.4939,0 13.7422,51.4003,0 13.4686,51.2828,0 13.2212,51.1434,0 13.0043,50.9843,0 12.8215,50.8085,0 12.6759,50.6188,0 12.5702,50.4185,0 12.506,50.2111,0 12.4845,50.0,0 12.506,49.7889,0 12.5702,49.5815,0 12.6759,49.3812,0 12.8215,49.1915,0 13.0043,49.0157,0 13.2212,48.8566,0 13.4686,48.7172,0 13.7422,48.5997,0 14.0373,48.5061,0 14.3489,48.4381,0 14.6717,48.3969,0 15.0,48.383,0 15.3283,48.3969,0 15.6511,48.4381,0 15.9627,48.5061,0 16.2578,48.5997,0 16.5314,48.7172,0 16.7788,48.8566,0 16.9957,49.0157,0 17.1785,49.1915,0 17.3241,49.3812,0 17.4298,49.5815,0 17.494,49.7889,0 17.5155,50.0,0</coordinates></LineString></Placemark>
<Placemark><styleUrl>#ring_6</styleUrl><LineString><tessellate>1</tessellate><altitudeMode>relativeToGround</altitudeMode><coordinates>20.0311,50.0,0 19.988,50.4221,0 19.8597,50.837,0 19.6481,51.2376,0 19.357,51.617,0 18.9914,51.9687,0 18.5575,52.2867,0 18.0627,52.5656,0 17.5155,52.8007,0 16.9253,52.9878,0 16.3021,53.1237,0 15.6567,53.2063,0 15.0,53.2339,0 14.3433,53.2063,0 13.6979,53.1237,0 13.0747,52.9878,0 12.4845,52.8007,0 11.9373,52.5656,0 11.4425,52.2867,0 11.0086,51.9687,0 10.643,51.617,0 10.3519,51.2376,0 10.1403,50.837,0 10.012,50.4221,0 9.9689,50.0,0 10.012,49.5779,0 10.1403,49.163,0 10.3519,48.7624,0 10.643,48.383,0 11.0086,48.0313,0 11.4425,47.7133,0 11.9373,47.4344,0 12.4845,47.1993,0 13.0747,47.0122,0 13.6979,46.8763,0 14.3433,46.7937,0 15.0,46.7661,0 15.6567,46.7937,0 16.3021,46.8763,0 16.9253,47.0122,0 17.5155,47.1993,0 18.0627,47.4344,0 18.5575,47.7133,0 18.9914,48.0313,0 19.357,48.383,0 19.6481,48.7624,0 19.8597,49.163,0 19.988,49.5779,0 20.0311,50.0,0</coordinates></LineString></Placemark>
<Placemark><styleUrl>#ring_7</styleUrl><LineString><tessellate>1</tessellate><altitudeMode>relativeToGround</altitudeMode><coordinates>15.9224,50.0,0 15.9145,50.0774,0 15.8909,50.1535,0 15.8522,50.2269,0 15.7988,50.2964,0 15.7318,50.3609,0 15.6522,50.4192,0 15.5615,50.4704,0 15.4612,50.5135,0 15.353,50.5478,0 15.2387,50.5727,0 15.1204,50.5878,0 15.0,50.5929,0 14.8796,50.5878,0 14.7613,50.5727,0 14.647,50.5478,0 14.5388,50.5135,0 14.4385,50.4704,0 14.3478,50.4192,0 14.2682,50.3609,0 14.2012,50.2964,0 14.1478,50.2269,0 14.1091,50.1535,0 14.0855,50.0774,0 14.0776,50.0,0 14.0855,49.9226,0 14.1091,49.8465,0 14.1478,49.7731,0 14.2012,49.7036,0 14.2682,49.6391,0 14.3478,49.5808,0 14.4385,49.5296,0 14.5388,49.4865,0 14.647,49.4522,0 14.7613,49.4273,0 14.8796,49.4122,0 15.0,49.4071,0 15.1204,49.4122,0 15.2387,49.4273,0 15.353,49.4522,0 15.4612,49.4865,0 15.5615,49.5296,0 15.6522,49.5808,0 15.7318,49.6391,0 15.7988,49.7036,0 15.8522,49.7731,0 15.8909,49.8465,0 15.9145,49.9226,0 15.9224,50.0,0</coordinates></LineString></Placemark>
<Placemark><styleUrl>#ring_8</styleUrl><LineString><tessellate>1</tessellate><altitudeMode>relativeToGround</altitudeMode><coordinates>16.4255,50.0,0 16.4133,50.1196,0 16.3769,50.2372,0 16.317,50.3506,0 16.2345,50.4581,0 16.1309,50.5578,0 16.008,50.6479,0 15.8678,50.7269,0 15.7127,50.7935,0 15.5455,50.8465,0 15.3689,50.8851,0 15.1861,50.9084,0 15.0,50.9163,0 14.8139,50.9084,0 14.6311,50.8851,0 14.4545,50.8465,0 14.2873,50.7935,0 14.1322,50.7269,0 13.992,50.6479,0 13.8691,50.5578,0 13.7655,50.4581,0 13.683,50.3506,0 13.6231,50.2372,0 13.5867,50.1196,0 13.5745,50.0,0 13.5867,49.8804,0 13.6231,49.7628,0 13.683,49.6494,0 13.7655,49.5419,0 13.8691,49.4422,0 13.992,49.3521,0 14.1322,49.2731,0 14.2873,49.2065,0 14.4545,49.1535,0 14.6311,49.1149,0 14.8139,49.0916,0 15.0,49.0837,0 15.1861,49.0916,0 15.3689,49.1149,0 15.5455,49.1535,0 15.7127,49.2065,0 15.8678,49.2731,0 16.008,49.3521,0 16.1309,49.4422,0 16.2345,49.5419,0 16.317,49.6494,0 16.3769,49.7628,0 16.4133,49.8804,0 16.4255,50.0,0</coordinates></LineString></Placemark>
<Placemark><styleUrl>#ring_9</styleUrl><LineString><tessellate>1</tessellate><altitudeMode>relativeToGround</altitudeMode><coordinates>16.9286,50.0,0 16.9121,50.1618,0 16.8629,50.3209,0 16.7818,50.4744,0 16.6702,50.6198,0 16.53,50.7547,0 16.3637,50.8766,0 16.174,50.9835,0 15.9643,51.0736,0 15.738,51.1453,0 15.4992,51.1974,0 15.2517,51.2291,0 15.0,51.2397,0 14.7483,51.2291,0 14.5008,51.1974,0 14.262,51.1453,0 14.0357,51.0736,0 13.826,50.9835,0 13.6363,50.8766,0 13.47,50.7547,0 13.3298,50.6198,0 13.2182,50.4744,0 13.1371,50.3209,0 13.0879,50.1618,0 13.0714,50.0,0 13.0879,49.8382,0 13.1371,49.6791,0 13.2182,49.5256,0 13.3298,49.3802,0 13.47,49.2453,0 13.6363,49.1234,0 13.826,49.0165,0 14.0357,48.9264,0 14.262,48.8547,0 14.5008,48.8026,0 14.7483,48.7709,0 15.0,48.7603,0 15.2517,48.7709,0 15.4992,48.8026,0 15.738,48.8547,0 15.9643,48.9264,0 16.174,49.0165,0 16.3637,49.1234,0 16.53,49.2453,0 16.6702,49.3802,0 16.7818,49.5256,0 16.8629,49.6791,0 16.9121,49.8382,0 16.9286,50.0,0</coordinates></LineString></Placemark>
</Document></kml>
