<?xml version="1.0" encoding="UTF-8"?>
<kml xmlns="http://www.opengis.net/kml/2.2" xmlns:gx="http://www.google.com/kml/ext/2.2" xmlns:kml="http://www.opengis.net/kml/2.2">
<Document><name>Renewable Power Belt</name>
<LookAt><longitude>10.0</longitude><latitude>45.0</latitude><range>4000000</range><tilt>45</tilt><heading>0</heading><altitudeMode>relativeToGround</altitudeMode></LookAt>
<Style id="col_0"><LineStyle><color>ff59c734</color><width>1</width></LineStyle><PolyStyle><color>ff59c734</color></PolyStyle></Style>
<Style id="col_1"><LineStyle><color>ff59c734</color><width>1</width></LineStyle><PolyStyle><color>ff59c734</color></PolyStyle></Style>
<Style id="col_2"><LineStyle><color>ff59c734</color><width>1</width></LineStyle><PolyStyle><color>ff59c734</color></PolyStyle></Style>
<Style id="burst_3"><LineStyle><color>ff0ad6ff</color><width>2</width></LineStyle></Style>
<Style id="ring_4"><LineStyle><color>ff59c734</color><width>2</width></LineStyle></Style>
<Style id="dot_5"><IconStyle><scale>0.8</scale><Icon><href>http://lg1:81/kml/icons/circle-green.png</href></Icon></IconStyle></Style>
<Style id="line_6"><LineStyle><color>ff59c734</color><width>3</width></LineStyle></Style>
<Placemark><styleUrl>#col_0</styleUrl><Polygon><extrude>1</extrude><tessellate>1</tessellate><altitudeMode>relativeToGround</altitudeMode><outerBoundaryIs><LinearRing><coordinates>7.8,51.8,26000 8.2,51.8,26000 8.2,52.2,26000 7.8,52.2,26000 7.8,51.8,26000</coordinates></LinearRing></outerBoundaryIs></Polygon></Placemark>
<Placemark><styleUrl>#col_1</styleUrl><Polygon><extrude>1</extrude><tessellate>1</tessellate><altitudeMode>relativeToGround</altitudeMode><outerBoundaryIs><LinearRing><coordinates>1.825,44.825,20000 2.175,44.825,20000 2.175,45.175,20000 1.825,45.175,20000 1.825,44.825,20000</coordinates></LinearRing></outerBoundaryIs></Polygon></Placemark>
<Placemark><styleUrl>#col_2</styleUrl><Polygon><extrude>1</extrude><tessellate>1</tessellate><altitudeMode>relativeToGround</altitudeMode><outerBoundaryIs><LinearRing><coordinates>18.85,46.85,16000 19.15,46.85,16000 19.15,47.15,16000 18.85,47.15,16000 18.85,46.85,16000</coordinates></LinearRing></outerBoundaryIs></Polygon></Placemark>
<Placemark><styleUrl>#burst_3</styleUrl><LineString><tessellate>1</tessellate><altitudeMode>relativeToGround</altitudeMode><coordinates>10.0,45.0,0 11.5245,45.0,0</coordinates></LineString></Placemark>
<Placemark><styleUrl>#burst_3</styleUrl><LineString><tessellate>1</tessellate><altitudeMode>relativeToGround</altitudeMode><coordinates>10.0,45.0,0 11.078,45.7622,0</coordinates></LineString></Placemark>
<Placemark><styleUrl>#burst_3</styleUrl><LineString><tessellate>1</tessellate><altitudeMode>relativeToGround</altitudeMode><coordinates>10.0,45.0,0 10.0,46.078,0</coordinates></LineString></Placemark>
<Placemark><styleUrl>#burst_3</styleUrl><LineString><tessellate>1</tessellate><altitudeMode>relativeToGround</altitudeMode><coordinates>10.0,45.0,0 8.922,45.7622,0</coordinates></LineString></Placemark>
<Placemark><styleUrl>#burst_3</styleUrl><LineString><tessellate>1</tessellate><altitudeMode>relativeToGround</altitudeMode><coordinates>10.0,45.0,0 8.4755,45.0,0</coordinates></LineString></Placemark>
<Placemark><styleUrl>#burst_3</styleUrl><LineString><tessellate>1</tessellate><altitudeMode>relativeToGround</altitudeMode><coordinates>10.0,45.0,0 8.922,44.2378,0</coordinates></LineString></Placemark>
<Placemark><styleUrl>#burst_3</styleUrl><LineString><tessellate>1</tessellate><altitudeMode>relativeToGround</altitudeMode><coordinates>10.0,45.0,0 10.0,43.922,0</coordinates></LineString></Placemark>
<Placemark><styleUrl>#burst_3</styleUrl><LineString><tessellate>1</tessellate><altitudeMode>relativeToGround</altitudeMode><coordinates>10.0,45.0,0 11.078,44.2378,0</coordinates></LineString></Placemark>
<Placemark><styleUrl>#ring_4</styleUrl><LineString><tessellate>1</tessellate><altitudeMode>relativeToGround</altitudeMode><coordinates>11.9056,45.0,0 11.8893,45.1759,0 11.8407,45.3488,0 11.7606,45.5157,0 11.6503,45.6737,0 11.5118,45.8203,0 11.3475,45.9528,0 11.1601,46.069,0 10.9528,46.1669,0 10.7292,46.2449,0 10.4932,46.3016,0 10.2487,46.3359,0 10.0,46.3475,0 9.7513,46.3359,0 9.5068,46.3016,0 9.2708,46.2449,0 9.0472,46.1669,0 8.8399,46.069,0 8.6525,45.9528,0 8.4882,45.8203,0 8.3497,45.6737,0 8.2394,45.5157,0 8.1593,45.3488,0 8.1107,45.1759,0 8.0944,45.0,0 8.1107,44.8241,0 8.1593,44.6512,0 8.2394,44.4843,0 8.3497,44.3263,0 8.4882,44.1797,0 8.6525,44.0472,0 8.8399,43.931,0 9.0472,43.8331,0 9.2708,43.7551,0 9.5068,43.6984,0 9.7513,43.6641,0 10.0,43.6525,0 10.2487,43.6641,0 10.4932,43.6984,0 10.7292,43.7551,0 10.9528,43.8331,0 11.1601,43.931,0 11.3475,44.0472,0 11.5118,44.1797,0 11.6503,44.3263,0 11.7606,44.4843,0 11.8407,44.6512,0 11.8893,44.8241,0 11.9056,45.0,0</coordinates></LineString></Placemark>
<Placemark><styleUrl>#ring_4</styleUrl><LineString><tessellate>1</tessellate><altitudeMode>relativeToGround</altitudeMode><coordinates>13.8112,45.0,0 13.7786,45.3518,0 13.6813,45.6975,0 13.5211,46.0313,0 13.3006,46.3475,0 13.0236,46.6406,0 12.6949,46.9056,0 12.3201,47.138,0 11.9056,47.3339,0 11.4585,47.4898,0 10.9864,47.6031,0 10.4975,47.6719,0 10.0,47.6949,0 9.5025,47.6719,0 9.0136,47.6031,0 8.5415,47.4898,0 8.0944,47.3339,0 7.6799,47.138,0 7.3051,46.9056,0 6.9764,46.6406,0 6.6994,46.3475,0 6.4789,46.0313,0 6.3187,45.6975,0 6.2214,45.3518,0 6.1888,45.0,0 6.2214,44.6482,0 6.3187,44.3025,0 6.4789,43.9687,0 6.6994,43.6525,0 6.9764,43.3594,0 7.3051,43.0944,0 7.6799,42.862,0 8.0944,42.6661,0 8.5415,42.5102,0 9.0136,42.3969,0 9.5025,42.3281,0 10.0,42.3051,0 10.4975,42.3281,0 10.9864,42.3969,0 11.4585,42.5102,0 11.9056,42.6661,0 12.3201,42.862,0 12.6949,43.0944,0 13.0236,43.3594,0 13.3006,43.6525,0 13.5211,43.9687,0 13.6813,44.3025,0 13.7786,44.6482,0 13.8112,45.0,0</coordinates></LineString></Placemark>
<Placemark><styleUrl>#dot_5</styleUrl><Point><altitudeMode>relativeToGround</altitudeMode><coordinates>5.0,54.0,0</coordinates></Point></Placemark>
<Placemark><styleUrl>#dot_5</styleUrl><Point><altitudeMode>relativeToGround</altitudeMode><coordinates>12.0,50.0,0</coordinates></Point></Placemark>
<Placemark><styleUrl>#dot_5</styleUrl><Point><altitudeMode>relativeToGround</altitudeMode><coordinates>18.0,47.0,0</coordinates></Point></Placemark>
<Placemark><styleUrl>#line_6</styleUrl><LineString><tessellate>1</tessellate><altitudeMode>relativeToGround</altitudeMode><coordinates>2.0,45.0,0 10.0,45.0,0 19.0,47.0,0</coordinates></LineString></Placemark>
</Document></kml>
