<?xml version="1.0" encoding="UTF-8"?>
<kml xmlns="http://www.opengis.net/kml/2.2" xmlns:gx="http://www.google.com/kml/ext/2.2">
  <Document>
    <name>Left Screen Logo</name>
    <ScreenOverlay>
      <name>LG Logo - Left</name>
      <Icon>
        <href>http://lg1/kml/logo.png</href>
      </Icon>
      <overlayXY x="0" y="1" xunits="fraction" yunits="fraction"/>
      <screenXY x="0" y="1" xunits="fraction" yunits="fraction"/>
      <rotationXY x="0" y="0" xunits="fraction" yunits="fraction"/>
      <size x="200" y="200" xunits="pixels" yunits="pixels"/>
    </ScreenOverlay>
  </Document>
</kml>
