<?xml version="1.0" encoding="UTF-8"?>
<kml xmlns="http://www.opengis.net/kml/2.2">
  <Document>
    <name>Sample Placemark — New York City</name>
    <description>Working sample KML with point placemark and LookAt</description>
    <Style id="icon">
      <IconStyle>
        <Icon>
          <href>http://maps.google.com/mapfiles/kml/paddle/red-circle.png</href>
        </Icon>
      </IconStyle>
    </Style>
    <Placemark>
      <name>New York City</name>
      <description>The Big Apple</description>
      <styleUrl>#icon</styleUrl>
      <Point>
        <coordinates>-74.006,40.7128,0</coordinates>
      </Point>
    </Placemark>
    <LookAt>
      <longitude>-74.006</longitude>
      <latitude>40.7128</latitude>
      <altitude>0</altitude>
      <range>5000000</range>
      <tilt>0</tilt>
      <heading>0</heading>
    </LookAt>
  </Document>
</kml>
